<?xml version="1.0" encoding="UTF-8"?><gpx version="1.1" creator="cesium-helpers" xmlns="http://www.topografix.com/GPX/1/1"><trk><name>Tour du Mont de Baulmes</name><trkseg><trkpt lat="46.819425" lon="6.501078"><ele>1067.2</ele><time>2019-08-11T09:55:18Z</time></trkpt><trkpt lat="46.819313" lon="6.501304"><ele>1066.7</ele><time>2019-08-11T09:55:35Z</time></trkpt><trkpt lat="46.819254" lon="6.501595"><ele>1065.9</ele><time>2019-08-11T09:55:53Z</time></trkpt><trkpt lat="46.819137" lon="6.501850"><ele>1065.5</ele><time>2019-08-11T09:56:09Z</time></trkpt><trkpt lat="46.819010" lon="6.502053"><ele>1065.0</ele><time>2019-08-11T09:56:19Z</time></trkpt><trkpt lat="46.818855" lon="6.502193"><ele>1064.2</ele><time>2019-08-11T09:56:32Z</time></trkpt><trkpt lat="46.818692" lon="6.502313"><ele>1063.4</ele><time>2019-08-11T09:56:46Z</time></trkpt><trkpt lat="46.818533" lon="6.502475"><ele>1062.6</ele><time>2019-08-11T09:56:57Z</time></trkpt><trkpt lat="46.818345" lon="6.502619"><ele>1062.5</ele><time>2019-08-11T09:57:11Z</time></trkpt><trkpt lat="46.818169" lon="6.502716"><ele>1062.3</ele><time>2019-08-11T09:57:25Z</time></trkpt><trkpt lat="46.817986" lon="6.502757"><ele>1061.6</ele><time>2019-08-11T09:57:40Z</time></trkpt><trkpt lat="46.817801" lon="6.502845"><ele>1060.5</ele><time>2019-08-11T09:57:57Z</time></trkpt><trkpt lat="46.817604" lon="6.502864"><ele>1059.6</ele><time>2019-08-11T09:58:09Z</time></trkpt><trkpt lat="46.817423" lon="6.502992"><ele>1058.2</ele><time>2019-08-11T09:58:21Z</time></trkpt><trkpt lat="46.817240" lon="6.503119"><ele>1054.1</ele><time>2019-08-11T09:58:35Z</time></trkpt><trkpt lat="46.817073" lon="6.503258"><ele>1052.7</ele><time>2019-08-11T09:58:49Z</time></trkpt><trkpt lat="46.816865" lon="6.503382"><ele>1051.1</ele><time>2019-08-11T09:59:05Z</time></trkpt><trkpt lat="46.816671" lon="6.503494"><ele>1049.2</ele><time>2019-08-11T09:59:20Z</time></trkpt><trkpt lat="46.816466" lon="6.503539"><ele>1047.1</ele><time>2019-08-11T09:59:34Z</time></trkpt><trkpt lat="46.816352" lon="6.503753"><ele>1045.2</ele><time>2019-08-11T09:59:47Z</time></trkpt><trkpt lat="46.816300" lon="6.504053"><ele>1045.3</ele><time>2019-08-11T10:00:06Z</time></trkpt><trkpt lat="46.816242" lon="6.504324"><ele>1045.0</ele><time>2019-08-11T10:00:18Z</time></trkpt><trkpt lat="46.816111" lon="6.504517"><ele>1044.0</ele><time>2019-08-11T10:00:32Z</time></trkpt><trkpt lat="46.816011" lon="6.504775"><ele>1041.9</ele><time>2019-08-11T10:00:45Z</time></trkpt><trkpt lat="46.815880" lon="6.505001"><ele>1039.9</ele><time>2019-08-11T10:00:57Z</time></trkpt><trkpt lat="46.815733" lon="6.505191"><ele>1038.3</ele><time>2019-08-11T10:01:12Z</time></trkpt><trkpt lat="46.815588" lon="6.505369"><ele>1037.1</ele><time>2019-08-11T10:01:28Z</time></trkpt><trkpt lat="46.815382" lon="6.505428"><ele>1034.9</ele><time>2019-08-11T10:01:42Z</time></trkpt><trkpt lat="46.815191" lon="6.505466"><ele>1032.8</ele><time>2019-08-11T10:01:57Z</time></trkpt><trkpt lat="46.814985" lon="6.505556"><ele>1031.5</ele><time>2019-08-11T10:02:11Z</time></trkpt><trkpt lat="46.814795" lon="6.505620"><ele>1030.4</ele><time>2019-08-11T10:02:26Z</time></trkpt><trkpt lat="46.814614" lon="6.505675"><ele>1029.0</ele><time>2019-08-11T10:02:39Z</time></trkpt><trkpt lat="46.814446" lon="6.505784"><ele>1028.0</ele><time>2019-08-11T10:02:51Z</time></trkpt><trkpt lat="46.814249" lon="6.505784"><ele>1027.4</ele><time>2019-08-11T10:03:04Z</time></trkpt><trkpt lat="46.814055" lon="6.505818"><ele>1027.4</ele><time>2019-08-11T10:03:22Z</time></trkpt><trkpt lat="46.813865" lon="6.505812"><ele>1027.8</ele><time>2019-08-11T10:03:36Z</time></trkpt><trkpt lat="46.813654" lon="6.505838"><ele>1027.6</ele><time>2019-08-11T10:03:52Z</time></trkpt><trkpt lat="46.813445" lon="6.505889"><ele>1026.9</ele><time>2019-08-11T10:04:07Z</time></trkpt><trkpt lat="46.813261" lon="6.505944"><ele>1026.4</ele><time>2019-08-11T10:04:21Z</time></trkpt><trkpt lat="46.813050" lon="6.505970"><ele>1026.0</ele><time>2019-08-11T10:04:37Z</time></trkpt><trkpt lat="46.812833" lon="6.505972"><ele>1025.7</ele><time>2019-08-11T10:04:53Z</time></trkpt><trkpt lat="46.812640" lon="6.506035"><ele>1025.3</ele><time>2019-08-11T10:05:10Z</time></trkpt><trkpt lat="46.812437" lon="6.506051"><ele>1024.5</ele><time>2019-08-11T10:05:28Z</time></trkpt><trkpt lat="46.812221" lon="6.506114"><ele>1024.2</ele><time>2019-08-11T10:05:46Z</time></trkpt><trkpt lat="46.812020" lon="6.506202"><ele>1023.8</ele><time>2019-08-11T10:06:01Z</time></trkpt><trkpt lat="46.811823" lon="6.506275"><ele>1023.4</ele><time>2019-08-11T10:06:15Z</time></trkpt><trkpt lat="46.811631" lon="6.506272"><ele>1022.9</ele><time>2019-08-11T10:06:28Z</time></trkpt><trkpt lat="46.811514" lon="6.506521"><ele>1022.8</ele><time>2019-08-11T10:06:50Z</time></trkpt><trkpt lat="46.811404" lon="6.506770"><ele>1023.2</ele><time>2019-08-11T10:07:04Z</time></trkpt><trkpt lat="46.811270" lon="6.506986"><ele>1022.6</ele><time>2019-08-11T10:07:23Z</time></trkpt><trkpt lat="46.811124" lon="6.507157"><ele>1022.3</ele><time>2019-08-11T10:07:41Z</time></trkpt><trkpt lat="46.810956" lon="6.507291"><ele>1024.8</ele><time>2019-08-11T10:08:00Z</time></trkpt><trkpt lat="46.810794" lon="6.507469"><ele>1027.6</ele><time>2019-08-11T10:08:24Z</time></trkpt><trkpt lat="46.810674" lon="6.507697"><ele>1030.3</ele><time>2019-08-11T10:08:45Z</time></trkpt><trkpt lat="46.810540" lon="6.507901"><ele>1034.8</ele><time>2019-08-11T10:09:13Z</time></trkpt><trkpt lat="46.810497" lon="6.508171"><ele>1035.9</ele><time>2019-08-11T10:09:26Z</time></trkpt><trkpt lat="46.810461" lon="6.508436"><ele>1036.6</ele><time>2019-08-11T10:09:38Z</time></trkpt><trkpt lat="46.810412" lon="6.508719"><ele>1037.4</ele><time>2019-08-11T10:09:51Z</time></trkpt><trkpt lat="46.810346" lon="6.509008"><ele>1037.9</ele><time>2019-08-11T10:10:03Z</time></trkpt><trkpt lat="46.810352" lon="6.509295"><ele>1038.4</ele><time>2019-08-11T10:10:26Z</time></trkpt><trkpt lat="46.810268" lon="6.509575"><ele>1039.4</ele><time>2019-08-11T10:10:39Z</time></trkpt><trkpt lat="46.810306" lon="6.509861"><ele>1040.5</ele><time>2019-08-11T10:10:53Z</time></trkpt><trkpt lat="46.810231" lon="6.510157"><ele>1042.1</ele><time>2019-08-11T10:11:11Z</time></trkpt><trkpt lat="46.810231" lon="6.510427"><ele>1043.4</ele><time>2019-08-11T10:11:28Z</time></trkpt><trkpt lat="46.810344" lon="6.510688"><ele>1045.1</ele><time>2019-08-11T10:11:41Z</time></trkpt><trkpt lat="46.810248" lon="6.510917"><ele>1046.7</ele><time>2019-08-11T10:11:53Z</time></trkpt><trkpt lat="46.810307" lon="6.511190"><ele>1047.8</ele><time>2019-08-11T10:12:09Z</time></trkpt><trkpt lat="46.810311" lon="6.511476"><ele>1048.6</ele><time>2019-08-11T10:12:23Z</time></trkpt><trkpt lat="46.810274" lon="6.511764"><ele>1049.0</ele><time>2019-08-11T10:12:38Z</time></trkpt><trkpt lat="46.810329" lon="6.512056"><ele>1049.1</ele><time>2019-08-11T10:12:54Z</time></trkpt><trkpt lat="46.810361" lon="6.512336"><ele>1049.5</ele><time>2019-08-11T10:13:08Z</time></trkpt><trkpt lat="46.810450" lon="6.512600"><ele>1049.8</ele><time>2019-08-11T10:13:20Z</time></trkpt><trkpt lat="46.810484" lon="6.512889"><ele>1049.8</ele><time>2019-08-11T10:13:31Z</time></trkpt><trkpt lat="46.810388" lon="6.513112"><ele>1050.0</ele><time>2019-08-11T10:13:47Z</time></trkpt><trkpt lat="46.810322" lon="6.513368"><ele>1050.3</ele><time>2019-08-11T10:14:00Z</time></trkpt><trkpt lat="46.810337" lon="6.513659"><ele>1050.5</ele><time>2019-08-11T10:14:13Z</time></trkpt><trkpt lat="46.810407" lon="6.513954"><ele>1050.8</ele><time>2019-08-11T10:14:34Z</time></trkpt><trkpt lat="46.810499" lon="6.514203"><ele>1050.8</ele><time>2019-08-11T10:14:45Z</time></trkpt><trkpt lat="46.810562" lon="6.514467"><ele>1051.0</ele><time>2019-08-11T10:14:57Z</time></trkpt><trkpt lat="46.810534" lon="6.514748"><ele>1051.5</ele><time>2019-08-11T10:15:11Z</time></trkpt><trkpt lat="46.810556" lon="6.515021"><ele>1051.7</ele><time>2019-08-11T10:15:23Z</time></trkpt><trkpt lat="46.810472" lon="6.515272"><ele>1051.8</ele><time>2019-08-11T10:15:35Z</time></trkpt><trkpt lat="46.810492" lon="6.515559"><ele>1051.7</ele><time>2019-08-11T10:15:49Z</time></trkpt><trkpt lat="46.810586" lon="6.515822"><ele>1051.2</ele><time>2019-08-11T10:16:00Z</time></trkpt><trkpt lat="46.810644" lon="6.516082"><ele>1051.1</ele><time>2019-08-11T10:16:22Z</time></trkpt><trkpt lat="46.810710" lon="6.516330"><ele>1051.5</ele><time>2019-08-11T10:16:34Z</time></trkpt><trkpt lat="46.810775" lon="6.516589"><ele>1051.7</ele><time>2019-08-11T10:16:46Z</time></trkpt><trkpt lat="46.810907" lon="6.516783"><ele>1051.7</ele><time>2019-08-11T10:16:56Z</time></trkpt><trkpt lat="46.810960" lon="6.517046"><ele>1051.7</ele><time>2019-08-11T10:17:09Z</time></trkpt><trkpt lat="46.811045" lon="6.517283"><ele>1051.8</ele><time>2019-08-11T10:17:23Z</time></trkpt><trkpt lat="46.811136" lon="6.517562"><ele>1051.9</ele><time>2019-08-11T10:17:40Z</time></trkpt><trkpt lat="46.811229" lon="6.517794"><ele>1052.0</ele><time>2019-08-11T10:17:51Z</time></trkpt><trkpt lat="46.811327" lon="6.518056"><ele>1052.2</ele><time>2019-08-11T10:18:08Z</time></trkpt><trkpt lat="46.811422" lon="6.518289"><ele>1052.2</ele><time>2019-08-11T10:18:21Z</time></trkpt><trkpt lat="46.811567" lon="6.518504"><ele>1052.6</ele><time>2019-08-11T10:18:35Z</time></trkpt><trkpt lat="46.811633" lon="6.518763"><ele>1053.1</ele><time>2019-08-11T10:18:47Z</time></trkpt><trkpt lat="46.811764" lon="6.518988"><ele>1054.3</ele><time>2019-08-11T10:19:02Z</time></trkpt><trkpt lat="46.811888" lon="6.519228"><ele>1055.7</ele><time>2019-08-11T10:19:20Z</time></trkpt><trkpt lat="46.812045" lon="6.519439"><ele>1055.8</ele><time>2019-08-11T10:19:36Z</time></trkpt><trkpt lat="46.812144" lon="6.519704"><ele>1055.9</ele><time>2019-08-11T10:19:50Z</time></trkpt><trkpt lat="46.812224" lon="6.519951"><ele>1056.0</ele><time>2019-08-11T10:20:02Z</time></trkpt><trkpt lat="46.812250" lon="6.520235"><ele>1056.2</ele><time>2019-08-11T10:20:16Z</time></trkpt><trkpt lat="46.812345" lon="6.520501"><ele>1056.6</ele><time>2019-08-11T10:20:37Z</time></trkpt><trkpt lat="46.812454" lon="6.520734"><ele>1057.0</ele><time>2019-08-11T10:20:48Z</time></trkpt><trkpt lat="46.812442" lon="6.521006"><ele>1057.5</ele><time>2019-08-11T10:21:02Z</time></trkpt><trkpt lat="46.812451" lon="6.521276"><ele>1058.2</ele><time>2019-08-11T10:21:17Z</time></trkpt><trkpt lat="46.812524" lon="6.521548"><ele>1058.9</ele><time>2019-08-11T10:21:33Z</time></trkpt><trkpt lat="46.812610" lon="6.521800"><ele>1059.5</ele><time>2019-08-11T10:21:47Z</time></trkpt><trkpt lat="46.812689" lon="6.522077"><ele>1060.4</ele><time>2019-08-11T10:22:07Z</time></trkpt><trkpt lat="46.812781" lon="6.522306"><ele>1061.4</ele><time>2019-08-11T10:23:04Z</time></trkpt><trkpt lat="46.812779" lon="6.522581"><ele>1062.4</ele><time>2019-08-11T10:23:27Z</time></trkpt><trkpt lat="46.812780" lon="6.522874"><ele>1063.5</ele><time>2019-08-11T10:23:41Z</time></trkpt><trkpt lat="46.812827" lon="6.523150"><ele>1064.8</ele><time>2019-08-11T10:23:57Z</time></trkpt><trkpt lat="46.812822" lon="6.523447"><ele>1065.8</ele><time>2019-08-11T10:24:14Z</time></trkpt><trkpt lat="46.812851" lon="6.523748"><ele>1067.1</ele><time>2019-08-11T10:24:35Z</time></trkpt><trkpt lat="46.812938" lon="6.524026"><ele>1068.3</ele><time>2019-08-11T10:24:50Z</time></trkpt><trkpt lat="46.813001" lon="6.524274"><ele>1069.2</ele><time>2019-08-11T10:25:02Z</time></trkpt><trkpt lat="46.813069" lon="6.524569"><ele>1070.3</ele><time>2019-08-11T10:25:15Z</time></trkpt><trkpt lat="46.813070" lon="6.524841"><ele>1071.4</ele><time>2019-08-11T10:25:31Z</time></trkpt><trkpt lat="46.813024" lon="6.525097"><ele>1072.1</ele><time>2019-08-11T10:25:45Z</time></trkpt><trkpt lat="46.813063" lon="6.525369"><ele>1073.0</ele><time>2019-08-11T10:25:59Z</time></trkpt><trkpt lat="46.813019" lon="6.525638"><ele>1073.7</ele><time>2019-08-11T10:26:12Z</time></trkpt><trkpt lat="46.813011" lon="6.525921"><ele>1074.3</ele><time>2019-08-11T10:26:27Z</time></trkpt><trkpt lat="46.812933" lon="6.526170"><ele>1074.9</ele><time>2019-08-11T10:26:38Z</time></trkpt><trkpt lat="46.812789" lon="6.526394"><ele>1075.8</ele><time>2019-08-11T10:26:50Z</time></trkpt><trkpt lat="46.812712" lon="6.526634"><ele>1076.4</ele><time>2019-08-11T10:27:04Z</time></trkpt><trkpt lat="46.812636" lon="6.526895"><ele>1077.0</ele><time>2019-08-11T10:27:20Z</time></trkpt><trkpt lat="46.812536" lon="6.527122"><ele>1077.4</ele><time>2019-08-11T10:27:33Z</time></trkpt><trkpt lat="46.812438" lon="6.527400"><ele>1078.2</ele><time>2019-08-11T10:27:50Z</time></trkpt><trkpt lat="46.812352" lon="6.527650"><ele>1078.7</ele><time>2019-08-11T10:28:04Z</time></trkpt><trkpt lat="46.812227" lon="6.527863"><ele>1079.3</ele><time>2019-08-11T10:28:16Z</time></trkpt><trkpt lat="46.812104" lon="6.528075"><ele>1079.8</ele><time>2019-08-11T10:28:32Z</time></trkpt><trkpt lat="46.812008" lon="6.528328"><ele>1080.4</ele><time>2019-08-11T10:28:48Z</time></trkpt><trkpt lat="46.811911" lon="6.528586"><ele>1080.8</ele><time>2019-08-11T10:29:06Z</time></trkpt><trkpt lat="46.811782" lon="6.528818"><ele>1081.3</ele><time>2019-08-11T10:29:17Z</time></trkpt><trkpt lat="46.811640" lon="6.529000"><ele>1082.0</ele><time>2019-08-11T10:29:30Z</time></trkpt><trkpt lat="46.811481" lon="6.529173"><ele>1082.6</ele><time>2019-08-11T10:29:47Z</time></trkpt><trkpt lat="46.811337" lon="6.529436"><ele>1084.5</ele><time>2019-08-11T10:30:03Z</time></trkpt><trkpt lat="46.811221" lon="6.529649"><ele>1086.6</ele><time>2019-08-11T10:30:17Z</time></trkpt><trkpt lat="46.811014" lon="6.529670"><ele>1089.0</ele><time>2019-08-11T10:30:33Z</time></trkpt><trkpt lat="46.810850" lon="6.529797"><ele>1090.7</ele><time>2019-08-11T10:30:52Z</time></trkpt><trkpt lat="46.810669" lon="6.529886"><ele>1092.7</ele><time>2019-08-11T10:31:04Z</time></trkpt><trkpt lat="46.810475" lon="6.529994"><ele>1094.6</ele><time>2019-08-11T10:31:19Z</time></trkpt><trkpt lat="46.810279" lon="6.530100"><ele>1096.5</ele><time>2019-08-11T10:31:38Z</time></trkpt><trkpt lat="46.810140" lon="6.530295"><ele>1098.0</ele><time>2019-08-11T10:31:49Z</time></trkpt><trkpt lat="46.809975" lon="6.530471"><ele>1099.4</ele><time>2019-08-11T10:32:03Z</time></trkpt><trkpt lat="46.809837" lon="6.530661"><ele>1100.7</ele><time>2019-08-11T10:32:19Z</time></trkpt><trkpt lat="46.809732" lon="6.530924"><ele>1101.7</ele><time>2019-08-11T10:32:36Z</time></trkpt><trkpt lat="46.809655" lon="6.531181"><ele>1102.6</ele><time>2019-08-11T10:32:53Z</time></trkpt><trkpt lat="46.809540" lon="6.531420"><ele>1103.7</ele><time>2019-08-11T10:33:06Z</time></trkpt><trkpt lat="46.809404" lon="6.531609"><ele>1104.6</ele><time>2019-08-11T10:33:54Z</time></trkpt><trkpt lat="46.809284" lon="6.531849"><ele>1105.2</ele><time>2019-08-11T10:34:15Z</time></trkpt><trkpt lat="46.809192" lon="6.532086"><ele>1105.8</ele><time>2019-08-11T10:34:33Z</time></trkpt><trkpt lat="46.809053" lon="6.532273"><ele>1106.2</ele><time>2019-08-11T10:34:52Z</time></trkpt><trkpt lat="46.808866" lon="6.532413"><ele>1106.6</ele><time>2019-08-11T10:35:06Z</time></trkpt><trkpt lat="46.808705" lon="6.532567"><ele>1106.9</ele><time>2019-08-11T10:35:26Z</time></trkpt><trkpt lat="46.808548" lon="6.532731"><ele>1107.1</ele><time>2019-08-11T10:35:41Z</time></trkpt><trkpt lat="46.808373" lon="6.532802"><ele>1107.3</ele><time>2019-08-11T10:35:52Z</time></trkpt><trkpt lat="46.808174" lon="6.532728"><ele>1107.5</ele><time>2019-08-11T10:36:07Z</time></trkpt><trkpt lat="46.808011" lon="6.532595"><ele>1107.8</ele><time>2019-08-11T10:37:27Z</time></trkpt><trkpt lat="46.807845" lon="6.532468"><ele>1107.9</ele><time>2019-08-11T10:37:39Z</time></trkpt><trkpt lat="46.807655" lon="6.532355"><ele>1107.8</ele><time>2019-08-11T10:37:55Z</time></trkpt><trkpt lat="46.807490" lon="6.532176"><ele>1107.7</ele><time>2019-08-11T10:38:08Z</time></trkpt><trkpt lat="46.807324" lon="6.532031"><ele>1107.5</ele><time>2019-08-11T10:38:21Z</time></trkpt><trkpt lat="46.807116" lon="6.531990"><ele>1107.4</ele><time>2019-08-11T10:38:37Z</time></trkpt><trkpt lat="46.806953" lon="6.531817"><ele>1107.2</ele><time>2019-08-11T10:38:52Z</time></trkpt><trkpt lat="46.806774" lon="6.531649"><ele>1107.0</ele><time>2019-08-11T10:39:06Z</time></trkpt><trkpt lat="46.806640" lon="6.531428"><ele>1106.8</ele><time>2019-08-11T10:39:21Z</time></trkpt><trkpt lat="46.806463" lon="6.531281"><ele>1106.2</ele><time>2019-08-11T10:39:37Z</time></trkpt><trkpt lat="46.806288" lon="6.531159"><ele>1105.6</ele><time>2019-08-11T10:39:54Z</time></trkpt><trkpt lat="46.806183" lon="6.530934"><ele>1105.2</ele><time>2019-08-11T10:40:08Z</time></trkpt><trkpt lat="46.806022" lon="6.530744"><ele>1104.7</ele><time>2019-08-11T10:40:26Z</time></trkpt><trkpt lat="46.805890" lon="6.530543"><ele>1104.1</ele><time>2019-08-11T10:40:39Z</time></trkpt><trkpt lat="46.805803" lon="6.530277"><ele>1103.4</ele><time>2019-08-11T10:40:55Z</time></trkpt><trkpt lat="46.805748" lon="6.530013"><ele>1102.8</ele><time>2019-08-11T10:41:08Z</time></trkpt><trkpt lat="46.805666" lon="6.529744"><ele>1102.3</ele><time>2019-08-11T10:41:19Z</time></trkpt><trkpt lat="46.805533" lon="6.529526"><ele>1101.7</ele><time>2019-08-11T10:41:34Z</time></trkpt><trkpt lat="46.805384" lon="6.529365"><ele>1101.1</ele><time>2019-08-11T10:41:49Z</time></trkpt><trkpt lat="46.805218" lon="6.529233"><ele>1100.6</ele><time>2019-08-11T10:42:01Z</time></trkpt><trkpt lat="46.805035" lon="6.529064"><ele>1099.9</ele><time>2019-08-11T10:42:19Z</time></trkpt><trkpt lat="46.804840" lon="6.529026"><ele>1099.2</ele><time>2019-08-11T10:42:33Z</time></trkpt><trkpt lat="46.804649" lon="6.529071"><ele>1098.7</ele><time>2019-08-11T10:42:45Z</time></trkpt><trkpt lat="46.804503" lon="6.528869"><ele>1097.9</ele><time>2019-08-11T10:42:59Z</time></trkpt><trkpt lat="46.804332" lon="6.528692"><ele>1097.0</ele><time>2019-08-11T10:43:14Z</time></trkpt><trkpt lat="46.804208" lon="6.528459"><ele>1096.2</ele><time>2019-08-11T10:43:27Z</time></trkpt><trkpt lat="46.804135" lon="6.528182"><ele>1095.7</ele><time>2019-08-11T10:43:46Z</time></trkpt><trkpt lat="46.803979" lon="6.528043"><ele>1095.2</ele><time>2019-08-11T10:44:00Z</time></trkpt><trkpt lat="46.803917" lon="6.527794"><ele>1094.7</ele><time>2019-08-11T10:44:14Z</time></trkpt><trkpt lat="46.803803" lon="6.527535"><ele>1093.8</ele><time>2019-08-11T10:44:31Z</time></trkpt><trkpt lat="46.803627" lon="6.527426"><ele>1092.8</ele><time>2019-08-11T10:44:47Z</time></trkpt><trkpt lat="46.803447" lon="6.527304"><ele>1091.5</ele><time>2019-08-11T10:45:02Z</time></trkpt><trkpt lat="46.803298" lon="6.527079"><ele>1089.9</ele><time>2019-08-11T10:45:20Z</time></trkpt><trkpt lat="46.803128" lon="6.526918"><ele>1088.3</ele><time>2019-08-11T10:45:30Z</time></trkpt><trkpt lat="46.802940" lon="6.526968"><ele>1086.8</ele><time>2019-08-11T10:45:40Z</time></trkpt><trkpt lat="46.802764" lon="6.526815"><ele>1084.8</ele><time>2019-08-11T10:45:57Z</time></trkpt><trkpt lat="46.802606" lon="6.526646"><ele>1083.3</ele><time>2019-08-11T10:46:11Z</time></trkpt><trkpt lat="46.802456" lon="6.526485"><ele>1081.6</ele><time>2019-08-11T10:46:25Z</time></trkpt><trkpt lat="46.802351" lon="6.526255"><ele>1079.8</ele><time>2019-08-11T10:46:39Z</time></trkpt><trkpt lat="46.802198" lon="6.526062"><ele>1078.0</ele><time>2019-08-11T10:46:53Z</time></trkpt><trkpt lat="46.802035" lon="6.525899"><ele>1076.6</ele><time>2019-08-11T10:47:07Z</time></trkpt><trkpt lat="46.801855" lon="6.525841"><ele>1075.1</ele><time>2019-08-11T10:47:19Z</time></trkpt><trkpt lat="46.801653" lon="6.525915"><ele>1073.1</ele><time>2019-08-11T10:47:37Z</time></trkpt><trkpt lat="46.801451" lon="6.525881"><ele>1071.4</ele><time>2019-08-11T10:47:50Z</time></trkpt><trkpt lat="46.801259" lon="6.525952"><ele>1070.0</ele><time>2019-08-11T10:48:04Z</time></trkpt><trkpt lat="46.801067" lon="6.525929"><ele>1068.2</ele><time>2019-08-11T10:48:21Z</time></trkpt><trkpt lat="46.801054" lon="6.525647"><ele>1066.6</ele><time>2019-08-11T10:48:33Z</time></trkpt><trkpt lat="46.800172" lon="6.525588"><ele>1060.8</ele><time>2019-08-11T11:32:34Z</time></trkpt><trkpt lat="46.799991" lon="6.525623"><ele>1059.2</ele><time>2019-08-11T11:32:44Z</time></trkpt><trkpt lat="46.799884" lon="6.525387"><ele>1058.4</ele><time>2019-08-11T11:33:02Z</time></trkpt><trkpt lat="46.799708" lon="6.525258"><ele>1058.0</ele><time>2019-08-11T11:33:21Z</time></trkpt><trkpt lat="46.799569" lon="6.525046"><ele>1057.7</ele><time>2019-08-11T11:33:36Z</time></trkpt><trkpt lat="46.799400" lon="6.524920"><ele>1057.4</ele><time>2019-08-11T11:33:52Z</time></trkpt><trkpt lat="46.799215" lon="6.524828"><ele>1057.1</ele><time>2019-08-11T11:34:11Z</time></trkpt><trkpt lat="46.799016" lon="6.524716"><ele>1056.5</ele><time>2019-08-11T11:34:23Z</time></trkpt><trkpt lat="46.798977" lon="6.524456"><ele>1055.0</ele><time>2019-08-11T11:34:39Z</time></trkpt><trkpt lat="46.799032" lon="6.524169"><ele>1053.3</ele><time>2019-08-11T11:34:52Z</time></trkpt><trkpt lat="46.799159" lon="6.523930"><ele>1051.5</ele><time>2019-08-11T11:35:06Z</time></trkpt><trkpt lat="46.799204" lon="6.523660"><ele>1049.8</ele><time>2019-08-11T11:35:20Z</time></trkpt><trkpt lat="46.799260" lon="6.523361"><ele>1047.3</ele><time>2019-08-11T11:35:35Z</time></trkpt><trkpt lat="46.799424" lon="6.523198"><ele>1044.2</ele><time>2019-08-11T11:35:46Z</time></trkpt><trkpt lat="46.799564" lon="6.523026"><ele>1040.7</ele><time>2019-08-11T11:35:58Z</time></trkpt><trkpt lat="46.799683" lon="6.522815"><ele>1043.1</ele><time>2019-08-11T11:36:20Z</time></trkpt><trkpt lat="46.799786" lon="6.522563"><ele>1044.5</ele><time>2019-08-11T11:36:36Z</time></trkpt><trkpt lat="46.799860" lon="6.522300"><ele>1045.7</ele><time>2019-08-11T11:36:56Z</time></trkpt><trkpt lat="46.799947" lon="6.522020"><ele>1046.6</ele><time>2019-08-11T11:37:10Z</time></trkpt><trkpt lat="46.800023" lon="6.521743"><ele>1047.4</ele><time>2019-08-11T11:37:26Z</time></trkpt><trkpt lat="46.800074" lon="6.521448"><ele>1048.1</ele><time>2019-08-11T11:37:43Z</time></trkpt><trkpt lat="46.800132" lon="6.521172"><ele>1048.9</ele><time>2019-08-11T11:37:59Z</time></trkpt><trkpt lat="46.800200" lon="6.520919"><ele>1049.7</ele><time>2019-08-11T11:38:13Z</time></trkpt><trkpt lat="46.800256" lon="6.520662"><ele>1050.3</ele><time>2019-08-11T11:38:26Z</time></trkpt><trkpt lat="46.800322" lon="6.520413"><ele>1050.7</ele><time>2019-08-11T11:38:38Z</time></trkpt><trkpt lat="46.800339" lon="6.520132"><ele>1051.0</ele><time>2019-08-11T11:38:54Z</time></trkpt><trkpt lat="46.800383" lon="6.519856"><ele>1051.4</ele><time>2019-08-11T11:39:12Z</time></trkpt><trkpt lat="46.800428" lon="6.519567"><ele>1052.1</ele><time>2019-08-11T11:39:26Z</time></trkpt><trkpt lat="46.800470" lon="6.519293"><ele>1052.8</ele><time>2019-08-11T11:39:41Z</time></trkpt><trkpt lat="46.800458" lon="6.518995"><ele>1053.8</ele><time>2019-08-11T11:40:01Z</time></trkpt><trkpt lat="46.800537" lon="6.518713"><ele>1054.8</ele><time>2019-08-11T11:40:16Z</time></trkpt><trkpt lat="46.800593" lon="6.518433"><ele>1055.5</ele><time>2019-08-11T11:40:30Z</time></trkpt><trkpt lat="46.800637" lon="6.518162"><ele>1056.3</ele><time>2019-08-11T11:40:47Z</time></trkpt><trkpt lat="46.800677" lon="6.517866"><ele>1057.2</ele><time>2019-08-11T11:41:05Z</time></trkpt><trkpt lat="46.800697" lon="6.517564"><ele>1058.6</ele><time>2019-08-11T11:41:20Z</time></trkpt><trkpt lat="46.800738" lon="6.517273"><ele>1059.7</ele><time>2019-08-11T11:41:38Z</time></trkpt><trkpt lat="46.800819" lon="6.516981"><ele>1060.9</ele><time>2019-08-11T11:41:55Z</time></trkpt><trkpt lat="46.800858" lon="6.516715"><ele>1061.7</ele><time>2019-08-11T11:42:08Z</time></trkpt><trkpt lat="46.800904" lon="6.516441"><ele>1062.7</ele><time>2019-08-11T11:42:24Z</time></trkpt><trkpt lat="46.800970" lon="6.516176"><ele>1063.7</ele><time>2019-08-11T11:42:42Z</time></trkpt><trkpt lat="46.800897" lon="6.515924"><ele>1065.0</ele><time>2019-08-11T11:44:16Z</time></trkpt><trkpt lat="46.801014" lon="6.515683"><ele>1066.3</ele><time>2019-08-11T11:45:28Z</time></trkpt><trkpt lat="46.801099" lon="6.515431"><ele>1067.3</ele><time>2019-08-11T11:45:42Z</time></trkpt><trkpt lat="46.801118" lon="6.515114"><ele>1068.4</ele><time>2019-08-11T11:46:01Z</time></trkpt><trkpt lat="46.801103" lon="6.514820"><ele>1069.6</ele><time>2019-08-11T11:46:16Z</time></trkpt><trkpt lat="46.801196" lon="6.514584"><ele>1070.6</ele><time>2019-08-11T11:46:29Z</time></trkpt><trkpt lat="46.801254" lon="6.514325"><ele>1071.7</ele><time>2019-08-11T11:46:44Z</time></trkpt><trkpt lat="46.801262" lon="6.514033"><ele>1072.7</ele><time>2019-08-11T11:47:02Z</time></trkpt><trkpt lat="46.801270" lon="6.513766"><ele>1073.6</ele><time>2019-08-11T11:47:16Z</time></trkpt><trkpt lat="46.801291" lon="6.513499"><ele>1074.6</ele><time>2019-08-11T11:47:28Z</time></trkpt><trkpt lat="46.801280" lon="6.513204"><ele>1075.6</ele><time>2019-08-11T11:47:48Z</time></trkpt><trkpt lat="46.801169" lon="6.512963"><ele>1076.5</ele><time>2019-08-11T11:48:10Z</time></trkpt><trkpt lat="46.801143" lon="6.512689"><ele>1077.3</ele><time>2019-08-11T11:48:23Z</time></trkpt><trkpt lat="46.801138" lon="6.512387"><ele>1078.0</ele><time>2019-08-11T11:48:40Z</time></trkpt><trkpt lat="46.801113" lon="6.512123"><ele>1078.7</ele><time>2019-08-11T11:48:51Z</time></trkpt><trkpt lat="46.801085" lon="6.511835"><ele>1079.3</ele><time>2019-08-11T11:49:05Z</time></trkpt><trkpt lat="46.801025" lon="6.511543"><ele>1079.8</ele><time>2019-08-11T11:49:21Z</time></trkpt><trkpt lat="46.801086" lon="6.511244"><ele>1080.2</ele><time>2019-08-11T11:49:34Z</time></trkpt><trkpt lat="46.801037" lon="6.510954"><ele>1080.8</ele><time>2019-08-11T11:49:51Z</time></trkpt><trkpt lat="46.800980" lon="6.510687"><ele>1081.5</ele><time>2019-08-11T11:50:14Z</time></trkpt><trkpt lat="46.800859" lon="6.510467"><ele>1082.6</ele><time>2019-08-11T11:50:49Z</time></trkpt><trkpt lat="46.800845" lon="6.510199"><ele>1083.7</ele><time>2019-08-11T11:51:08Z</time></trkpt><trkpt lat="46.800814" lon="6.509911"><ele>1085.0</ele><time>2019-08-11T11:51:24Z</time></trkpt><trkpt lat="46.800792" lon="6.509611"><ele>1086.1</ele><time>2019-08-11T11:51:39Z</time></trkpt><trkpt lat="46.800727" lon="6.509351"><ele>1087.6</ele><time>2019-08-11T11:51:51Z</time></trkpt><trkpt lat="46.800637" lon="6.509068"><ele>1089.2</ele><time>2019-08-11T11:52:16Z</time></trkpt><trkpt lat="46.800548" lon="6.508799"><ele>1090.6</ele><time>2019-08-11T11:52:30Z</time></trkpt><trkpt lat="46.800486" lon="6.508521"><ele>1092.3</ele><time>2019-08-11T11:52:47Z</time></trkpt><trkpt lat="46.800499" lon="6.508217"><ele>1094.2</ele><time>2019-08-11T11:53:03Z</time></trkpt><trkpt lat="46.800456" lon="6.507957"><ele>1095.8</ele><time>2019-08-11T11:53:16Z</time></trkpt><trkpt lat="46.800474" lon="6.507653"><ele>1097.6</ele><time>2019-08-11T11:53:30Z</time></trkpt><trkpt lat="46.800504" lon="6.507362"><ele>1099.1</ele><time>2019-08-11T11:53:45Z</time></trkpt><trkpt lat="46.800464" lon="6.507093"><ele>1100.4</ele><time>2019-08-11T11:54:05Z</time></trkpt><trkpt lat="46.800421" lon="6.506788"><ele>1101.8</ele><time>2019-08-11T11:54:23Z</time></trkpt><trkpt lat="46.800391" lon="6.506506"><ele>1103.2</ele><time>2019-08-11T11:54:37Z</time></trkpt><trkpt lat="46.800287" lon="6.506248"><ele>1104.9</ele><time>2019-08-11T11:54:51Z</time></trkpt><trkpt lat="46.800189" lon="6.505986"><ele>1106.2</ele><time>2019-08-11T11:55:07Z</time></trkpt><trkpt lat="46.800129" lon="6.505710"><ele>1107.7</ele><time>2019-08-11T11:55:22Z</time></trkpt><trkpt lat="46.800108" lon="6.505437"><ele>1109.0</ele><time>2019-08-11T11:56:14Z</time></trkpt><trkpt lat="46.800039" lon="6.505183"><ele>1110.1</ele><time>2019-08-11T11:56:33Z</time></trkpt><trkpt lat="46.800009" lon="6.504922"><ele>1111.3</ele><time>2019-08-11T11:56:47Z</time></trkpt><trkpt lat="46.799996" lon="6.504624"><ele>1112.5</ele><time>2019-08-11T11:57:02Z</time></trkpt><trkpt lat="46.799926" lon="6.504373"><ele>1113.8</ele><time>2019-08-11T11:57:16Z</time></trkpt><trkpt lat="46.799882" lon="6.504118"><ele>1114.8</ele><time>2019-08-11T11:57:30Z</time></trkpt><trkpt lat="46.799840" lon="6.503843"><ele>1116.1</ele><time>2019-08-11T11:57:44Z</time></trkpt><trkpt lat="46.799797" lon="6.503562"><ele>1117.9</ele><time>2019-08-11T11:58:01Z</time></trkpt><trkpt lat="46.799777" lon="6.503286"><ele>1119.8</ele><time>2019-08-11T11:58:15Z</time></trkpt><trkpt lat="46.799746" lon="6.503016"><ele>1121.7</ele><time>2019-08-11T11:58:32Z</time></trkpt><trkpt lat="46.799770" lon="6.502732"><ele>1123.3</ele><time>2019-08-11T11:58:48Z</time></trkpt><trkpt lat="46.799675" lon="6.502474"><ele>1125.4</ele><time>2019-08-11T11:59:08Z</time></trkpt><trkpt lat="46.799534" lon="6.502270"><ele>1127.3</ele><time>2019-08-11T11:59:24Z</time></trkpt><trkpt lat="46.799344" lon="6.502170"><ele>1128.9</ele><time>2019-08-11T11:59:39Z</time></trkpt><trkpt lat="46.799194" lon="6.501993"><ele>1130.5</ele><time>2019-08-11T12:00:06Z</time></trkpt><trkpt lat="46.799040" lon="6.501856"><ele>1131.8</ele><time>2019-08-11T12:00:22Z</time></trkpt><trkpt lat="46.798856" lon="6.501768"><ele>1133.3</ele><time>2019-08-11T12:00:37Z</time></trkpt><trkpt lat="46.798660" lon="6.501727"><ele>1134.9</ele><time>2019-08-11T12:00:58Z</time></trkpt><trkpt lat="46.798518" lon="6.501422"><ele>1136.5</ele><time>2019-08-11T12:01:13Z</time></trkpt><trkpt lat="46.798360" lon="6.501227"><ele>1137.8</ele><time>2019-08-11T12:01:27Z</time></trkpt><trkpt lat="46.798245" lon="6.500996"><ele>1139.0</ele><time>2019-08-11T12:01:41Z</time></trkpt><trkpt lat="46.798075" lon="6.500861"><ele>1140.2</ele><time>2019-08-11T12:02:01Z</time></trkpt><trkpt lat="46.797923" lon="6.500707"><ele>1141.0</ele><time>2019-08-11T12:02:18Z</time></trkpt><trkpt lat="46.797755" lon="6.500569"><ele>1141.4</ele><time>2019-08-11T12:02:32Z</time></trkpt><trkpt lat="46.797607" lon="6.500417"><ele>1141.3</ele><time>2019-08-11T12:02:45Z</time></trkpt><trkpt lat="46.797471" lon="6.500235"><ele>1140.9</ele><time>2019-08-11T12:02:57Z</time></trkpt><trkpt lat="46.797339" lon="6.500045"><ele>1139.9</ele><time>2019-08-11T12:03:15Z</time></trkpt><trkpt lat="46.797184" lon="6.499853"><ele>1139.0</ele><time>2019-08-11T12:03:29Z</time></trkpt><trkpt lat="46.797035" lon="6.499691"><ele>1138.0</ele><time>2019-08-11T12:03:41Z</time></trkpt><trkpt lat="46.796876" lon="6.499507"><ele>1137.3</ele><time>2019-08-11T12:03:59Z</time></trkpt><trkpt lat="46.796725" lon="6.499323"><ele>1136.1</ele><time>2019-08-11T12:04:12Z</time></trkpt><trkpt lat="46.796555" lon="6.499211"><ele>1134.8</ele><time>2019-08-11T12:04:26Z</time></trkpt><trkpt lat="46.796380" lon="6.499094"><ele>1133.6</ele><time>2019-08-11T12:04:40Z</time></trkpt><trkpt lat="46.796252" lon="6.498905"><ele>1132.6</ele><time>2019-08-11T12:04:52Z</time></trkpt><trkpt lat="46.796174" lon="6.498637"><ele>1131.8</ele><time>2019-08-11T12:05:08Z</time></trkpt><trkpt lat="46.796073" lon="6.498377"><ele>1131.3</ele><time>2019-08-11T12:05:25Z</time></trkpt><trkpt lat="46.795945" lon="6.498130"><ele>1130.9</ele><time>2019-08-11T12:05:38Z</time></trkpt><trkpt lat="46.795813" lon="6.497929"><ele>1130.5</ele><time>2019-08-11T12:05:55Z</time></trkpt><trkpt lat="46.795661" lon="6.497774"><ele>1130.1</ele><time>2019-08-11T12:06:24Z</time></trkpt><trkpt lat="46.795544" lon="6.497980"><ele>1129.5</ele><time>2019-08-11T12:06:37Z</time></trkpt><trkpt lat="46.795355" lon="6.497989"><ele>1131.2</ele><time>2019-08-11T12:06:57Z</time></trkpt><trkpt lat="46.795180" lon="6.497877"><ele>1133.4</ele><time>2019-08-11T12:07:24Z</time></trkpt><trkpt lat="46.795002" lon="6.497985"><ele>1135.6</ele><time>2019-08-11T12:07:40Z</time></trkpt><trkpt lat="46.794810" lon="6.497960"><ele>1137.7</ele><time>2019-08-11T12:07:56Z</time></trkpt><trkpt lat="46.794622" lon="6.497944"><ele>1140.2</ele><time>2019-08-11T12:08:13Z</time></trkpt><trkpt lat="46.794425" lon="6.497933"><ele>1142.6</ele><time>2019-08-11T12:08:28Z</time></trkpt><trkpt lat="46.794234" lon="6.497958"><ele>1144.6</ele><time>2019-08-11T12:08:43Z</time></trkpt><trkpt lat="46.794046" lon="6.497889"><ele>1147.0</ele><time>2019-08-11T12:09:04Z</time></trkpt><trkpt lat="46.793855" lon="6.497752"><ele>1149.7</ele><time>2019-08-11T12:09:20Z</time></trkpt><trkpt lat="46.793659" lon="6.497685"><ele>1151.9</ele><time>2019-08-11T12:09:37Z</time></trkpt><trkpt lat="46.793482" lon="6.497573"><ele>1154.1</ele><time>2019-08-11T12:09:56Z</time></trkpt><trkpt lat="46.793330" lon="6.497369"><ele>1156.3</ele><time>2019-08-11T12:10:14Z</time></trkpt><trkpt lat="46.793172" lon="6.497229"><ele>1158.2</ele><time>2019-08-11T12:10:27Z</time></trkpt><trkpt lat="46.793066" lon="6.496994"><ele>1160.4</ele><time>2019-08-11T12:10:44Z</time></trkpt><trkpt lat="46.792947" lon="6.496769"><ele>1162.6</ele><time>2019-08-11T12:10:59Z</time></trkpt><trkpt lat="46.792817" lon="6.496573"><ele>1164.6</ele><time>2019-08-11T12:11:17Z</time></trkpt><trkpt lat="46.792690" lon="6.496359"><ele>1166.7</ele><time>2019-08-11T12:11:35Z</time></trkpt><trkpt lat="46.792564" lon="6.496128"><ele>1169.0</ele><time>2019-08-11T12:12:44Z</time></trkpt><trkpt lat="46.792404" lon="6.495905"><ele>1171.2</ele><time>2019-08-11T12:13:06Z</time></trkpt><trkpt lat="46.792257" lon="6.495738"><ele>1174.1</ele><time>2019-08-11T12:13:22Z</time></trkpt><trkpt lat="46.792133" lon="6.495512"><ele>1176.5</ele><time>2019-08-11T12:13:38Z</time></trkpt><trkpt lat="46.791986" lon="6.495284"><ele>1179.0</ele><time>2019-08-11T12:14:00Z</time></trkpt><trkpt lat="46.791903" lon="6.495048"><ele>1180.9</ele><time>2019-08-11T12:14:12Z</time></trkpt><trkpt lat="46.791804" lon="6.494828"><ele>1182.6</ele><time>2019-08-11T12:14:25Z</time></trkpt><trkpt lat="46.791653" lon="6.494631"><ele>1184.5</ele><time>2019-08-11T12:14:42Z</time></trkpt><trkpt lat="46.791501" lon="6.494466"><ele>1186.3</ele><time>2019-08-11T12:14:59Z</time></trkpt><trkpt lat="46.791399" lon="6.494222"><ele>1188.6</ele><time>2019-08-11T12:15:19Z</time></trkpt><trkpt lat="46.791262" lon="6.494003"><ele>1190.7</ele><time>2019-08-11T12:15:42Z</time></trkpt><trkpt lat="46.791140" lon="6.493756"><ele>1192.6</ele><time>2019-08-11T12:16:02Z</time></trkpt><trkpt lat="46.790993" lon="6.493566"><ele>1195.2</ele><time>2019-08-11T12:16:22Z</time></trkpt><trkpt lat="46.790857" lon="6.493380"><ele>1197.2</ele><time>2019-08-11T12:16:37Z</time></trkpt><trkpt lat="46.790774" lon="6.493138"><ele>1199.3</ele><time>2019-08-11T12:16:50Z</time></trkpt><trkpt lat="46.790696" lon="6.492863"><ele>1201.5</ele><time>2019-08-11T12:17:03Z</time></trkpt><trkpt lat="46.790603" lon="6.492612"><ele>1204.0</ele><time>2019-08-11T12:17:26Z</time></trkpt><trkpt lat="46.790422" lon="6.492531"><ele>1205.3</ele><time>2019-08-11T12:18:10Z</time></trkpt><trkpt lat="46.790337" lon="6.492284"><ele>1206.9</ele><time>2019-08-11T12:18:26Z</time></trkpt><trkpt lat="46.790230" lon="6.492059"><ele>1208.7</ele><time>2019-08-11T12:18:37Z</time></trkpt><trkpt lat="46.790157" lon="6.491801"><ele>1210.9</ele><time>2019-08-11T12:18:57Z</time></trkpt><trkpt lat="46.790078" lon="6.491557"><ele>1213.6</ele><time>2019-08-11T12:19:14Z</time></trkpt><trkpt lat="46.790054" lon="6.491281"><ele>1216.6</ele><time>2019-08-11T12:19:28Z</time></trkpt><trkpt lat="46.789942" lon="6.491065"><ele>1219.5</ele><time>2019-08-11T12:19:42Z</time></trkpt><trkpt lat="46.789846" lon="6.490829"><ele>1221.8</ele><time>2019-08-11T12:19:55Z</time></trkpt><trkpt lat="46.789717" lon="6.490612"><ele>1223.8</ele><time>2019-08-11T12:20:14Z</time></trkpt><trkpt lat="46.789589" lon="6.490390"><ele>1225.4</ele><time>2019-08-11T12:20:30Z</time></trkpt><trkpt lat="46.789514" lon="6.490145"><ele>1226.6</ele><time>2019-08-11T12:20:45Z</time></trkpt><trkpt lat="46.789418" lon="6.489891"><ele>1227.7</ele><time>2019-08-11T12:21:02Z</time></trkpt><trkpt lat="46.789311" lon="6.489653"><ele>1228.8</ele><time>2019-08-11T12:21:21Z</time></trkpt><trkpt lat="46.789226" lon="6.489403"><ele>1230.1</ele><time>2019-08-11T12:21:40Z</time></trkpt><trkpt lat="46.789148" lon="6.489152"><ele>1231.6</ele><time>2019-08-11T12:21:53Z</time></trkpt><trkpt lat="46.789111" lon="6.488867"><ele>1233.3</ele><time>2019-08-11T12:22:15Z</time></trkpt><trkpt lat="46.789005" lon="6.488620"><ele>1234.9</ele><time>2019-08-11T12:22:29Z</time></trkpt><trkpt lat="46.788915" lon="6.488380"><ele>1236.4</ele><time>2019-08-11T12:22:42Z</time></trkpt><trkpt lat="46.788859" lon="6.488103"><ele>1238.4</ele><time>2019-08-11T12:22:59Z</time></trkpt><trkpt lat="46.788860" lon="6.487803"><ele>1240.5</ele><time>2019-08-11T12:23:12Z</time></trkpt><trkpt lat="46.788858" lon="6.487524"><ele>1242.2</ele><time>2019-08-11T12:23:26Z</time></trkpt><trkpt lat="46.788866" lon="6.487238"><ele>1243.8</ele><time>2019-08-11T12:23:46Z</time></trkpt><trkpt lat="46.788890" lon="6.486948"><ele>1245.4</ele><time>2019-08-11T12:24:02Z</time></trkpt><trkpt lat="46.788856" lon="6.486642"><ele>1246.9</ele><time>2019-08-11T12:24:18Z</time></trkpt><trkpt lat="46.788798" lon="6.486362"><ele>1248.3</ele><time>2019-08-11T12:24:33Z</time></trkpt><trkpt lat="46.788804" lon="6.486088"><ele>1249.5</ele><time>2019-08-11T12:24:52Z</time></trkpt><trkpt lat="46.788761" lon="6.485814"><ele>1250.7</ele><time>2019-08-11T12:25:07Z</time></trkpt><trkpt lat="46.788697" lon="6.485513"><ele>1253.0</ele><time>2019-08-11T12:25:23Z</time></trkpt><trkpt lat="46.788576" lon="6.485286"><ele>1254.9</ele><time>2019-08-11T12:25:39Z</time></trkpt><trkpt lat="46.788487" lon="6.485047"><ele>1256.6</ele><time>2019-08-11T12:25:52Z</time></trkpt><trkpt lat="46.788396" lon="6.484781"><ele>1258.9</ele><time>2019-08-11T12:26:08Z</time></trkpt><trkpt lat="46.788310" lon="6.484473"><ele>1261.2</ele><time>2019-08-11T12:26:31Z</time></trkpt><trkpt lat="46.788291" lon="6.484204"><ele>1262.9</ele><time>2019-08-11T12:26:44Z</time></trkpt><trkpt lat="46.788232" lon="6.483914"><ele>1264.6</ele><time>2019-08-11T12:27:02Z</time></trkpt><trkpt lat="46.788221" lon="6.483640"><ele>1266.4</ele><time>2019-08-11T12:27:15Z</time></trkpt><trkpt lat="46.788222" lon="6.483345"><ele>1268.4</ele><time>2019-08-11T12:27:29Z</time></trkpt><trkpt lat="46.788188" lon="6.483028"><ele>1270.4</ele><time>2019-08-11T12:27:45Z</time></trkpt><trkpt lat="46.788173" lon="6.482745"><ele>1271.3</ele><time>2019-08-11T12:28:00Z</time></trkpt><trkpt lat="46.788056" lon="6.482518"><ele>1272.3</ele><time>2019-08-11T12:28:11Z</time></trkpt><trkpt lat="46.787966" lon="6.482255"><ele>1273.5</ele><time>2019-08-11T12:28:28Z</time></trkpt><trkpt lat="46.787841" lon="6.482037"><ele>1274.4</ele><time>2019-08-11T12:28:46Z</time></trkpt><trkpt lat="46.787726" lon="6.481791"><ele>1275.7</ele><time>2019-08-11T12:29:01Z</time></trkpt><trkpt lat="46.787612" lon="6.481527"><ele>1277.2</ele><time>2019-08-11T12:29:14Z</time></trkpt><trkpt lat="46.787508" lon="6.481301"><ele>1278.7</ele><time>2019-08-11T12:29:28Z</time></trkpt><trkpt lat="46.787412" lon="6.481014"><ele>1280.1</ele><time>2019-08-11T12:29:44Z</time></trkpt><trkpt lat="46.787354" lon="6.480757"><ele>1281.1</ele><time>2019-08-11T12:29:59Z</time></trkpt><trkpt lat="46.787316" lon="6.480498"><ele>1281.4</ele><time>2019-08-11T12:30:12Z</time></trkpt><trkpt lat="46.787254" lon="6.480200"><ele>1281.6</ele><time>2019-08-11T12:30:26Z</time></trkpt><trkpt lat="46.787233" lon="6.479891"><ele>1281.7</ele><time>2019-08-11T12:30:43Z</time></trkpt><trkpt lat="46.787264" lon="6.479614"><ele>1281.9</ele><time>2019-08-11T12:30:56Z</time></trkpt><trkpt lat="46.787308" lon="6.479304"><ele>1282.2</ele><time>2019-08-11T12:31:10Z</time></trkpt><trkpt lat="46.787310" lon="6.479036"><ele>1283.2</ele><time>2019-08-11T12:31:26Z</time></trkpt><trkpt lat="46.787357" lon="6.478774"><ele>1284.2</ele><time>2019-08-11T12:31:39Z</time></trkpt><trkpt lat="46.787403" lon="6.478465"><ele>1284.6</ele><time>2019-08-11T12:31:53Z</time></trkpt><trkpt lat="46.787442" lon="6.478186"><ele>1284.5</ele><time>2019-08-11T12:32:10Z</time></trkpt><trkpt lat="46.787447" lon="6.477874"><ele>1284.6</ele><time>2019-08-11T12:32:31Z</time></trkpt><trkpt lat="46.787494" lon="6.477607"><ele>1284.6</ele><time>2019-08-11T12:32:50Z</time></trkpt><trkpt lat="46.787547" lon="6.477303"><ele>1284.8</ele><time>2019-08-11T12:33:06Z</time></trkpt><trkpt lat="46.787562" lon="6.477016"><ele>1285.0</ele><time>2019-08-11T12:33:23Z</time></trkpt><trkpt lat="46.787592" lon="6.476735"><ele>1285.1</ele><time>2019-08-11T12:33:40Z</time></trkpt><trkpt lat="46.787625" lon="6.476420"><ele>1285.3</ele><time>2019-08-11T12:33:57Z</time></trkpt><trkpt lat="46.787668" lon="6.476131"><ele>1285.7</ele><time>2019-08-11T12:34:13Z</time></trkpt><trkpt lat="46.787651" lon="6.475857"><ele>1286.0</ele><time>2019-08-11T12:34:28Z</time></trkpt><trkpt lat="46.787684" lon="6.475565"><ele>1285.9</ele><time>2019-08-11T12:34:44Z</time></trkpt><trkpt lat="46.787662" lon="6.475263"><ele>1286.0</ele><time>2019-08-11T12:35:01Z</time></trkpt><trkpt lat="46.787672" lon="6.474968"><ele>1287.9</ele><time>2019-08-11T12:35:15Z</time></trkpt><trkpt lat="46.787680" lon="6.474671"><ele>1290.0</ele><time>2019-08-11T12:35:30Z</time></trkpt><trkpt lat="46.787677" lon="6.474387"><ele>1292.4</ele><time>2019-08-11T12:35:47Z</time></trkpt><trkpt lat="46.787727" lon="6.474116"><ele>1294.7</ele><time>2019-08-11T12:36:01Z</time></trkpt><trkpt lat="46.787733" lon="6.473827"><ele>1297.3</ele><time>2019-08-11T12:36:20Z</time></trkpt><trkpt lat="46.787735" lon="6.473523"><ele>1300.1</ele><time>2019-08-11T12:36:38Z</time></trkpt><trkpt lat="46.787749" lon="6.473256"><ele>1302.2</ele><time>2019-08-11T12:36:52Z</time></trkpt><trkpt lat="46.787716" lon="6.472986"><ele>1303.5</ele><time>2019-08-11T12:37:11Z</time></trkpt><trkpt lat="46.787696" lon="6.472701"><ele>1304.1</ele><time>2019-08-11T12:37:27Z</time></trkpt><trkpt lat="46.787762" lon="6.472444"><ele>1304.8</ele><time>2019-08-11T12:37:44Z</time></trkpt><trkpt lat="46.787758" lon="6.472173"><ele>1305.8</ele><time>2019-08-11T12:38:01Z</time></trkpt><trkpt lat="46.787751" lon="6.471894"><ele>1306.9</ele><time>2019-08-11T12:38:15Z</time></trkpt><trkpt lat="46.787748" lon="6.471621"><ele>1307.6</ele><time>2019-08-11T12:38:31Z</time></trkpt><trkpt lat="46.787860" lon="6.471411"><ele>1307.8</ele><time>2019-08-11T12:38:52Z</time></trkpt><trkpt lat="46.787785" lon="6.471137"><ele>1305.7</ele><time>2019-08-11T12:48:28Z</time></trkpt><trkpt lat="46.787841" lon="6.470848"><ele>1303.2</ele><time>2019-08-11T12:48:43Z</time></trkpt><trkpt lat="46.787802" lon="6.470569"><ele>1300.1</ele><time>2019-08-11T12:48:54Z</time></trkpt><trkpt lat="46.787914" lon="6.470358"><ele>1296.5</ele><time>2019-08-11T12:49:10Z</time></trkpt><trkpt lat="46.787877" lon="6.470064"><ele>1291.5</ele><time>2019-08-11T12:49:24Z</time></trkpt><trkpt lat="46.787868" lon="6.469787"><ele>1287.0</ele><time>2019-08-11T12:49:39Z</time></trkpt><trkpt lat="46.787852" lon="6.469489"><ele>1282.2</ele><time>2019-08-11T12:49:55Z</time></trkpt><trkpt lat="46.787888" lon="6.469198"><ele>1278.8</ele><time>2019-08-11T12:50:13Z</time></trkpt><trkpt lat="46.787908" lon="6.468919"><ele>1277.3</ele><time>2019-08-11T12:50:28Z</time></trkpt><trkpt lat="46.787861" lon="6.468623"><ele>1276.2</ele><time>2019-08-11T12:50:45Z</time></trkpt><trkpt lat="46.787876" lon="6.468344"><ele>1276.1</ele><time>2019-08-11T12:50:59Z</time></trkpt><trkpt lat="46.787873" lon="6.468043"><ele>1276.4</ele><time>2019-08-11T12:51:15Z</time></trkpt><trkpt lat="46.787866" lon="6.467757"><ele>1277.1</ele><time>2019-08-11T12:51:31Z</time></trkpt><trkpt lat="46.787884" lon="6.467487"><ele>1278.1</ele><time>2019-08-11T12:51:45Z</time></trkpt><trkpt lat="46.787976" lon="6.467228"><ele>1279.9</ele><time>2019-08-11T12:52:00Z</time></trkpt><trkpt lat="46.788060" lon="6.466971"><ele>1282.4</ele><time>2019-08-11T12:52:11Z</time></trkpt><trkpt lat="46.788175" lon="6.466711"><ele>1285.3</ele><time>2019-08-11T12:52:29Z</time></trkpt><trkpt lat="46.788305" lon="6.466527"><ele>1287.8</ele><time>2019-08-11T12:52:41Z</time></trkpt><trkpt lat="46.788482" lon="6.466472"><ele>1290.2</ele><time>2019-08-11T12:52:57Z</time></trkpt><trkpt lat="46.788675" lon="6.466473"><ele>1292.5</ele><time>2019-08-11T12:53:13Z</time></trkpt><trkpt lat="46.788878" lon="6.466372"><ele>1295.1</ele><time>2019-08-11T12:53:31Z</time></trkpt><trkpt lat="46.789081" lon="6.466354"><ele>1298.0</ele><time>2019-08-11T12:53:46Z</time></trkpt><trkpt lat="46.789160" lon="6.466078"><ele>1297.6</ele><time>2019-08-11T12:54:05Z</time></trkpt><trkpt lat="46.789298" lon="6.465888"><ele>1290.3</ele><time>2019-08-11T12:54:16Z</time></trkpt><trkpt lat="46.789458" lon="6.465754"><ele>1287.7</ele><time>2019-08-11T12:54:31Z</time></trkpt><trkpt lat="46.789624" lon="6.465627"><ele>1293.1</ele><time>2019-08-11T12:54:49Z</time></trkpt><trkpt lat="46.789836" lon="6.465663"><ele>1299.5</ele><time>2019-08-11T12:55:10Z</time></trkpt><trkpt lat="46.790025" lon="6.465718"><ele>1303.8</ele><time>2019-08-11T12:55:30Z</time></trkpt><trkpt lat="46.790213" lon="6.465735"><ele>1308.1</ele><time>2019-08-11T12:55:50Z</time></trkpt><trkpt lat="46.790419" lon="6.465745"><ele>1312.1</ele><time>2019-08-11T12:56:13Z</time></trkpt><trkpt lat="46.790609" lon="6.465753"><ele>1314.6</ele><time>2019-08-11T12:56:29Z</time></trkpt><trkpt lat="46.790812" lon="6.465795"><ele>1317.3</ele><time>2019-08-11T12:56:44Z</time></trkpt><trkpt lat="46.791009" lon="6.465779"><ele>1319.2</ele><time>2019-08-11T12:57:01Z</time></trkpt><trkpt lat="46.791194" lon="6.465709"><ele>1321.4</ele><time>2019-08-11T12:57:23Z</time></trkpt><trkpt lat="46.791370" lon="6.465805"><ele>1323.2</ele><time>2019-08-11T12:57:42Z</time></trkpt><trkpt lat="46.791538" lon="6.465943"><ele>1325.5</ele><time>2019-08-11T12:57:58Z</time></trkpt><trkpt lat="46.791704" lon="6.466106"><ele>1327.1</ele><time>2019-08-11T12:58:10Z</time></trkpt><trkpt lat="46.791834" lon="6.466333"><ele>1327.6</ele><time>2019-08-11T12:58:26Z</time></trkpt><trkpt lat="46.791954" lon="6.466547"><ele>1328.2</ele><time>2019-08-11T12:58:43Z</time></trkpt><trkpt lat="46.792043" lon="6.466776"><ele>1329.0</ele><time>2019-08-11T12:58:56Z</time></trkpt><trkpt lat="46.792188" lon="6.467004"><ele>1330.2</ele><time>2019-08-11T12:59:12Z</time></trkpt><trkpt lat="46.792321" lon="6.467230"><ele>1331.4</ele><time>2019-08-11T12:59:31Z</time></trkpt><trkpt lat="46.792446" lon="6.467461"><ele>1332.9</ele><time>2019-08-11T12:59:47Z</time></trkpt><trkpt lat="46.792539" lon="6.467712"><ele>1334.3</ele><time>2019-08-11T13:00:07Z</time></trkpt><trkpt lat="46.792683" lon="6.467905"><ele>1334.9</ele><time>2019-08-11T13:00:22Z</time></trkpt><trkpt lat="46.792827" lon="6.468074"><ele>1334.5</ele><time>2019-08-11T13:00:38Z</time></trkpt><trkpt lat="46.793012" lon="6.468210"><ele>1333.5</ele><time>2019-08-11T13:00:59Z</time></trkpt><trkpt lat="46.793185" lon="6.468343"><ele>1332.2</ele><time>2019-08-11T13:01:27Z</time></trkpt><trkpt lat="46.793358" lon="6.468446"><ele>1330.7</ele><time>2019-08-11T13:01:37Z</time></trkpt><trkpt lat="46.793512" lon="6.468582"><ele>1329.2</ele><time>2019-08-11T13:01:50Z</time></trkpt><trkpt lat="46.793659" lon="6.468734"><ele>1328.0</ele><time>2019-08-11T13:02:06Z</time></trkpt><trkpt lat="46.793836" lon="6.468843"><ele>1327.0</ele><time>2019-08-11T13:02:23Z</time></trkpt><trkpt lat="46.794019" lon="6.468980"><ele>1326.3</ele><time>2019-08-11T13:02:39Z</time></trkpt><trkpt lat="46.794174" lon="6.469157"><ele>1325.4</ele><time>2019-08-11T13:02:58Z</time></trkpt><trkpt lat="46.794325" lon="6.469362"><ele>1324.2</ele><time>2019-08-11T13:03:12Z</time></trkpt><trkpt lat="46.794468" lon="6.469536"><ele>1323.0</ele><time>2019-08-11T13:03:25Z</time></trkpt><trkpt lat="46.794618" lon="6.469686"><ele>1321.8</ele><time>2019-08-11T13:03:39Z</time></trkpt><trkpt lat="46.794826" lon="6.469927"><ele>1319.9</ele><time>2019-08-11T13:03:57Z</time></trkpt><trkpt lat="46.794975" lon="6.470099"><ele>1318.4</ele><time>2019-08-11T13:04:12Z</time></trkpt><trkpt lat="46.795148" lon="6.470237"><ele>1316.9</ele><time>2019-08-11T13:04:27Z</time></trkpt><trkpt lat="46.795301" lon="6.470423"><ele>1315.9</ele><time>2019-08-11T13:04:41Z</time></trkpt><trkpt lat="46.795449" lon="6.470618"><ele>1315.2</ele><time>2019-08-11T13:04:55Z</time></trkpt><trkpt lat="46.795633" lon="6.470750"><ele>1314.7</ele><time>2019-08-11T13:05:12Z</time></trkpt><trkpt lat="46.795817" lon="6.470943"><ele>1313.9</ele><time>2019-08-11T13:05:28Z</time></trkpt><trkpt lat="46.795991" lon="6.471066"><ele>1312.6</ele><time>2019-08-11T13:05:41Z</time></trkpt><trkpt lat="46.796151" lon="6.471228"><ele>1310.5</ele><time>2019-08-11T13:06:01Z</time></trkpt><trkpt lat="46.796274" lon="6.471422"><ele>1307.7</ele><time>2019-08-11T13:06:13Z</time></trkpt><trkpt lat="46.796369" lon="6.471691"><ele>1307.1</ele><time>2019-08-11T13:06:28Z</time></trkpt><trkpt lat="46.796434" lon="6.471941"><ele>1307.1</ele><time>2019-08-11T13:06:44Z</time></trkpt><trkpt lat="46.796458" lon="6.472225"><ele>1307.1</ele><time>2019-08-11T13:07:01Z</time></trkpt><trkpt lat="46.796485" lon="6.472523"><ele>1307.0</ele><time>2019-08-11T13:07:18Z</time></trkpt><trkpt lat="46.796522" lon="6.472805"><ele>1308.1</ele><time>2019-08-11T13:07:39Z</time></trkpt><trkpt lat="46.796626" lon="6.473027"><ele>1308.1</ele><time>2019-08-11T13:08:03Z</time></trkpt><trkpt lat="46.796753" lon="6.473249"><ele>1307.5</ele><time>2019-08-11T13:08:18Z</time></trkpt><trkpt lat="46.796888" lon="6.473480"><ele>1308.2</ele><time>2019-08-11T13:08:36Z</time></trkpt><trkpt lat="46.797001" lon="6.473709"><ele>1308.9</ele><time>2019-08-11T13:08:55Z</time></trkpt><trkpt lat="46.797095" lon="6.473958"><ele>1310.3</ele><time>2019-08-11T13:09:11Z</time></trkpt><trkpt lat="46.797169" lon="6.474238"><ele>1311.9</ele><time>2019-08-11T13:09:31Z</time></trkpt><trkpt lat="46.797336" lon="6.474364"><ele>1311.4</ele><time>2019-08-11T13:09:42Z</time></trkpt><trkpt lat="46.797466" lon="6.474566"><ele>1310.8</ele><time>2019-08-11T13:09:58Z</time></trkpt><trkpt lat="46.797507" lon="6.474851"><ele>1310.8</ele><time>2019-08-11T13:10:15Z</time></trkpt><trkpt lat="46.797585" lon="6.475147"><ele>1310.8</ele><time>2019-08-11T13:10:46Z</time></trkpt><trkpt lat="46.797718" lon="6.475365"><ele>1308.3</ele><time>2019-08-11T13:11:04Z</time></trkpt><trkpt lat="46.797830" lon="6.475595"><ele>1305.7</ele><time>2019-08-11T13:11:18Z</time></trkpt><trkpt lat="46.797943" lon="6.475812"><ele>1303.5</ele><time>2019-08-11T13:11:32Z</time></trkpt><trkpt lat="46.798065" lon="6.476031"><ele>1300.9</ele><time>2019-08-11T13:11:49Z</time></trkpt><trkpt lat="46.798223" lon="6.476221"><ele>1299.1</ele><time>2019-08-11T13:12:05Z</time></trkpt><trkpt lat="46.798351" lon="6.476472"><ele>1297.9</ele><time>2019-08-11T13:12:38Z</time></trkpt><trkpt lat="46.798461" lon="6.476686"><ele>1297.0</ele><time>2019-08-11T13:12:55Z</time></trkpt><trkpt lat="46.798619" lon="6.476846"><ele>1296.7</ele><time>2019-08-11T13:13:19Z</time></trkpt><trkpt lat="46.798786" lon="6.477005"><ele>1297.2</ele><time>2019-08-11T13:13:34Z</time></trkpt><trkpt lat="46.798921" lon="6.477237"><ele>1297.6</ele><time>2019-08-11T13:13:51Z</time></trkpt><trkpt lat="46.799062" lon="6.477406"><ele>1297.4</ele><time>2019-08-11T13:14:21Z</time></trkpt><trkpt lat="46.799162" lon="6.477630"><ele>1296.8</ele><time>2019-08-11T13:14:42Z</time></trkpt><trkpt lat="46.799319" lon="6.477842"><ele>1295.6</ele><time>2019-08-11T13:15:02Z</time></trkpt><trkpt lat="46.799425" lon="6.478063"><ele>1294.4</ele><time>2019-08-11T13:15:16Z</time></trkpt><trkpt lat="46.799574" lon="6.478227"><ele>1292.0</ele><time>2019-08-11T13:15:27Z</time></trkpt><trkpt lat="46.799700" lon="6.478446"><ele>1287.6</ele><time>2019-08-11T13:15:46Z</time></trkpt><trkpt lat="46.799769" lon="6.478696"><ele>1281.5</ele><time>2019-08-11T13:16:02Z</time></trkpt><trkpt lat="46.799937" lon="6.478855"><ele>1276.2</ele><time>2019-08-11T13:16:14Z</time></trkpt><trkpt lat="46.799980" lon="6.479125"><ele>1273.5</ele><time>2019-08-11T13:16:33Z</time></trkpt><trkpt lat="46.800119" lon="6.479316"><ele>1269.7</ele><time>2019-08-11T13:16:49Z</time></trkpt><trkpt lat="46.800260" lon="6.479502"><ele>1267.3</ele><time>2019-08-11T13:17:00Z</time></trkpt><trkpt lat="46.800344" lon="6.479748"><ele>1264.1</ele><time>2019-08-11T13:17:16Z</time></trkpt><trkpt lat="46.800489" lon="6.479960"><ele>1261.4</ele><time>2019-08-11T13:17:34Z</time></trkpt><trkpt lat="46.800589" lon="6.480219"><ele>1259.0</ele><time>2019-08-11T13:17:52Z</time></trkpt><trkpt lat="46.800742" lon="6.480383"><ele>1256.8</ele><time>2019-08-11T13:18:06Z</time></trkpt><trkpt lat="46.800900" lon="6.480536"><ele>1253.9</ele><time>2019-08-11T13:18:23Z</time></trkpt><trkpt lat="46.801053" lon="6.480683"><ele>1251.5</ele><time>2019-08-11T13:18:59Z</time></trkpt><trkpt lat="46.801204" lon="6.480837"><ele>1248.4</ele><time>2019-08-11T13:19:13Z</time></trkpt><trkpt lat="46.801370" lon="6.480991"><ele>1245.0</ele><time>2019-08-11T13:19:30Z</time></trkpt><trkpt lat="46.801496" lon="6.481204"><ele>1242.8</ele><time>2019-08-11T13:19:46Z</time></trkpt><trkpt lat="46.801668" lon="6.481363"><ele>1240.7</ele><time>2019-08-11T13:20:01Z</time></trkpt><trkpt lat="46.801741" lon="6.481622"><ele>1237.6</ele><time>2019-08-11T13:20:16Z</time></trkpt><trkpt lat="46.801880" lon="6.481831"><ele>1235.5</ele><time>2019-08-11T13:20:28Z</time></trkpt><trkpt lat="46.802065" lon="6.481907"><ele>1234.9</ele><time>2019-08-11T13:20:45Z</time></trkpt><trkpt lat="46.802214" lon="6.482121"><ele>1232.3</ele><time>2019-08-11T13:21:02Z</time></trkpt><trkpt lat="46.802375" lon="6.482320"><ele>1230.6</ele><time>2019-08-11T13:21:22Z</time></trkpt><trkpt lat="46.802514" lon="6.482498"><ele>1228.9</ele><time>2019-08-11T13:21:31Z</time></trkpt><trkpt lat="46.802681" lon="6.482669"><ele>1227.2</ele><time>2019-08-11T13:21:43Z</time></trkpt><trkpt lat="46.802786" lon="6.482883"><ele>1225.5</ele><time>2019-08-11T13:22:01Z</time></trkpt><trkpt lat="46.802913" lon="6.483137"><ele>1223.9</ele><time>2019-08-11T13:22:19Z</time></trkpt><trkpt lat="46.803031" lon="6.483360"><ele>1222.7</ele><time>2019-08-11T13:22:35Z</time></trkpt><trkpt lat="46.803169" lon="6.483550"><ele>1220.2</ele><time>2019-08-11T13:22:52Z</time></trkpt><trkpt lat="46.803335" lon="6.483734"><ele>1218.2</ele><time>2019-08-11T13:23:09Z</time></trkpt><trkpt lat="46.803357" lon="6.483999"><ele>1216.3</ele><time>2019-08-11T13:23:43Z</time></trkpt><trkpt lat="46.803477" lon="6.484207"><ele>1214.7</ele><time>2019-08-11T13:24:07Z</time></trkpt><trkpt lat="46.803608" lon="6.484418"><ele>1212.7</ele><time>2019-08-11T13:24:22Z</time></trkpt><trkpt lat="46.803721" lon="6.484659"><ele>1211.0</ele><time>2019-08-11T13:24:38Z</time></trkpt><trkpt lat="46.803807" lon="6.484924"><ele>1209.2</ele><time>2019-08-11T13:24:53Z</time></trkpt><trkpt lat="46.803943" lon="6.485139"><ele>1206.6</ele><time>2019-08-11T13:25:11Z</time></trkpt><trkpt lat="46.804118" lon="6.485295"><ele>1204.4</ele><time>2019-08-11T13:25:27Z</time></trkpt><trkpt lat="46.804280" lon="6.485447"><ele>1202.3</ele><time>2019-08-11T13:26:05Z</time></trkpt><trkpt lat="46.804467" lon="6.485563"><ele>1199.8</ele><time>2019-08-11T13:26:21Z</time></trkpt><trkpt lat="46.804605" lon="6.485776"><ele>1197.8</ele><time>2019-08-11T13:26:35Z</time></trkpt><trkpt lat="46.804698" lon="6.486011"><ele>1195.9</ele><time>2019-08-11T13:26:52Z</time></trkpt><trkpt lat="46.804833" lon="6.486233"><ele>1194.0</ele><time>2019-08-11T13:27:53Z</time></trkpt><trkpt lat="46.804986" lon="6.486424"><ele>1192.1</ele><time>2019-08-11T13:28:05Z</time></trkpt><trkpt lat="46.805132" lon="6.486581"><ele>1190.3</ele><time>2019-08-11T13:28:18Z</time></trkpt><trkpt lat="46.805337" lon="6.486716"><ele>1188.2</ele><time>2019-08-11T13:28:38Z</time></trkpt><trkpt lat="46.805437" lon="6.486979"><ele>1186.6</ele><time>2019-08-11T13:28:54Z</time></trkpt><trkpt lat="46.805608" lon="6.487162"><ele>1184.6</ele><time>2019-08-11T13:29:09Z</time></trkpt><trkpt lat="46.805742" lon="6.487353"><ele>1183.2</ele><time>2019-08-11T13:29:28Z</time></trkpt><trkpt lat="46.805902" lon="6.487534"><ele>1181.7</ele><time>2019-08-11T13:29:42Z</time></trkpt><trkpt lat="46.806084" lon="6.487667"><ele>1180.2</ele><time>2019-08-11T13:30:04Z</time></trkpt><trkpt lat="46.806212" lon="6.487855"><ele>1178.7</ele><time>2019-08-11T13:30:18Z</time></trkpt><trkpt lat="46.806389" lon="6.487938"><ele>1177.2</ele><time>2019-08-11T13:30:33Z</time></trkpt><trkpt lat="46.806613" lon="6.488171"><ele>1174.3</ele><time>2019-08-11T13:30:54Z</time></trkpt><trkpt lat="46.806773" lon="6.488297"><ele>1172.3</ele><time>2019-08-11T13:31:08Z</time></trkpt><trkpt lat="46.806930" lon="6.488429"><ele>1170.0</ele><time>2019-08-11T13:31:25Z</time></trkpt><trkpt lat="46.807125" lon="6.488561"><ele>1167.2</ele><time>2019-08-11T13:31:41Z</time></trkpt><trkpt lat="46.807312" lon="6.488699"><ele>1164.7</ele><time>2019-08-11T13:31:58Z</time></trkpt><trkpt lat="46.807482" lon="6.488859"><ele>1162.7</ele><time>2019-08-11T13:32:15Z</time></trkpt><trkpt lat="46.807629" lon="6.489046"><ele>1160.9</ele><time>2019-08-11T13:32:29Z</time></trkpt><trkpt lat="46.807782" lon="6.489231"><ele>1159.3</ele><time>2019-08-11T13:32:48Z</time></trkpt><trkpt lat="46.807892" lon="6.489460"><ele>1157.8</ele><time>2019-08-11T13:33:03Z</time></trkpt><trkpt lat="46.808037" lon="6.489631"><ele>1156.0</ele><time>2019-08-11T13:33:28Z</time></trkpt><trkpt lat="46.808168" lon="6.489832"><ele>1154.5</ele><time>2019-08-11T13:33:51Z</time></trkpt><trkpt lat="46.808310" lon="6.490061"><ele>1152.9</ele><time>2019-08-11T13:34:08Z</time></trkpt><trkpt lat="46.808423" lon="6.490319"><ele>1151.5</ele><time>2019-08-11T13:34:25Z</time></trkpt><trkpt lat="46.808541" lon="6.490541"><ele>1149.3</ele><time>2019-08-11T13:34:54Z</time></trkpt><trkpt lat="46.808715" lon="6.490681"><ele>1145.7</ele><time>2019-08-11T13:35:25Z</time></trkpt><trkpt lat="46.808851" lon="6.490856"><ele>1143.9</ele><time>2019-08-11T13:35:42Z</time></trkpt><trkpt lat="46.809003" lon="6.491030"><ele>1142.4</ele><time>2019-08-11T13:36:01Z</time></trkpt><trkpt lat="46.809129" lon="6.491224"><ele>1140.5</ele><time>2019-08-11T13:36:10Z</time></trkpt><trkpt lat="46.809240" lon="6.491466"><ele>1138.5</ele><time>2019-08-11T13:36:28Z</time></trkpt><trkpt lat="46.809416" lon="6.491608"><ele>1135.9</ele><time>2019-08-11T13:36:43Z</time></trkpt><trkpt lat="46.809606" lon="6.491697"><ele>1133.2</ele><time>2019-08-11T13:36:57Z</time></trkpt><trkpt lat="46.809756" lon="6.491855"><ele>1130.1</ele><time>2019-08-11T13:37:19Z</time></trkpt><trkpt lat="46.809905" lon="6.492012"><ele>1124.0</ele><time>2019-08-11T13:40:34Z</time></trkpt><trkpt lat="46.810040" lon="6.492225"><ele>1106.5</ele><time>2019-08-11T13:55:09Z</time></trkpt><trkpt lat="46.810177" lon="6.492434"><ele>1104.0</ele><time>2019-08-11T13:55:24Z</time></trkpt><trkpt lat="46.810327" lon="6.492639"><ele>1101.4</ele><time>2019-08-11T13:55:41Z</time></trkpt><trkpt lat="46.810453" lon="6.492837"><ele>1098.4</ele><time>2019-08-11T13:56:00Z</time></trkpt><trkpt lat="46.810603" lon="6.493025"><ele>1095.2</ele><time>2019-08-11T13:56:17Z</time></trkpt><trkpt lat="46.810786" lon="6.493119"><ele>1091.9</ele><time>2019-08-11T13:56:31Z</time></trkpt><trkpt lat="46.810937" lon="6.493337"><ele>1089.4</ele><time>2019-08-11T13:56:50Z</time></trkpt><trkpt lat="46.811100" lon="6.493453"><ele>1087.5</ele><time>2019-08-11T13:57:06Z</time></trkpt><trkpt lat="46.811287" lon="6.493587"><ele>1085.5</ele><time>2019-08-11T13:57:27Z</time></trkpt><trkpt lat="46.811457" lon="6.493696"><ele>1083.3</ele><time>2019-08-11T13:57:41Z</time></trkpt><trkpt lat="46.811624" lon="6.493841"><ele>1080.1</ele><time>2019-08-11T13:57:54Z</time></trkpt><trkpt lat="46.811797" lon="6.493980"><ele>1077.5</ele><time>2019-08-11T13:58:15Z</time></trkpt><trkpt lat="46.811979" lon="6.494074"><ele>1073.1</ele><time>2019-08-11T13:58:28Z</time></trkpt><trkpt lat="46.812167" lon="6.494201"><ele>1070.9</ele><time>2019-08-11T13:58:43Z</time></trkpt><trkpt lat="46.812345" lon="6.494363"><ele>1068.4</ele><time>2019-08-11T13:58:59Z</time></trkpt><trkpt lat="46.812490" lon="6.494550"><ele>1065.4</ele><time>2019-08-11T13:59:14Z</time></trkpt><trkpt lat="46.812640" lon="6.494724"><ele>1062.9</ele><time>2019-08-11T13:59:25Z</time></trkpt><trkpt lat="46.812807" lon="6.494870"><ele>1060.7</ele><time>2019-08-11T13:59:42Z</time></trkpt><trkpt lat="46.812956" lon="6.495052"><ele>1058.4</ele><time>2019-08-11T13:59:58Z</time></trkpt><trkpt lat="46.813126" lon="6.495202"><ele>1055.9</ele><time>2019-08-11T14:00:16Z</time></trkpt><trkpt lat="46.813316" lon="6.495312"><ele>1053.4</ele><time>2019-08-11T14:00:33Z</time></trkpt><trkpt lat="46.813520" lon="6.495363"><ele>1051.0</ele><time>2019-08-11T14:00:49Z</time></trkpt><trkpt lat="46.813695" lon="6.495450"><ele>1049.2</ele><time>2019-08-11T14:01:01Z</time></trkpt><trkpt lat="46.813885" lon="6.495574"><ele>1048.2</ele><time>2019-08-11T14:01:20Z</time></trkpt><trkpt lat="46.814083" lon="6.495606"><ele>1047.1</ele><time>2019-08-11T14:01:58Z</time></trkpt><trkpt lat="46.814247" lon="6.495494"><ele>1046.0</ele><time>2019-08-11T14:02:11Z</time></trkpt><trkpt lat="46.814439" lon="6.495455"><ele>1044.8</ele><time>2019-08-11T14:02:27Z</time></trkpt><trkpt lat="46.814578" lon="6.495623"><ele>1043.9</ele><time>2019-08-11T14:02:40Z</time></trkpt><trkpt lat="46.814751" lon="6.495805"><ele>1043.0</ele><time>2019-08-11T14:02:57Z</time></trkpt><trkpt lat="46.814886" lon="6.495986"><ele>1042.2</ele><time>2019-08-11T14:03:13Z</time></trkpt><trkpt lat="46.815000" lon="6.496193"><ele>1041.8</ele><time>2019-08-11T14:03:27Z</time></trkpt><trkpt lat="46.815112" lon="6.496418"><ele>1040.8</ele><time>2019-08-11T14:03:41Z</time></trkpt><trkpt lat="46.815099" lon="6.496696"><ele>1039.6</ele><time>2019-08-11T14:04:00Z</time></trkpt><trkpt lat="46.815161" lon="6.497011"><ele>1039.3</ele><time>2019-08-11T14:04:18Z</time></trkpt><trkpt lat="46.815193" lon="6.497294"><ele>1039.9</ele><time>2019-08-11T14:04:35Z</time></trkpt><trkpt lat="46.815233" lon="6.497551"><ele>1040.2</ele><time>2019-08-11T14:04:52Z</time></trkpt><trkpt lat="46.815233" lon="6.497839"><ele>1040.9</ele><time>2019-08-11T14:05:07Z</time></trkpt><trkpt lat="46.815352" lon="6.498046"><ele>1042.2</ele><time>2019-08-11T14:05:20Z</time></trkpt><trkpt lat="46.815498" lon="6.498218"><ele>1044.1</ele><time>2019-08-11T14:05:34Z</time></trkpt><trkpt lat="46.815635" lon="6.498403"><ele>1045.5</ele><time>2019-08-11T14:05:47Z</time></trkpt><trkpt lat="46.815770" lon="6.498619"><ele>1046.5</ele><time>2019-08-11T14:06:06Z</time></trkpt><trkpt lat="46.815868" lon="6.498895"><ele>1046.6</ele><time>2019-08-11T14:06:23Z</time></trkpt><trkpt lat="46.815931" lon="6.499170"><ele>1046.0</ele><time>2019-08-11T14:06:41Z</time></trkpt><trkpt lat="46.815981" lon="6.499439"><ele>1045.5</ele><time>2019-08-11T14:06:57Z</time></trkpt><trkpt lat="46.816082" lon="6.499702"><ele>1045.4</ele><time>2019-08-11T14:07:09Z</time></trkpt><trkpt lat="46.816213" lon="6.499918"><ele>1047.0</ele><time>2019-08-11T14:07:30Z</time></trkpt><trkpt lat="46.816359" lon="6.500080"><ele>1048.4</ele><time>2019-08-11T14:07:45Z</time></trkpt><trkpt lat="46.816547" lon="6.500129"><ele>1050.1</ele><time>2019-08-11T14:08:03Z</time></trkpt><trkpt lat="46.816727" lon="6.500251"><ele>1051.2</ele><time>2019-08-11T14:08:17Z</time></trkpt><trkpt lat="46.816858" lon="6.500433"><ele>1052.2</ele><time>2019-08-11T14:08:30Z</time></trkpt><trkpt lat="46.817008" lon="6.500586"><ele>1053.1</ele><time>2019-08-11T14:08:45Z</time></trkpt><trkpt lat="46.817187" lon="6.500736"><ele>1054.3</ele><time>2019-08-11T14:09:05Z</time></trkpt><trkpt lat="46.817378" lon="6.500824"><ele>1055.0</ele><time>2019-08-11T14:09:21Z</time></trkpt><trkpt lat="46.817559" lon="6.500947"><ele>1055.6</ele><time>2019-08-11T14:09:35Z</time></trkpt><trkpt lat="46.817757" lon="6.501006"><ele>1056.7</ele><time>2019-08-11T14:09:51Z</time></trkpt><trkpt lat="46.817929" lon="6.501103"><ele>1058.0</ele><time>2019-08-11T14:10:06Z</time></trkpt><trkpt lat="46.818118" lon="6.501151"><ele>1059.7</ele><time>2019-08-11T14:10:20Z</time></trkpt><trkpt lat="46.818291" lon="6.501276"><ele>1061.2</ele><time>2019-08-11T14:10:37Z</time></trkpt><trkpt lat="46.818485" lon="6.501333"><ele>1062.1</ele><time>2019-08-11T14:10:52Z</time></trkpt><trkpt lat="46.818698" lon="6.501390"><ele>1063.1</ele><time>2019-08-11T14:11:07Z</time></trkpt><trkpt lat="46.818874" lon="6.501486"><ele>1064.0</ele><time>2019-08-11T14:11:24Z</time></trkpt><trkpt lat="46.819057" lon="6.501559"><ele>1064.8</ele><time>2019-08-11T14:11:37Z</time></trkpt><trkpt lat="46.819231" lon="6.501395"><ele>1066.6</ele><time>2019-08-11T14:12:00Z</time></trkpt><trkpt lat="46.819311" lon="6.501136"><ele>1067.1</ele><time>2019-08-11T14:12:17Z</time></trkpt><trkpt lat="46.819451" lon="6.500961"><ele>1066.6</ele><time>2019-08-11T14:12:35Z</time></trkpt><trkpt lat="46.819581" lon="6.500774"><ele>1066.0</ele><time>2019-08-11T14:12:50Z</time></trkpt><trkpt lat="46.819669" lon="6.500525"><ele>1064.6</ele><time>2019-08-11T14:13:06Z</time></trkpt><trkpt lat="46.819606" lon="6.500387"><ele>1063.7</ele><time>2019-08-11T14:13:39Z</time></trkpt></trkseg></trk></gpx>