<?xml version="1.0" encoding="UTF-8"?><gpx version="1.1" creator="cesium-helpers" xmlns="http://www.topografix.com/GPX/1/1"><trk><name>Gorge down to Baulmes</name><trkseg><trkpt lat="46.817520" lon="6.525530"><ele>885.6</ele><time>2026-09-26T08:30:00Z</time></trkpt><trkpt lat="46.817490" lon="6.525460"><ele>885.4</ele><time>2026-09-26T08:30:04Z</time></trkpt><trkpt lat="46.817480" lon="6.525450"><ele>885.4</ele><time>2026-09-26T08:30:05Z</time></trkpt><trkpt lat="46.817460" lon="6.525500"><ele>884.7</ele><time>2026-09-26T08:30:09Z</time></trkpt><trkpt lat="46.817430" lon="6.525560"><ele>883.7</ele><time>2026-09-26T08:30:14Z</time></trkpt><trkpt lat="46.817410" lon="6.525590"><ele>883.3</ele><time>2026-09-26T08:30:16Z</time></trkpt><trkpt lat="46.817410" lon="6.525620"><ele>883.1</ele><time>2026-09-26T08:30:18Z</time></trkpt><trkpt lat="46.817410" lon="6.525660"><ele>882.5</ele><time>2026-09-26T08:30:21Z</time></trkpt><trkpt lat="46.817420" lon="6.525880"><ele>880.0</ele><time>2026-09-26T08:30:35Z</time></trkpt><trkpt lat="46.817420" lon="6.526010"><ele>878.3</ele><time>2026-09-26T08:30:44Z</time></trkpt><trkpt lat="46.817420" lon="6.526150"><ele>876.5</ele><time>2026-09-26T08:30:54Z</time></trkpt><trkpt lat="46.817410" lon="6.526190"><ele>876.0</ele><time>2026-09-26T08:30:57Z</time></trkpt><trkpt lat="46.817400" lon="6.526200"><ele>875.8</ele><time>2026-09-26T08:30:58Z</time></trkpt><trkpt lat="46.817370" lon="6.526240"><ele>874.7</ele><time>2026-09-26T08:31:03Z</time></trkpt><trkpt lat="46.817320" lon="6.526260"><ele>873.8</ele><time>2026-09-26T08:31:08Z</time></trkpt><trkpt lat="46.817240" lon="6.526300"><ele>872.1</ele><time>2026-09-26T08:31:17Z</time></trkpt><trkpt lat="46.817180" lon="6.526340"><ele>871.3</ele><time>2026-09-26T08:31:23Z</time></trkpt><trkpt lat="46.817160" lon="6.526390"><ele>870.4</ele><time>2026-09-26T08:31:27Z</time></trkpt><trkpt lat="46.817140" lon="6.526460"><ele>869.5</ele><time>2026-09-26T08:31:32Z</time></trkpt><trkpt lat="46.817090" lon="6.526580"><ele>867.8</ele><time>2026-09-26T08:31:42Z</time></trkpt><trkpt lat="46.817060" lon="6.526650"><ele>866.9</ele><time>2026-09-26T08:31:47Z</time></trkpt><trkpt lat="46.817000" lon="6.526800"><ele>865.6</ele><time>2026-09-26T08:31:56Z</time></trkpt><trkpt lat="46.816970" lon="6.526860"><ele>864.5</ele><time>2026-09-26T08:32:02Z</time></trkpt><trkpt lat="46.816950" lon="6.526890"><ele>863.8</ele><time>2026-09-26T08:32:05Z</time></trkpt><trkpt lat="46.816930" lon="6.526930"><ele>863.1</ele><time>2026-09-26T08:32:09Z</time></trkpt><trkpt lat="46.816800" lon="6.527110"><ele>859.7</ele><time>2026-09-26T08:32:27Z</time></trkpt><trkpt lat="46.816780" lon="6.527140"><ele>859.2</ele><time>2026-09-26T08:32:30Z</time></trkpt><trkpt lat="46.816700" lon="6.527280"><ele>857.6</ele><time>2026-09-26T08:32:40Z</time></trkpt><trkpt lat="46.816630" lon="6.527390"><ele>855.9</ele><time>2026-09-26T08:32:50Z</time></trkpt><trkpt lat="46.816590" lon="6.527470"><ele>855.0</ele><time>2026-09-26T08:32:56Z</time></trkpt><trkpt lat="46.816590" lon="6.527480"><ele>855.0</ele><time>2026-09-26T08:32:56Z</time></trkpt><trkpt lat="46.816530" lon="6.527640"><ele>852.4</ele><time>2026-09-26T08:33:10Z</time></trkpt><trkpt lat="46.816500" lon="6.527780"><ele>851.1</ele><time>2026-09-26T08:33:18Z</time></trkpt><trkpt lat="46.816470" lon="6.527920"><ele>850.0</ele><time>2026-09-26T08:33:26Z</time></trkpt><trkpt lat="46.816440" lon="6.528060"><ele>849.2</ele><time>2026-09-26T08:33:33Z</time></trkpt><trkpt lat="46.816430" lon="6.528120"><ele>848.7</ele><time>2026-09-26T08:33:37Z</time></trkpt><trkpt lat="46.816410" lon="6.528170"><ele>848.2</ele><time>2026-09-26T08:33:40Z</time></trkpt><trkpt lat="46.816390" lon="6.528470"><ele>846.5</ele><time>2026-09-26T08:33:55Z</time></trkpt><trkpt lat="46.816350" lon="6.528700"><ele>844.9</ele><time>2026-09-26T08:34:08Z</time></trkpt><trkpt lat="46.816320" lon="6.528800"><ele>844.1</ele><time>2026-09-26T08:34:13Z</time></trkpt><trkpt lat="46.816260" lon="6.528920"><ele>843.1</ele><time>2026-09-26T08:34:21Z</time></trkpt><trkpt lat="46.816220" lon="6.528970"><ele>842.4</ele><time>2026-09-26T08:34:26Z</time></trkpt><trkpt lat="46.816210" lon="6.528970"><ele>842.4</ele><time>2026-09-26T08:34:26Z</time></trkpt><trkpt lat="46.816210" lon="6.529010"><ele>841.9</ele><time>2026-09-26T08:34:29Z</time></trkpt><trkpt lat="46.816190" lon="6.529060"><ele>841.2</ele><time>2026-09-26T08:34:33Z</time></trkpt><trkpt lat="46.816150" lon="6.529120"><ele>840.2</ele><time>2026-09-26T08:34:38Z</time></trkpt><trkpt lat="46.816150" lon="6.529120"><ele>840.1</ele><time>2026-09-26T08:34:38Z</time></trkpt><trkpt lat="46.816150" lon="6.529130"><ele>840.1</ele><time>2026-09-26T08:34:39Z</time></trkpt><trkpt lat="46.816140" lon="6.529150"><ele>839.6</ele><time>2026-09-26T08:34:41Z</time></trkpt><trkpt lat="46.816120" lon="6.529220"><ele>838.6</ele><time>2026-09-26T08:34:46Z</time></trkpt><trkpt lat="46.816070" lon="6.529320"><ele>837.1</ele><time>2026-09-26T08:34:55Z</time></trkpt><trkpt lat="46.815980" lon="6.529460"><ele>834.8</ele><time>2026-09-26T08:35:07Z</time></trkpt><trkpt lat="46.815910" lon="6.529610"><ele>832.4</ele><time>2026-09-26T08:35:20Z</time></trkpt><trkpt lat="46.815890" lon="6.529640"><ele>831.9</ele><time>2026-09-26T08:35:23Z</time></trkpt><trkpt lat="46.815850" lon="6.529700"><ele>830.9</ele><time>2026-09-26T08:35:28Z</time></trkpt><trkpt lat="46.815820" lon="6.529750"><ele>830.2</ele><time>2026-09-26T08:35:33Z</time></trkpt><trkpt lat="46.815820" lon="6.529760"><ele>830.1</ele><time>2026-09-26T08:35:33Z</time></trkpt><trkpt lat="46.815800" lon="6.529810"><ele>829.4</ele><time>2026-09-26T08:35:37Z</time></trkpt><trkpt lat="46.815800" lon="6.529810"><ele>829.4</ele><time>2026-09-26T08:35:37Z</time></trkpt><trkpt lat="46.815800" lon="6.529860"><ele>828.8</ele><time>2026-09-26T08:35:40Z</time></trkpt><trkpt lat="46.815800" lon="6.529920"><ele>828.1</ele><time>2026-09-26T08:35:44Z</time></trkpt><trkpt lat="46.815800" lon="6.529980"><ele>827.2</ele><time>2026-09-26T08:35:49Z</time></trkpt><trkpt lat="46.815800" lon="6.530010"><ele>826.7</ele><time>2026-09-26T08:35:51Z</time></trkpt><trkpt lat="46.815800" lon="6.530020"><ele>826.6</ele><time>2026-09-26T08:35:52Z</time></trkpt><trkpt lat="46.815790" lon="6.530060"><ele>826.0</ele><time>2026-09-26T08:35:55Z</time></trkpt><trkpt lat="46.815780" lon="6.530080"><ele>825.5</ele><time>2026-09-26T08:35:58Z</time></trkpt><trkpt lat="46.815760" lon="6.530110"><ele>824.9</ele><time>2026-09-26T08:36:01Z</time></trkpt><trkpt lat="46.815740" lon="6.530130"><ele>824.5</ele><time>2026-09-26T08:36:03Z</time></trkpt><trkpt lat="46.815730" lon="6.530150"><ele>824.0</ele><time>2026-09-26T08:36:05Z</time></trkpt><trkpt lat="46.815720" lon="6.530170"><ele>823.7</ele><time>2026-09-26T08:36:07Z</time></trkpt><trkpt lat="46.815700" lon="6.530240"><ele>822.2</ele><time>2026-09-26T08:36:14Z</time></trkpt><trkpt lat="46.815680" lon="6.530320"><ele>821.0</ele><time>2026-09-26T08:36:20Z</time></trkpt><trkpt lat="46.815670" lon="6.530390"><ele>819.8</ele><time>2026-09-26T08:36:26Z</time></trkpt><trkpt lat="46.815680" lon="6.530440"><ele>818.8</ele><time>2026-09-26T08:36:31Z</time></trkpt><trkpt lat="46.815700" lon="6.530520"><ele>817.5</ele><time>2026-09-26T08:36:38Z</time></trkpt><trkpt lat="46.815700" lon="6.530530"><ele>817.2</ele><time>2026-09-26T08:36:39Z</time></trkpt><trkpt lat="46.815710" lon="6.530620"><ele>816.0</ele><time>2026-09-26T08:36:46Z</time></trkpt><trkpt lat="46.815710" lon="6.530720"><ele>814.3</ele><time>2026-09-26T08:36:54Z</time></trkpt><trkpt lat="46.815700" lon="6.530810"><ele>812.6</ele><time>2026-09-26T08:37:02Z</time></trkpt><trkpt lat="46.815710" lon="6.530950"><ele>810.1</ele><time>2026-09-26T08:37:14Z</time></trkpt><trkpt lat="46.815710" lon="6.531040"><ele>808.6</ele><time>2026-09-26T08:37:22Z</time></trkpt><trkpt lat="46.815710" lon="6.531080"><ele>808.1</ele><time>2026-09-26T08:37:25Z</time></trkpt><trkpt lat="46.815710" lon="6.531090"><ele>807.9</ele><time>2026-09-26T08:37:26Z</time></trkpt><trkpt lat="46.815690" lon="6.531120"><ele>807.2</ele><time>2026-09-26T08:37:29Z</time></trkpt><trkpt lat="46.815660" lon="6.531200"><ele>805.3</ele><time>2026-09-26T08:37:38Z</time></trkpt><trkpt lat="46.815640" lon="6.531260"><ele>803.9</ele><time>2026-09-26T08:37:45Z</time></trkpt><trkpt lat="46.815650" lon="6.531360"><ele>802.2</ele><time>2026-09-26T08:37:53Z</time></trkpt><trkpt lat="46.815620" lon="6.531440"><ele>800.8</ele><time>2026-09-26T08:38:00Z</time></trkpt><trkpt lat="46.815620" lon="6.531470"><ele>800.4</ele><time>2026-09-26T08:38:02Z</time></trkpt><trkpt lat="46.815620" lon="6.531490"><ele>800.1</ele><time>2026-09-26T08:38:04Z</time></trkpt><trkpt lat="46.815620" lon="6.531500"><ele>799.9</ele><time>2026-09-26T08:38:05Z</time></trkpt><trkpt lat="46.815610" lon="6.531530"><ele>799.4</ele><time>2026-09-26T08:38:08Z</time></trkpt><trkpt lat="46.815580" lon="6.531550"><ele>798.8</ele><time>2026-09-26T08:38:11Z</time></trkpt><trkpt lat="46.815550" lon="6.531570"><ele>798.3</ele><time>2026-09-26T08:38:14Z</time></trkpt><trkpt lat="46.815520" lon="6.531580"><ele>797.8</ele><time>2026-09-26T08:38:17Z</time></trkpt><trkpt lat="46.815480" lon="6.531580"><ele>797.2</ele><time>2026-09-26T08:38:20Z</time></trkpt><trkpt lat="46.815460" lon="6.531590"><ele>796.9</ele><time>2026-09-26T08:38:22Z</time></trkpt><trkpt lat="46.815450" lon="6.531590"><ele>796.8</ele><time>2026-09-26T08:38:23Z</time></trkpt><trkpt lat="46.815400" lon="6.531610"><ele>796.4</ele><time>2026-09-26T08:38:27Z</time></trkpt><trkpt lat="46.815390" lon="6.531620"><ele>796.4</ele><time>2026-09-26T08:38:28Z</time></trkpt><trkpt lat="46.815380" lon="6.531630"><ele>796.4</ele><time>2026-09-26T08:38:28Z</time></trkpt><trkpt lat="46.815380" lon="6.531650"><ele>796.3</ele><time>2026-09-26T08:38:30Z</time></trkpt><trkpt lat="46.815380" lon="6.531650"><ele>796.3</ele><time>2026-09-26T08:38:30Z</time></trkpt><trkpt lat="46.815380" lon="6.531650"><ele>796.2</ele><time>2026-09-26T08:38:30Z</time></trkpt><trkpt lat="46.815380" lon="6.531670"><ele>796.0</ele><time>2026-09-26T08:38:31Z</time></trkpt><trkpt lat="46.815380" lon="6.531700"><ele>796.0</ele><time>2026-09-26T08:38:32Z</time></trkpt><trkpt lat="46.815370" lon="6.531730"><ele>795.8</ele><time>2026-09-26T08:38:34Z</time></trkpt><trkpt lat="46.815350" lon="6.531740"><ele>795.8</ele><time>2026-09-26T08:38:36Z</time></trkpt><trkpt lat="46.815340" lon="6.531740"><ele>796.3</ele><time>2026-09-26T08:38:39Z</time></trkpt><trkpt lat="46.815330" lon="6.531730"><ele>796.7</ele><time>2026-09-26T08:38:41Z</time></trkpt><trkpt lat="46.815310" lon="6.531740"><ele>796.1</ele><time>2026-09-26T08:38:44Z</time></trkpt><trkpt lat="46.815290" lon="6.531750"><ele>795.6</ele><time>2026-09-26T08:38:47Z</time></trkpt><trkpt lat="46.815260" lon="6.531770"><ele>795.4</ele><time>2026-09-26T08:38:49Z</time></trkpt><trkpt lat="46.815230" lon="6.531790"><ele>795.2</ele><time>2026-09-26T08:38:51Z</time></trkpt><trkpt lat="46.815210" lon="6.531820"><ele>794.8</ele><time>2026-09-26T08:38:54Z</time></trkpt><trkpt lat="46.815200" lon="6.531820"><ele>794.7</ele><time>2026-09-26T08:38:54Z</time></trkpt><trkpt lat="46.815150" lon="6.531890"><ele>793.6</ele><time>2026-09-26T08:39:01Z</time></trkpt><trkpt lat="46.815140" lon="6.531920"><ele>793.3</ele><time>2026-09-26T08:39:03Z</time></trkpt><trkpt lat="46.815130" lon="6.531960"><ele>792.8</ele><time>2026-09-26T08:39:06Z</time></trkpt><trkpt lat="46.815130" lon="6.531980"><ele>792.6</ele><time>2026-09-26T08:39:07Z</time></trkpt><trkpt lat="46.815130" lon="6.532020"><ele>792.1</ele><time>2026-09-26T08:39:09Z</time></trkpt><trkpt lat="46.815160" lon="6.532110"><ele>791.1</ele><time>2026-09-26T08:39:16Z</time></trkpt><trkpt lat="46.815170" lon="6.532150"><ele>790.8</ele><time>2026-09-26T08:39:18Z</time></trkpt><trkpt lat="46.815190" lon="6.532210"><ele>790.4</ele><time>2026-09-26T08:39:21Z</time></trkpt><trkpt lat="46.815200" lon="6.532240"><ele>790.4</ele><time>2026-09-26T08:39:23Z</time></trkpt><trkpt lat="46.815200" lon="6.532270"><ele>790.3</ele><time>2026-09-26T08:39:24Z</time></trkpt><trkpt lat="46.815180" lon="6.532330"><ele>790.1</ele><time>2026-09-26T08:39:28Z</time></trkpt><trkpt lat="46.815170" lon="6.532380"><ele>789.9</ele><time>2026-09-26T08:39:30Z</time></trkpt><trkpt lat="46.815160" lon="6.532400"><ele>789.9</ele><time>2026-09-26T08:39:31Z</time></trkpt><trkpt lat="46.815150" lon="6.532410"><ele>789.9</ele><time>2026-09-26T08:39:32Z</time></trkpt><trkpt lat="46.815130" lon="6.532420"><ele>789.7</ele><time>2026-09-26T08:39:34Z</time></trkpt><trkpt lat="46.815100" lon="6.532420"><ele>789.4</ele><time>2026-09-26T08:39:36Z</time></trkpt><trkpt lat="46.815080" lon="6.532420"><ele>789.3</ele><time>2026-09-26T08:39:37Z</time></trkpt><trkpt lat="46.815070" lon="6.532410"><ele>789.3</ele><time>2026-09-26T08:39:38Z</time></trkpt><trkpt lat="46.815030" lon="6.532390"><ele>789.2</ele><time>2026-09-26T08:39:41Z</time></trkpt><trkpt lat="46.815000" lon="6.532370"><ele>789.0</ele><time>2026-09-26T08:39:43Z</time></trkpt><trkpt lat="46.814930" lon="6.532330"><ele>788.6</ele><time>2026-09-26T08:39:49Z</time></trkpt><trkpt lat="46.814860" lon="6.532300"><ele>788.1</ele><time>2026-09-26T08:39:54Z</time></trkpt><trkpt lat="46.814820" lon="6.532300"><ele>787.6</ele><time>2026-09-26T08:39:57Z</time></trkpt><trkpt lat="46.814780" lon="6.532320"><ele>787.4</ele><time>2026-09-26T08:40:00Z</time></trkpt><trkpt lat="46.814760" lon="6.532320"><ele>787.3</ele><time>2026-09-26T08:40:01Z</time></trkpt><trkpt lat="46.814740" lon="6.532320"><ele>787.1</ele><time>2026-09-26T08:40:03Z</time></trkpt><trkpt lat="46.814700" lon="6.532320"><ele>786.9</ele><time>2026-09-26T08:40:05Z</time></trkpt><trkpt lat="46.814670" lon="6.532320"><ele>786.6</ele><time>2026-09-26T08:40:08Z</time></trkpt><trkpt lat="46.814600" lon="6.532320"><ele>785.7</ele><time>2026-09-26T08:40:14Z</time></trkpt><trkpt lat="46.814570" lon="6.532340"><ele>785.5</ele><time>2026-09-26T08:40:16Z</time></trkpt><trkpt lat="46.814560" lon="6.532360"><ele>785.4</ele><time>2026-09-26T08:40:17Z</time></trkpt><trkpt lat="46.814550" lon="6.532380"><ele>785.2</ele><time>2026-09-26T08:40:18Z</time></trkpt><trkpt lat="46.814530" lon="6.532440"><ele>784.7</ele><time>2026-09-26T08:40:22Z</time></trkpt><trkpt lat="46.814530" lon="6.532470"><ele>784.2</ele><time>2026-09-26T08:40:24Z</time></trkpt><trkpt lat="46.814520" lon="6.532510"><ele>783.7</ele><time>2026-09-26T08:40:27Z</time></trkpt><trkpt lat="46.814500" lon="6.532640"><ele>782.0</ele><time>2026-09-26T08:40:36Z</time></trkpt><trkpt lat="46.814500" lon="6.532660"><ele>781.6</ele><time>2026-09-26T08:40:38Z</time></trkpt><trkpt lat="46.814490" lon="6.532690"><ele>781.2</ele><time>2026-09-26T08:40:41Z</time></trkpt><trkpt lat="46.814450" lon="6.532790"><ele>779.6</ele><time>2026-09-26T08:40:49Z</time></trkpt><trkpt lat="46.814430" lon="6.532850"><ele>778.9</ele><time>2026-09-26T08:40:53Z</time></trkpt><trkpt lat="46.814390" lon="6.533020"><ele>776.4</ele><time>2026-09-26T08:41:06Z</time></trkpt><trkpt lat="46.814370" lon="6.533100"><ele>775.2</ele><time>2026-09-26T08:41:12Z</time></trkpt><trkpt lat="46.814360" lon="6.533150"><ele>774.5</ele><time>2026-09-26T08:41:16Z</time></trkpt><trkpt lat="46.814330" lon="6.533290"><ele>772.6</ele><time>2026-09-26T08:41:26Z</time></trkpt><trkpt lat="46.814280" lon="6.533490"><ele>770.3</ele><time>2026-09-26T08:41:40Z</time></trkpt><trkpt lat="46.814250" lon="6.533630"><ele>768.4</ele><time>2026-09-26T08:41:50Z</time></trkpt><trkpt lat="46.814200" lon="6.533920"><ele>764.9</ele><time>2026-09-26T08:42:10Z</time></trkpt><trkpt lat="46.814150" lon="6.534130"><ele>762.1</ele><time>2026-09-26T08:42:25Z</time></trkpt><trkpt lat="46.814110" lon="6.534310"><ele>759.1</ele><time>2026-09-26T08:42:40Z</time></trkpt><trkpt lat="46.814040" lon="6.534470"><ele>755.8</ele><time>2026-09-26T08:42:56Z</time></trkpt><trkpt lat="46.814030" lon="6.534480"><ele>755.7</ele><time>2026-09-26T08:42:57Z</time></trkpt><trkpt lat="46.813940" lon="6.534660"><ele>751.6</ele><time>2026-09-26T08:43:17Z</time></trkpt><trkpt lat="46.813900" lon="6.534740"><ele>750.0</ele><time>2026-09-26T08:43:25Z</time></trkpt><trkpt lat="46.813860" lon="6.534830"><ele>748.0</ele><time>2026-09-26T08:43:34Z</time></trkpt><trkpt lat="46.813820" lon="6.534940"><ele>745.9</ele><time>2026-09-26T08:43:45Z</time></trkpt><trkpt lat="46.813760" lon="6.535050"><ele>743.8</ele><time>2026-09-26T08:43:55Z</time></trkpt><trkpt lat="46.813740" lon="6.535110"><ele>743.3</ele><time>2026-09-26T08:43:59Z</time></trkpt><trkpt lat="46.813730" lon="6.535110"><ele>743.3</ele><time>2026-09-26T08:44:00Z</time></trkpt><trkpt lat="46.813700" lon="6.535260"><ele>741.1</ele><time>2026-09-26T08:44:11Z</time></trkpt><trkpt lat="46.813680" lon="6.535330"><ele>740.0</ele><time>2026-09-26T08:44:17Z</time></trkpt><trkpt lat="46.813650" lon="6.535440"><ele>738.4</ele><time>2026-09-26T08:44:25Z</time></trkpt><trkpt lat="46.813600" lon="6.535660"><ele>736.0</ele><time>2026-09-26T08:44:40Z</time></trkpt><trkpt lat="46.813570" lon="6.535750"><ele>736.0</ele><time>2026-09-26T08:44:45Z</time></trkpt><trkpt lat="46.813550" lon="6.535840"><ele>735.2</ele><time>2026-09-26T08:44:50Z</time></trkpt><trkpt lat="46.813520" lon="6.535940"><ele>734.3</ele><time>2026-09-26T08:44:56Z</time></trkpt><trkpt lat="46.813510" lon="6.535980"><ele>734.0</ele><time>2026-09-26T08:44:59Z</time></trkpt><trkpt lat="46.813500" lon="6.536040"><ele>733.6</ele><time>2026-09-26T08:45:02Z</time></trkpt><trkpt lat="46.813500" lon="6.536080"><ele>733.4</ele><time>2026-09-26T08:45:04Z</time></trkpt><trkpt lat="46.813500" lon="6.536120"><ele>733.2</ele><time>2026-09-26T08:45:06Z</time></trkpt><trkpt lat="46.813500" lon="6.536150"><ele>732.9</ele><time>2026-09-26T08:45:08Z</time></trkpt><trkpt lat="46.813490" lon="6.536230"><ele>732.3</ele><time>2026-09-26T08:45:12Z</time></trkpt><trkpt lat="46.813460" lon="6.536360"><ele>731.5</ele><time>2026-09-26T08:45:19Z</time></trkpt><trkpt lat="46.813450" lon="6.536420"><ele>730.7</ele><time>2026-09-26T08:45:23Z</time></trkpt><trkpt lat="46.813430" lon="6.536520"><ele>729.6</ele><time>2026-09-26T08:45:29Z</time></trkpt><trkpt lat="46.813420" lon="6.536590"><ele>728.8</ele><time>2026-09-26T08:45:34Z</time></trkpt><trkpt lat="46.813420" lon="6.536780"><ele>726.9</ele><time>2026-09-26T08:45:45Z</time></trkpt><trkpt lat="46.813410" lon="6.536830"><ele>726.5</ele><time>2026-09-26T08:45:48Z</time></trkpt><trkpt lat="46.813400" lon="6.536850"><ele>726.4</ele><time>2026-09-26T08:45:50Z</time></trkpt><trkpt lat="46.813390" lon="6.536880"><ele>726.2</ele><time>2026-09-26T08:45:51Z</time></trkpt><trkpt lat="46.813390" lon="6.536880"><ele>726.2</ele><time>2026-09-26T08:45:51Z</time></trkpt><trkpt lat="46.813320" lon="6.536930"><ele>725.2</ele><time>2026-09-26T08:45:58Z</time></trkpt><trkpt lat="46.813140" lon="6.537070"><ele>721.8</ele><time>2026-09-26T08:46:17Z</time></trkpt><trkpt lat="46.813110" lon="6.537080"><ele>721.5</ele><time>2026-09-26T08:46:19Z</time></trkpt><trkpt lat="46.813070" lon="6.537100"><ele>721.1</ele><time>2026-09-26T08:46:23Z</time></trkpt><trkpt lat="46.813030" lon="6.537110"><ele>720.3</ele><time>2026-09-26T08:46:27Z</time></trkpt><trkpt lat="46.813000" lon="6.537120"><ele>719.8</ele><time>2026-09-26T08:46:30Z</time></trkpt><trkpt lat="46.812920" lon="6.537140"><ele>718.3</ele><time>2026-09-26T08:46:38Z</time></trkpt><trkpt lat="46.812870" lon="6.537160"><ele>717.8</ele><time>2026-09-26T08:46:42Z</time></trkpt><trkpt lat="46.812860" lon="6.537180"><ele>717.5</ele><time>2026-09-26T08:46:43Z</time></trkpt><trkpt lat="46.812790" lon="6.537230"><ele>716.4</ele><time>2026-09-26T08:46:50Z</time></trkpt><trkpt lat="46.812770" lon="6.537270"><ele>716.1</ele><time>2026-09-26T08:46:53Z</time></trkpt><trkpt lat="46.812770" lon="6.537270"><ele>716.1</ele><time>2026-09-26T08:46:53Z</time></trkpt><trkpt lat="46.812770" lon="6.537300"><ele>716.0</ele><time>2026-09-26T08:46:54Z</time></trkpt><trkpt lat="46.812760" lon="6.537350"><ele>716.0</ele><time>2026-09-26T08:46:57Z</time></trkpt><trkpt lat="46.812740" lon="6.537420"><ele>715.6</ele><time>2026-09-26T08:47:00Z</time></trkpt><trkpt lat="46.812710" lon="6.537470"><ele>715.1</ele><time>2026-09-26T08:47:04Z</time></trkpt><trkpt lat="46.812650" lon="6.537570"><ele>713.8</ele><time>2026-09-26T08:47:12Z</time></trkpt><trkpt lat="46.812630" lon="6.537630"><ele>712.8</ele><time>2026-09-26T08:47:17Z</time></trkpt><trkpt lat="46.812630" lon="6.537650"><ele>712.5</ele><time>2026-09-26T08:47:19Z</time></trkpt><trkpt lat="46.812630" lon="6.537650"><ele>712.5</ele><time>2026-09-26T08:47:19Z</time></trkpt><trkpt lat="46.812610" lon="6.537670"><ele>712.5</ele><time>2026-09-26T08:47:20Z</time></trkpt><trkpt lat="46.812590" lon="6.537700"><ele>712.5</ele><time>2026-09-26T08:47:23Z</time></trkpt><trkpt lat="46.812410" lon="6.537950"><ele>709.3</ele><time>2026-09-26T08:47:44Z</time></trkpt><trkpt lat="46.812330" lon="6.538020"><ele>707.5</ele><time>2026-09-26T08:47:53Z</time></trkpt><trkpt lat="46.812300" lon="6.538060"><ele>706.6</ele><time>2026-09-26T08:47:57Z</time></trkpt><trkpt lat="46.812230" lon="6.538170"><ele>705.2</ele><time>2026-09-26T08:48:06Z</time></trkpt><trkpt lat="46.812180" lon="6.538280"><ele>704.0</ele><time>2026-09-26T08:48:14Z</time></trkpt><trkpt lat="46.812150" lon="6.538360"><ele>703.3</ele><time>2026-09-26T08:48:19Z</time></trkpt><trkpt lat="46.812140" lon="6.538420"><ele>702.8</ele><time>2026-09-26T08:48:23Z</time></trkpt><trkpt lat="46.812120" lon="6.538450"><ele>702.4</ele><time>2026-09-26T08:48:25Z</time></trkpt><trkpt lat="46.812080" lon="6.538570"><ele>701.0</ele><time>2026-09-26T08:48:33Z</time></trkpt><trkpt lat="46.812030" lon="6.538670"><ele>699.3</ele><time>2026-09-26T08:48:42Z</time></trkpt><trkpt lat="46.811960" lon="6.538820"><ele>696.5</ele><time>2026-09-26T08:48:56Z</time></trkpt><trkpt lat="46.811930" lon="6.538890"><ele>695.1</ele><time>2026-09-26T08:49:03Z</time></trkpt><trkpt lat="46.811900" lon="6.538940"><ele>694.0</ele><time>2026-09-26T08:49:09Z</time></trkpt><trkpt lat="46.811850" lon="6.539020"><ele>692.7</ele><time>2026-09-26T08:49:16Z</time></trkpt><trkpt lat="46.811830" lon="6.539080"><ele>691.8</ele><time>2026-09-26T08:49:21Z</time></trkpt><trkpt lat="46.811790" lon="6.539170"><ele>689.0</ele><time>2026-09-26T08:49:35Z</time></trkpt><trkpt lat="46.811790" lon="6.539230"><ele>686.9</ele><time>2026-09-26T08:49:46Z</time></trkpt><trkpt lat="46.811790" lon="6.539270"><ele>685.7</ele><time>2026-09-26T08:49:52Z</time></trkpt><trkpt lat="46.811800" lon="6.539310"><ele>685.2</ele><time>2026-09-26T08:49:55Z</time></trkpt><trkpt lat="46.811730" lon="6.539500"><ele>683.1</ele><time>2026-09-26T08:50:08Z</time></trkpt><trkpt lat="46.811610" lon="6.539910"><ele>679.4</ele><time>2026-09-26T08:50:33Z</time></trkpt><trkpt lat="46.811590" lon="6.539980"><ele>678.6</ele><time>2026-09-26T08:50:37Z</time></trkpt><trkpt lat="46.811550" lon="6.540070"><ele>677.8</ele><time>2026-09-26T08:50:43Z</time></trkpt><trkpt lat="46.811530" lon="6.540110"><ele>677.3</ele><time>2026-09-26T08:50:46Z</time></trkpt><trkpt lat="46.811450" lon="6.540280"><ele>675.1</ele><time>2026-09-26T08:50:59Z</time></trkpt><trkpt lat="46.811440" lon="6.540300"><ele>674.9</ele><time>2026-09-26T08:51:00Z</time></trkpt><trkpt lat="46.811410" lon="6.540380"><ele>674.1</ele><time>2026-09-26T08:51:06Z</time></trkpt><trkpt lat="46.811320" lon="6.540600"><ele>671.8</ele><time>2026-09-26T08:51:20Z</time></trkpt><trkpt lat="46.811280" lon="6.540710"><ele>670.7</ele><time>2026-09-26T08:51:28Z</time></trkpt><trkpt lat="46.811120" lon="6.541080"><ele>668.0</ele><time>2026-09-26T08:51:50Z</time></trkpt><trkpt lat="46.811080" lon="6.541190"><ele>667.3</ele><time>2026-09-26T08:51:56Z</time></trkpt><trkpt lat="46.811080" lon="6.541200"><ele>667.2</ele><time>2026-09-26T08:51:57Z</time></trkpt><trkpt lat="46.811010" lon="6.541370"><ele>666.4</ele><time>2026-09-26T08:52:06Z</time></trkpt><trkpt lat="46.810940" lon="6.541510"><ele>665.8</ele><time>2026-09-26T08:52:14Z</time></trkpt><trkpt lat="46.810890" lon="6.541570"><ele>665.3</ele><time>2026-09-26T08:52:19Z</time></trkpt><trkpt lat="46.810800" lon="6.541650"><ele>664.9</ele><time>2026-09-26T08:52:26Z</time></trkpt><trkpt lat="46.810750" lon="6.541690"><ele>664.7</ele><time>2026-09-26T08:52:30Z</time></trkpt><trkpt lat="46.810690" lon="6.541760"><ele>664.3</ele><time>2026-09-26T08:52:35Z</time></trkpt><trkpt lat="46.810650" lon="6.541810"><ele>663.9</ele><time>2026-09-26T08:52:39Z</time></trkpt><trkpt lat="46.810630" lon="6.541850"><ele>663.7</ele><time>2026-09-26T08:52:41Z</time></trkpt><trkpt lat="46.810600" lon="6.541930"><ele>663.5</ele><time>2026-09-26T08:52:45Z</time></trkpt><trkpt lat="46.810590" lon="6.541970"><ele>663.4</ele><time>2026-09-26T08:52:47Z</time></trkpt><trkpt lat="46.810570" lon="6.542030"><ele>663.2</ele><time>2026-09-26T08:52:51Z</time></trkpt><trkpt lat="46.810550" lon="6.542130"><ele>662.9</ele><time>2026-09-26T08:52:56Z</time></trkpt><trkpt lat="46.810540" lon="6.542190"><ele>662.5</ele><time>2026-09-26T08:52:59Z</time></trkpt><trkpt lat="46.810520" lon="6.542260"><ele>662.1</ele><time>2026-09-26T08:53:03Z</time></trkpt><trkpt lat="46.810490" lon="6.542340"><ele>661.4</ele><time>2026-09-26T08:53:07Z</time></trkpt><trkpt lat="46.810430" lon="6.542420"><ele>660.9</ele><time>2026-09-26T08:53:13Z</time></trkpt><trkpt lat="46.810420" lon="6.542430"><ele>660.9</ele><time>2026-09-26T08:53:14Z</time></trkpt><trkpt lat="46.810410" lon="6.542450"><ele>660.7</ele><time>2026-09-26T08:53:15Z</time></trkpt><trkpt lat="46.810390" lon="6.542460"><ele>660.7</ele><time>2026-09-26T08:53:16Z</time></trkpt><trkpt lat="46.810380" lon="6.542470"><ele>660.6</ele><time>2026-09-26T08:53:17Z</time></trkpt><trkpt lat="46.810340" lon="6.542480"><ele>660.4</ele><time>2026-09-26T08:53:20Z</time></trkpt><trkpt lat="46.810250" lon="6.542490"><ele>659.6</ele><time>2026-09-26T08:53:27Z</time></trkpt><trkpt lat="46.810230" lon="6.542490"><ele>659.5</ele><time>2026-09-26T08:53:28Z</time></trkpt><trkpt lat="46.810220" lon="6.542500"><ele>659.4</ele><time>2026-09-26T08:53:29Z</time></trkpt><trkpt lat="46.810200" lon="6.542510"><ele>659.3</ele><time>2026-09-26T08:53:31Z</time></trkpt><trkpt lat="46.810170" lon="6.542550"><ele>659.1</ele><time>2026-09-26T08:53:34Z</time></trkpt><trkpt lat="46.810130" lon="6.542620"><ele>659.0</ele><time>2026-09-26T08:53:38Z</time></trkpt><trkpt lat="46.810100" lon="6.542640"><ele>659.0</ele><time>2026-09-26T08:53:41Z</time></trkpt><trkpt lat="46.810080" lon="6.542660"><ele>658.9</ele><time>2026-09-26T08:53:43Z</time></trkpt><trkpt lat="46.810060" lon="6.542670"><ele>658.9</ele><time>2026-09-26T08:53:44Z</time></trkpt><trkpt lat="46.810040" lon="6.542670"><ele>658.8</ele><time>2026-09-26T08:53:46Z</time></trkpt><trkpt lat="46.810020" lon="6.542680"><ele>658.7</ele><time>2026-09-26T08:53:47Z</time></trkpt><trkpt lat="46.809920" lon="6.542680"><ele>658.5</ele><time>2026-09-26T08:53:55Z</time></trkpt><trkpt lat="46.809870" lon="6.542690"><ele>658.7</ele><time>2026-09-26T08:53:59Z</time></trkpt><trkpt lat="46.809860" lon="6.542700"><ele>658.7</ele><time>2026-09-26T08:54:00Z</time></trkpt><trkpt lat="46.809830" lon="6.542720"><ele>658.6</ele><time>2026-09-26T08:54:03Z</time></trkpt><trkpt lat="46.809800" lon="6.542750"><ele>658.5</ele><time>2026-09-26T08:54:05Z</time></trkpt><trkpt lat="46.809800" lon="6.542750"><ele>658.4</ele><time>2026-09-26T08:54:05Z</time></trkpt><trkpt lat="46.809780" lon="6.542790"><ele>658.3</ele><time>2026-09-26T08:54:07Z</time></trkpt><trkpt lat="46.809760" lon="6.542890"><ele>657.9</ele><time>2026-09-26T08:54:12Z</time></trkpt><trkpt lat="46.809750" lon="6.542950"><ele>657.7</ele><time>2026-09-26T08:54:15Z</time></trkpt><trkpt lat="46.809710" lon="6.543020"><ele>657.5</ele><time>2026-09-26T08:54:19Z</time></trkpt><trkpt lat="46.809670" lon="6.543080"><ele>657.3</ele><time>2026-09-26T08:54:24Z</time></trkpt><trkpt lat="46.809670" lon="6.543090"><ele>657.2</ele><time>2026-09-26T08:54:24Z</time></trkpt><trkpt lat="46.809640" lon="6.543120"><ele>657.2</ele><time>2026-09-26T08:54:27Z</time></trkpt><trkpt lat="46.809610" lon="6.543150"><ele>657.1</ele><time>2026-09-26T08:54:29Z</time></trkpt><trkpt lat="46.809590" lon="6.543170"><ele>657.0</ele><time>2026-09-26T08:54:31Z</time></trkpt><trkpt lat="46.809560" lon="6.543200"><ele>656.9</ele><time>2026-09-26T08:54:34Z</time></trkpt><trkpt lat="46.809550" lon="6.543200"><ele>656.9</ele><time>2026-09-26T08:54:35Z</time></trkpt><trkpt lat="46.809530" lon="6.543210"><ele>656.8</ele><time>2026-09-26T08:54:36Z</time></trkpt><trkpt lat="46.809490" lon="6.543210"><ele>656.6</ele><time>2026-09-26T08:54:39Z</time></trkpt><trkpt lat="46.809450" lon="6.543190"><ele>656.5</ele><time>2026-09-26T08:54:42Z</time></trkpt><trkpt lat="46.809410" lon="6.543190"><ele>656.3</ele><time>2026-09-26T08:54:45Z</time></trkpt><trkpt lat="46.809390" lon="6.543200"><ele>656.2</ele><time>2026-09-26T08:54:46Z</time></trkpt><trkpt lat="46.809360" lon="6.543210"><ele>656.1</ele><time>2026-09-26T08:54:48Z</time></trkpt><trkpt lat="46.809350" lon="6.543220"><ele>656.0</ele><time>2026-09-26T08:54:49Z</time></trkpt><trkpt lat="46.809330" lon="6.543250"><ele>655.9</ele><time>2026-09-26T08:54:51Z</time></trkpt><trkpt lat="46.809310" lon="6.543290"><ele>655.8</ele><time>2026-09-26T08:54:54Z</time></trkpt><trkpt lat="46.809300" lon="6.543310"><ele>655.8</ele><time>2026-09-26T08:54:55Z</time></trkpt><trkpt lat="46.809290" lon="6.543330"><ele>655.7</ele><time>2026-09-26T08:54:56Z</time></trkpt><trkpt lat="46.809290" lon="6.543380"><ele>655.6</ele><time>2026-09-26T08:54:58Z</time></trkpt><trkpt lat="46.809290" lon="6.543440"><ele>655.5</ele><time>2026-09-26T08:55:01Z</time></trkpt><trkpt lat="46.809290" lon="6.543470"><ele>655.4</ele><time>2026-09-26T08:55:03Z</time></trkpt><trkpt lat="46.809320" lon="6.543640"><ele>655.2</ele><time>2026-09-26T08:55:12Z</time></trkpt><trkpt lat="46.809320" lon="6.543680"><ele>655.1</ele><time>2026-09-26T08:55:14Z</time></trkpt><trkpt lat="46.809310" lon="6.543700"><ele>655.1</ele><time>2026-09-26T08:55:15Z</time></trkpt><trkpt lat="46.809310" lon="6.543710"><ele>655.1</ele><time>2026-09-26T08:55:16Z</time></trkpt><trkpt lat="46.809280" lon="6.543750"><ele>654.9</ele><time>2026-09-26T08:55:19Z</time></trkpt><trkpt lat="46.809240" lon="6.543790"><ele>654.6</ele><time>2026-09-26T08:55:22Z</time></trkpt><trkpt lat="46.809200" lon="6.543820"><ele>654.4</ele><time>2026-09-26T08:55:25Z</time></trkpt><trkpt lat="46.809170" lon="6.543850"><ele>654.3</ele><time>2026-09-26T08:55:28Z</time></trkpt><trkpt lat="46.809140" lon="6.543900"><ele>654.1</ele><time>2026-09-26T08:55:31Z</time></trkpt><trkpt lat="46.809130" lon="6.543950"><ele>654.0</ele><time>2026-09-26T08:55:34Z</time></trkpt><trkpt lat="46.809110" lon="6.544060"><ele>653.8</ele><time>2026-09-26T08:55:39Z</time></trkpt><trkpt lat="46.809110" lon="6.544060"><ele>653.8</ele><time>2026-09-26T08:55:39Z</time></trkpt><trkpt lat="46.809120" lon="6.544080"><ele>653.7</ele><time>2026-09-26T08:55:40Z</time></trkpt><trkpt lat="46.809120" lon="6.544110"><ele>653.2</ele><time>2026-09-26T08:55:43Z</time></trkpt><trkpt lat="46.809110" lon="6.544140"><ele>652.6</ele><time>2026-09-26T08:55:46Z</time></trkpt><trkpt lat="46.809100" lon="6.544200"><ele>651.7</ele><time>2026-09-26T08:55:50Z</time></trkpt><trkpt lat="46.809070" lon="6.544290"><ele>650.9</ele><time>2026-09-26T08:55:56Z</time></trkpt><trkpt lat="46.809030" lon="6.544360"><ele>649.6</ele><time>2026-09-26T08:56:03Z</time></trkpt><trkpt lat="46.809000" lon="6.544380"><ele>649.0</ele><time>2026-09-26T08:56:06Z</time></trkpt><trkpt lat="46.808970" lon="6.544380"><ele>648.1</ele><time>2026-09-26T08:56:10Z</time></trkpt><trkpt lat="46.808950" lon="6.544370"><ele>647.7</ele><time>2026-09-26T08:56:12Z</time></trkpt><trkpt lat="46.808930" lon="6.544350"><ele>647.2</ele><time>2026-09-26T08:56:15Z</time></trkpt><trkpt lat="46.808910" lon="6.544330"><ele>646.5</ele><time>2026-09-26T08:56:18Z</time></trkpt><trkpt lat="46.808870" lon="6.544330"><ele>645.8</ele><time>2026-09-26T08:56:22Z</time></trkpt><trkpt lat="46.808750" lon="6.544400"><ele>641.6</ele><time>2026-09-26T08:56:42Z</time></trkpt><trkpt lat="46.808710" lon="6.544410"><ele>640.5</ele><time>2026-09-26T08:56:48Z</time></trkpt><trkpt lat="46.808640" lon="6.544400"><ele>638.7</ele><time>2026-09-26T08:56:57Z</time></trkpt><trkpt lat="46.808540" lon="6.544440"><ele>636.4</ele><time>2026-09-26T08:57:08Z</time></trkpt><trkpt lat="46.808480" lon="6.544480"><ele>635.0</ele><time>2026-09-26T08:57:15Z</time></trkpt><trkpt lat="46.808430" lon="6.544550"><ele>633.6</ele><time>2026-09-26T08:57:23Z</time></trkpt><trkpt lat="46.808400" lon="6.544640"><ele>631.9</ele><time>2026-09-26T08:57:31Z</time></trkpt><trkpt lat="46.808380" lon="6.544770"><ele>629.9</ele><time>2026-09-26T08:57:41Z</time></trkpt><trkpt lat="46.808360" lon="6.544840"><ele>628.8</ele><time>2026-09-26T08:57:47Z</time></trkpt><trkpt lat="46.808310" lon="6.544890"><ele>627.4</ele><time>2026-09-26T08:57:54Z</time></trkpt><trkpt lat="46.808290" lon="6.544960"><ele>626.1</ele><time>2026-09-26T08:58:00Z</time></trkpt><trkpt lat="46.808280" lon="6.545020"><ele>625.4</ele><time>2026-09-26T08:58:04Z</time></trkpt><trkpt lat="46.808280" lon="6.545080"><ele>624.8</ele><time>2026-09-26T08:58:08Z</time></trkpt><trkpt lat="46.808280" lon="6.545120"><ele>624.5</ele><time>2026-09-26T08:58:10Z</time></trkpt><trkpt lat="46.808290" lon="6.545160"><ele>624.1</ele><time>2026-09-26T08:58:13Z</time></trkpt><trkpt lat="46.808290" lon="6.545200"><ele>623.5</ele><time>2026-09-26T08:58:16Z</time></trkpt><trkpt lat="46.808290" lon="6.545240"><ele>622.9</ele><time>2026-09-26T08:58:19Z</time></trkpt><trkpt lat="46.808270" lon="6.545280"><ele>621.8</ele><time>2026-09-26T08:58:24Z</time></trkpt><trkpt lat="46.808250" lon="6.545330"><ele>620.7</ele><time>2026-09-26T08:58:29Z</time></trkpt><trkpt lat="46.808210" lon="6.545490"><ele>616.9</ele><time>2026-09-26T08:58:48Z</time></trkpt><trkpt lat="46.808200" lon="6.545530"><ele>616.0</ele><time>2026-09-26T08:58:52Z</time></trkpt><trkpt lat="46.808170" lon="6.545560"><ele>615.1</ele><time>2026-09-26T08:58:56Z</time></trkpt><trkpt lat="46.808140" lon="6.545590"><ele>614.0</ele><time>2026-09-26T08:59:01Z</time></trkpt><trkpt lat="46.808110" lon="6.545620"><ele>612.9</ele><time>2026-09-26T08:59:07Z</time></trkpt><trkpt lat="46.808080" lon="6.545660"><ele>611.6</ele><time>2026-09-26T08:59:13Z</time></trkpt><trkpt lat="46.808040" lon="6.545730"><ele>610.2</ele><time>2026-09-26T08:59:20Z</time></trkpt><trkpt lat="46.808000" lon="6.545820"><ele>608.8</ele><time>2026-09-26T08:59:28Z</time></trkpt><trkpt lat="46.807960" lon="6.545890"><ele>607.3</ele><time>2026-09-26T08:59:35Z</time></trkpt><trkpt lat="46.807920" lon="6.546010"><ele>604.7</ele><time>2026-09-26T08:59:48Z</time></trkpt><trkpt lat="46.807900" lon="6.546060"><ele>603.9</ele><time>2026-09-26T08:59:52Z</time></trkpt><trkpt lat="46.807890" lon="6.546130"><ele>603.3</ele><time>2026-09-26T08:59:56Z</time></trkpt><trkpt lat="46.807890" lon="6.546160"><ele>603.1</ele><time>2026-09-26T08:59:57Z</time></trkpt><trkpt lat="46.807900" lon="6.546210"><ele>602.9</ele><time>2026-09-26T09:00:00Z</time></trkpt><trkpt lat="46.807780" lon="6.546290"><ele>601.6</ele><time>2026-09-26T09:00:10Z</time></trkpt><trkpt lat="46.807450" lon="6.546580"><ele>599.3</ele><time>2026-09-26T09:00:36Z</time></trkpt></trkseg></trk></gpx>