<?xml version="1.0" encoding="UTF-8"?><gpx version="1.1" creator="cesium-helpers" xmlns="http://www.topografix.com/GPX/1/1"><trk><name>Suchet</name><trkseg><trkpt lat="46.788853" lon="6.524382"/><trkpt lat="46.788945" lon="6.524321"/><trkpt lat="46.789012" lon="6.524436"/><trkpt lat="46.789094" lon="6.524493"/><trkpt lat="46.789186" lon="6.524562"/><trkpt lat="46.789271" lon="6.524623"/><trkpt lat="46.789373" lon="6.524710"/><trkpt lat="46.789402" lon="6.524846"/><trkpt lat="46.789498" lon="6.524899"/><trkpt lat="46.789581" lon="6.524959"/><trkpt lat="46.789682" lon="6.524990"/><trkpt lat="46.789760" lon="6.524882"/><trkpt lat="46.789814" lon="6.524727"/><trkpt lat="46.789858" lon="6.524571"/><trkpt lat="46.789887" lon="6.524436"/><trkpt lat="46.789915" lon="6.524294"/><trkpt lat="46.789971" lon="6.524185"/><trkpt lat="46.790025" lon="6.524058"/><trkpt lat="46.789981" lon="6.523931"/><trkpt lat="46.789915" lon="6.523807"/><trkpt lat="46.789966" lon="6.523646"/><trkpt lat="46.789960" lon="6.523495"/><trkpt lat="46.789959" lon="6.523341"/><trkpt lat="46.790025" lon="6.523210"/><trkpt lat="46.790068" lon="6.523064"/><trkpt lat="46.790117" lon="6.522911"/><trkpt lat="46.790127" lon="6.522769"/><trkpt lat="46.790233" lon="6.522686"/><trkpt lat="46.790256" lon="6.522537"/><trkpt lat="46.790318" lon="6.522396"/><trkpt lat="46.790414" lon="6.522349"/><trkpt lat="46.790516" lon="6.522298"/><trkpt lat="46.790608" lon="6.522232"/><trkpt lat="46.790641" lon="6.522092"/><trkpt lat="46.790714" lon="6.521974"/><trkpt lat="46.790776" lon="6.521873"/><trkpt lat="46.790777" lon="6.521707"/><trkpt lat="46.790872" lon="6.521568"/><trkpt lat="46.790912" lon="6.521432"/><trkpt lat="46.790958" lon="6.521291"/><trkpt lat="46.791026" lon="6.521200"/><trkpt lat="46.791134" lon="6.521083"/><trkpt lat="46.791095" lon="6.520953"/><trkpt lat="46.791050" lon="6.520777"/><trkpt lat="46.791075" lon="6.520617"/><trkpt lat="46.791115" lon="6.520469"/><trkpt lat="46.791137" lon="6.520340"/><trkpt lat="46.791155" lon="6.520190"/><trkpt lat="46.791200" lon="6.520061"/><trkpt lat="46.791184" lon="6.519889"/><trkpt lat="46.791194" lon="6.519744"/><trkpt lat="46.791137" lon="6.519618"/><trkpt lat="46.791151" lon="6.519472"/><trkpt lat="46.791165" lon="6.519315"/><trkpt lat="46.791183" lon="6.519169"/><trkpt lat="46.791209" lon="6.519032"/><trkpt lat="46.791226" lon="6.518879"/><trkpt lat="46.791301" lon="6.518793"/><trkpt lat="46.791373" lon="6.518710"/><trkpt lat="46.791469" lon="6.518639"/><trkpt lat="46.791571" lon="6.518564"/><trkpt lat="46.791688" lon="6.518618"/><trkpt lat="46.791803" lon="6.518667"/><trkpt lat="46.791898" lon="6.518738"/><trkpt lat="46.791982" lon="6.518809"/><trkpt lat="46.792074" lon="6.518844"/><trkpt lat="46.792185" lon="6.518902"/><trkpt lat="46.792296" lon="6.518918"/><trkpt lat="46.792391" lon="6.518978"/><trkpt lat="46.792499" lon="6.518989"/><trkpt lat="46.792604" lon="6.518968"/><trkpt lat="46.792701" lon="6.518901"/><trkpt lat="46.792811" lon="6.518895"/><trkpt lat="46.792914" lon="6.518955"/><trkpt lat="46.793005" lon="6.519002"/><trkpt lat="46.793086" lon="6.519061"/><trkpt lat="46.793139" lon="6.519188"/><trkpt lat="46.793242" lon="6.519259"/><trkpt lat="46.793330" lon="6.519324"/><trkpt lat="46.793404" lon="6.519210"/><trkpt lat="46.793501" lon="6.519181"/><trkpt lat="46.793609" lon="6.519242"/><trkpt lat="46.793713" lon="6.519244"/><trkpt lat="46.793825" lon="6.519264"/><trkpt lat="46.793927" lon="6.519227"/><trkpt lat="46.793975" lon="6.519104"/><trkpt lat="46.794064" lon="6.519076"/><trkpt lat="46.794139" lon="6.519000"/><trkpt lat="46.794199" lon="6.518898"/><trkpt lat="46.794293" lon="6.518884"/><trkpt lat="46.794403" lon="6.518857"/><trkpt lat="46.794436" lon="6.518709"/><trkpt lat="46.794438" lon="6.518553"/><trkpt lat="46.794486" lon="6.518427"/><trkpt lat="46.794618" lon="6.518465"/><trkpt lat="46.794724" lon="6.518531"/><trkpt lat="46.794832" lon="6.518529"/><trkpt lat="46.794802" lon="6.518405"/><trkpt lat="46.794775" lon="6.518235"/><trkpt lat="46.794771" lon="6.518079"/><trkpt lat="46.794800" lon="6.517930"/><trkpt lat="46.794734" lon="6.517840"/><trkpt lat="46.794789" lon="6.517735"/><trkpt lat="46.794752" lon="6.517602"/><trkpt lat="46.794662" lon="6.517575"/><trkpt lat="46.794580" lon="6.517496"/><trkpt lat="46.794607" lon="6.517362"/><trkpt lat="46.794686" lon="6.517284"/><trkpt lat="46.794766" lon="6.517175"/><trkpt lat="46.794803" lon="6.517302"/><trkpt lat="46.794713" lon="6.517345"/><trkpt lat="46.794569" lon="6.517354"/><trkpt lat="46.794455" lon="6.517376"/><trkpt lat="46.794341" lon="6.517397"/><trkpt lat="46.794257" lon="6.517482"/><trkpt lat="46.794142" lon="6.517485"/><trkpt lat="46.794043" lon="6.517507"/><trkpt lat="46.794031" lon="6.517364"/><trkpt lat="46.793929" lon="6.517279"/><trkpt lat="46.793851" lon="6.517156"/><trkpt lat="46.793815" lon="6.516991"/><trkpt lat="46.793714" lon="6.516916"/><trkpt lat="46.793602" lon="6.516843"/><trkpt lat="46.793535" lon="6.516748"/><trkpt lat="46.793479" lon="6.516608"/><trkpt lat="46.793406" lon="6.516515"/><trkpt lat="46.793338" lon="6.516338"/><trkpt lat="46.793253" lon="6.516240"/><trkpt lat="46.793187" lon="6.516143"/><trkpt lat="46.793134" lon="6.516011"/><trkpt lat="46.793063" lon="6.515864"/><trkpt lat="46.793040" lon="6.515734"/><trkpt lat="46.793006" lon="6.515584"/><trkpt lat="46.792991" lon="6.515452"/><trkpt lat="46.792949" lon="6.515307"/><trkpt lat="46.792917" lon="6.515141"/><trkpt lat="46.792905" lon="6.514978"/><trkpt lat="46.792938" lon="6.514838"/><trkpt lat="46.792887" lon="6.514703"/><trkpt lat="46.792803" lon="6.514578"/><trkpt lat="46.792760" lon="6.514428"/><trkpt lat="46.792768" lon="6.514290"/><trkpt lat="46.792770" lon="6.514127"/><trkpt lat="46.792755" lon="6.513986"/><trkpt lat="46.792719" lon="6.513798"/><trkpt lat="46.792672" lon="6.513658"/><trkpt lat="46.792709" lon="6.513104"/><trkpt lat="46.792635" lon="6.513213"/><trkpt lat="46.792528" lon="6.513219"/><trkpt lat="46.792449" lon="6.513119"/><trkpt lat="46.792403" lon="6.512998"/><trkpt lat="46.792274" lon="6.512568"/><trkpt lat="46.792158" lon="6.512561"/><trkpt lat="46.792063" lon="6.512518"/><trkpt lat="46.791994" lon="6.512373"/><trkpt lat="46.791937" lon="6.512228"/><trkpt lat="46.791926" lon="6.512080"/><trkpt lat="46.791894" lon="6.511949"/><trkpt lat="46.791917" lon="6.511785"/><trkpt lat="46.791893" lon="6.511655"/><trkpt lat="46.791861" lon="6.511524"/><trkpt lat="46.791810" lon="6.511402"/><trkpt lat="46.791834" lon="6.511254"/><trkpt lat="46.791792" lon="6.511126"/><trkpt lat="46.791730" lon="6.511013"/><trkpt lat="46.791698" lon="6.510873"/><trkpt lat="46.791648" lon="6.510757"/><trkpt lat="46.791599" lon="6.510639"/><trkpt lat="46.791538" lon="6.510488"/><trkpt lat="46.791469" lon="6.510387"/><trkpt lat="46.791376" lon="6.510307"/><trkpt lat="46.791341" lon="6.510180"/><trkpt lat="46.791290" lon="6.510049"/><trkpt lat="46.791256" lon="6.509923"/><trkpt lat="46.791203" lon="6.509809"/><trkpt lat="46.791150" lon="6.509702"/><trkpt lat="46.791077" lon="6.509585"/><trkpt lat="46.791008" lon="6.509438"/><trkpt lat="46.790893" lon="6.509322"/><trkpt lat="46.790830" lon="6.509204"/><trkpt lat="46.790782" lon="6.509092"/><trkpt lat="46.790727" lon="6.508938"/><trkpt lat="46.790635" lon="6.508850"/><trkpt lat="46.790564" lon="6.508743"/><trkpt lat="46.790543" lon="6.508568"/><trkpt lat="46.790495" lon="6.508447"/><trkpt lat="46.790383" lon="6.508288"/><trkpt lat="46.790479" lon="6.508228"/><trkpt lat="46.790386" lon="6.508151"/><trkpt lat="46.790304" lon="6.508037"/><trkpt lat="46.790209" lon="6.507990"/><trkpt lat="46.790158" lon="6.507869"/><trkpt lat="46.790069" lon="6.507757"/><trkpt lat="46.790006" lon="6.507626"/><trkpt lat="46.789907" lon="6.507523"/><trkpt lat="46.789855" lon="6.507371"/><trkpt lat="46.789806" lon="6.507213"/><trkpt lat="46.789754" lon="6.507090"/><trkpt lat="46.789652" lon="6.507076"/><trkpt lat="46.789569" lon="6.506997"/><trkpt lat="46.789501" lon="6.506900"/><trkpt lat="46.789456" lon="6.506763"/><trkpt lat="46.789391" lon="6.506630"/><trkpt lat="46.789342" lon="6.506463"/><trkpt lat="46.789359" lon="6.506320"/><trkpt lat="46.789314" lon="6.506184"/><trkpt lat="46.789290" lon="6.506017"/><trkpt lat="46.789240" lon="6.505901"/><trkpt lat="46.789217" lon="6.505757"/><trkpt lat="46.789221" lon="6.505603"/><trkpt lat="46.789241" lon="6.505469"/><trkpt lat="46.789191" lon="6.505318"/><trkpt lat="46.789164" lon="6.505173"/><trkpt lat="46.789151" lon="6.505004"/><trkpt lat="46.789126" lon="6.504744"/><trkpt lat="46.789015" lon="6.504738"/><trkpt lat="46.788982" lon="6.504610"/><trkpt lat="46.788968" lon="6.504453"/><trkpt lat="46.788930" lon="6.504324"/><trkpt lat="46.788841" lon="6.504227"/><trkpt lat="46.788862" lon="6.504079"/><trkpt lat="46.788869" lon="6.503935"/><trkpt lat="46.788926" lon="6.503792"/><trkpt lat="46.788914" lon="6.503592"/><trkpt lat="46.788936" lon="6.503440"/><trkpt lat="46.788954" lon="6.503303"/><trkpt lat="46.788954" lon="6.503139"/><trkpt lat="46.788953" lon="6.502963"/><trkpt lat="46.788948" lon="6.502826"/><trkpt lat="46.788963" lon="6.502681"/><trkpt lat="46.788983" lon="6.502543"/><trkpt lat="46.788950" lon="6.502417"/><trkpt lat="46.788913" lon="6.502297"/><trkpt lat="46.788887" lon="6.502117"/><trkpt lat="46.788881" lon="6.501948"/><trkpt lat="46.788846" lon="6.501784"/><trkpt lat="46.788793" lon="6.501638"/><trkpt lat="46.788720" lon="6.501547"/><trkpt lat="46.788698" lon="6.501408"/><trkpt lat="46.788674" lon="6.501253"/><trkpt lat="46.788657" lon="6.501083"/><trkpt lat="46.788592" lon="6.500974"/><trkpt lat="46.788581" lon="6.500794"/><trkpt lat="46.788561" lon="6.500662"/><trkpt lat="46.788557" lon="6.500487"/><trkpt lat="46.788486" lon="6.500354"/><trkpt lat="46.788414" lon="6.500232"/><trkpt lat="46.788382" lon="6.500065"/><trkpt lat="46.788381" lon="6.499922"/><trkpt lat="46.788348" lon="6.499765"/><trkpt lat="46.788292" lon="6.499620"/><trkpt lat="46.788232" lon="6.499498"/><trkpt lat="46.788225" lon="6.499328"/><trkpt lat="46.788236" lon="6.499172"/><trkpt lat="46.788202" lon="6.499047"/><trkpt lat="46.788101" lon="6.498965"/><trkpt lat="46.788054" lon="6.498820"/><trkpt lat="46.787952" lon="6.498745"/><trkpt lat="46.787908" lon="6.498626"/><trkpt lat="46.787893" lon="6.498476"/><trkpt lat="46.787845" lon="6.498328"/><trkpt lat="46.787731" lon="6.498235"/><trkpt lat="46.787629" lon="6.498174"/><trkpt lat="46.787530" lon="6.498126"/><trkpt lat="46.787412" lon="6.498050"/><trkpt lat="46.787310" lon="6.497976"/><trkpt lat="46.787227" lon="6.497920"/><trkpt lat="46.787119" lon="6.497875"/><trkpt lat="46.787028" lon="6.497845"/><trkpt lat="46.786944" lon="6.497742"/><trkpt lat="46.786875" lon="6.497605"/><trkpt lat="46.786774" lon="6.497562"/><trkpt lat="46.786676" lon="6.497517"/><trkpt lat="46.786576" lon="6.497536"/><trkpt lat="46.786475" lon="6.497488"/><trkpt lat="46.786376" lon="6.497476"/><trkpt lat="46.786274" lon="6.497488"/><trkpt lat="46.786247" lon="6.497351"/><trkpt lat="46.786153" lon="6.497316"/><trkpt lat="46.786037" lon="6.497308"/><trkpt lat="46.786010" lon="6.497170"/><trkpt lat="46.785913" lon="6.497103"/><trkpt lat="46.785833" lon="6.497015"/><trkpt lat="46.785728" lon="6.496967"/><trkpt lat="46.785608" lon="6.496967"/><trkpt lat="46.785498" lon="6.496920"/><trkpt lat="46.785399" lon="6.496899"/><trkpt lat="46.785303" lon="6.496832"/><trkpt lat="46.785201" lon="6.496775"/><trkpt lat="46.785107" lon="6.496744"/><trkpt lat="46.785011" lon="6.496653"/><trkpt lat="46.784934" lon="6.496575"/><trkpt lat="46.784823" lon="6.496609"/><trkpt lat="46.784716" lon="6.496536"/><trkpt lat="46.784638" lon="6.496389"/><trkpt lat="46.784536" lon="6.496341"/><trkpt lat="46.784472" lon="6.496239"/><trkpt lat="46.784418" lon="6.496106"/><trkpt lat="46.784303" lon="6.496013"/><trkpt lat="46.784268" lon="6.495870"/><trkpt lat="46.784181" lon="6.495802"/><trkpt lat="46.784097" lon="6.495724"/><trkpt lat="46.784047" lon="6.495598"/><trkpt lat="46.783995" lon="6.495448"/><trkpt lat="46.783922" lon="6.495337"/><trkpt lat="46.783843" lon="6.495230"/><trkpt lat="46.783797" lon="6.495088"/><trkpt lat="46.783743" lon="6.494942"/><trkpt lat="46.783673" lon="6.494787"/><trkpt lat="46.783609" lon="6.494644"/><trkpt lat="46.783546" lon="6.494530"/><trkpt lat="46.783476" lon="6.494398"/><trkpt lat="46.783410" lon="6.494265"/><trkpt lat="46.783327" lon="6.494180"/><trkpt lat="46.783225" lon="6.494141"/><trkpt lat="46.783134" lon="6.494016"/><trkpt lat="46.783060" lon="6.493876"/><trkpt lat="46.782983" lon="6.493794"/><trkpt lat="46.782906" lon="6.493677"/><trkpt lat="46.782835" lon="6.493554"/><trkpt lat="46.782741" lon="6.493496"/><trkpt lat="46.782665" lon="6.493394"/><trkpt lat="46.782580" lon="6.493309"/><trkpt lat="46.782489" lon="6.493204"/><trkpt lat="46.782396" lon="6.493145"/><trkpt lat="46.782355" lon="6.493007"/><trkpt lat="46.782301" lon="6.492857"/><trkpt lat="46.782248" lon="6.492719"/><trkpt lat="46.782156" lon="6.492642"/><trkpt lat="46.782088" lon="6.492540"/><trkpt lat="46.782005" lon="6.492451"/><trkpt lat="46.781906" lon="6.492403"/><trkpt lat="46.781810" lon="6.492319"/><trkpt lat="46.781757" lon="6.492201"/><trkpt lat="46.781691" lon="6.492094"/><trkpt lat="46.781613" lon="6.491999"/><trkpt lat="46.781533" lon="6.491913"/><trkpt lat="46.781479" lon="6.491780"/><trkpt lat="46.781406" lon="6.491687"/><trkpt lat="46.781323" lon="6.491605"/><trkpt lat="46.781245" lon="6.491514"/><trkpt lat="46.781132" lon="6.491447"/><trkpt lat="46.781025" lon="6.491386"/><trkpt lat="46.780943" lon="6.491306"/><trkpt lat="46.780862" lon="6.491208"/><trkpt lat="46.780769" lon="6.491119"/><trkpt lat="46.780681" lon="6.491013"/><trkpt lat="46.780595" lon="6.490960"/><trkpt lat="46.780513" lon="6.490864"/><trkpt lat="46.780484" lon="6.490714"/><trkpt lat="46.780390" lon="6.490605"/><trkpt lat="46.780300" lon="6.490502"/><trkpt lat="46.780198" lon="6.490468"/><trkpt lat="46.780113" lon="6.490372"/><trkpt lat="46.780036" lon="6.490260"/><trkpt lat="46.779960" lon="6.490119"/><trkpt lat="46.779889" lon="6.490028"/><trkpt lat="46.779834" lon="6.489900"/><trkpt lat="46.779773" lon="6.489798"/><trkpt lat="46.779690" lon="6.489672"/><trkpt lat="46.779617" lon="6.489546"/><trkpt lat="46.779573" lon="6.489431"/><trkpt lat="46.779565" lon="6.489272"/><trkpt lat="46.779581" lon="6.489103"/><trkpt lat="46.779655" lon="6.489019"/><trkpt lat="46.779781" lon="6.489007"/><trkpt lat="46.779876" lon="6.488937"/><trkpt lat="46.779881" lon="6.488793"/><trkpt lat="46.779917" lon="6.488649"/><trkpt lat="46.779959" lon="6.488520"/><trkpt lat="46.779973" lon="6.488375"/><trkpt lat="46.780037" lon="6.488245"/><trkpt lat="46.780092" lon="6.488106"/><trkpt lat="46.780180" lon="6.488043"/><trkpt lat="46.780281" lon="6.488015"/><trkpt lat="46.780344" lon="6.487916"/><trkpt lat="46.780339" lon="6.487771"/><trkpt lat="46.780410" lon="6.487668"/><trkpt lat="46.780426" lon="6.487535"/><trkpt lat="46.780417" lon="6.487378"/><trkpt lat="46.780506" lon="6.487303"/><trkpt lat="46.780528" lon="6.487150"/><trkpt lat="46.780627" lon="6.487099"/><trkpt lat="46.780714" lon="6.487150"/><trkpt lat="46.780813" lon="6.487196"/><trkpt lat="46.780928" lon="6.487348"/><trkpt lat="46.780969" lon="6.487467"/><trkpt lat="46.781022" lon="6.487580"/><trkpt lat="46.781101" lon="6.487659"/><trkpt lat="46.781194" lon="6.487678"/><trkpt lat="46.781315" lon="6.487704"/><trkpt lat="46.781407" lon="6.487710"/><trkpt lat="46.781465" lon="6.487838"/><trkpt lat="46.781550" lon="6.487891"/><trkpt lat="46.781653" lon="6.487965"/><trkpt lat="46.781729" lon="6.488066"/><trkpt lat="46.781786" lon="6.488190"/><trkpt lat="46.781866" lon="6.488277"/><trkpt lat="46.781950" lon="6.488339"/><trkpt lat="46.782043" lon="6.488448"/><trkpt lat="46.782135" lon="6.488508"/><trkpt lat="46.782167" lon="6.488652"/><trkpt lat="46.782247" lon="6.488738"/><trkpt lat="46.782325" lon="6.488840"/><trkpt lat="46.782362" lon="6.488970"/><trkpt lat="46.782430" lon="6.489057"/><trkpt lat="46.782521" lon="6.489066"/><trkpt lat="46.782621" lon="6.489106"/><trkpt lat="46.782728" lon="6.489136"/><trkpt lat="46.782854" lon="6.489131"/><trkpt lat="46.782952" lon="6.489199"/><trkpt lat="46.783033" lon="6.489339"/><trkpt lat="46.783144" lon="6.489425"/><trkpt lat="46.783250" lon="6.489482"/><trkpt lat="46.783280" lon="6.489607"/><trkpt lat="46.783334" lon="6.489772"/><trkpt lat="46.783422" lon="6.489856"/><trkpt lat="46.783533" lon="6.489921"/><trkpt lat="46.783614" lon="6.489984"/><trkpt lat="46.783648" lon="6.490110"/><trkpt lat="46.783709" lon="6.490213"/><trkpt lat="46.783622" lon="6.490107"/><trkpt lat="46.783536" lon="6.489980"/><trkpt lat="46.783469" lon="6.489843"/><trkpt lat="46.783470" lon="6.489709"/><trkpt lat="46.783408" lon="6.489588"/><trkpt lat="46.783337" lon="6.489479"/><trkpt lat="46.783263" lon="6.489401"/><trkpt lat="46.783239" lon="6.489230"/><trkpt lat="46.783202" lon="6.489075"/><trkpt lat="46.783168" lon="6.488926"/><trkpt lat="46.783081" lon="6.488817"/><trkpt lat="46.783018" lon="6.488714"/><trkpt lat="46.782956" lon="6.488604"/><trkpt lat="46.782891" lon="6.488435"/><trkpt lat="46.782827" lon="6.488298"/><trkpt lat="46.782774" lon="6.488189"/><trkpt lat="46.782663" lon="6.488133"/><trkpt lat="46.782556" lon="6.488103"/><trkpt lat="46.782550" lon="6.487969"/><trkpt lat="46.782513" lon="6.487804"/><trkpt lat="46.782465" lon="6.487663"/><trkpt lat="46.782407" lon="6.487539"/><trkpt lat="46.782314" lon="6.487401"/><trkpt lat="46.782244" lon="6.487257"/><trkpt lat="46.782168" lon="6.487132"/><trkpt lat="46.782234" lon="6.487003"/><trkpt lat="46.782168" lon="6.486886"/><trkpt lat="46.782078" lon="6.486806"/><trkpt lat="46.782066" lon="6.486666"/><trkpt lat="46.782013" lon="6.486538"/><trkpt lat="46.781926" lon="6.486499"/><trkpt lat="46.781854" lon="6.486405"/><trkpt lat="46.781797" lon="6.486262"/><trkpt lat="46.781770" lon="6.486119"/><trkpt lat="46.781759" lon="6.485977"/><trkpt lat="46.781764" lon="6.485817"/><trkpt lat="46.781662" lon="6.485670"/><trkpt lat="46.781614" lon="6.485520"/><trkpt lat="46.781566" lon="6.485370"/><trkpt lat="46.781517" lon="6.485220"/><trkpt lat="46.781469" lon="6.485070"/><trkpt lat="46.781408" lon="6.484949"/><trkpt lat="46.781374" lon="6.484809"/><trkpt lat="46.781320" lon="6.484679"/><trkpt lat="46.781298" lon="6.484527"/><trkpt lat="46.781260" lon="6.484648"/><trkpt lat="46.781232" lon="6.484517"/><trkpt lat="46.781148" lon="6.484426"/><trkpt lat="46.781091" lon="6.484303"/><trkpt lat="46.781061" lon="6.484146"/><trkpt lat="46.781021" lon="6.483978"/><trkpt lat="46.780969" lon="6.483866"/><trkpt lat="46.780892" lon="6.483784"/><trkpt lat="46.780808" lon="6.483667"/><trkpt lat="46.780747" lon="6.483536"/><trkpt lat="46.780711" lon="6.483400"/><trkpt lat="46.780619" lon="6.483351"/><trkpt lat="46.780572" lon="6.483226"/><trkpt lat="46.780469" lon="6.483215"/><trkpt lat="46.780399" lon="6.483108"/><trkpt lat="46.780336" lon="6.482990"/><trkpt lat="46.780287" lon="6.482833"/><trkpt lat="46.780291" lon="6.482689"/><trkpt lat="46.780235" lon="6.482567"/><trkpt lat="46.780176" lon="6.482463"/><trkpt lat="46.780106" lon="6.482338"/><trkpt lat="46.780070" lon="6.482214"/><trkpt lat="46.780036" lon="6.482084"/><trkpt lat="46.779955" lon="6.481989"/><trkpt lat="46.779874" lon="6.481906"/><trkpt lat="46.779827" lon="6.481794"/><trkpt lat="46.779809" lon="6.481623"/><trkpt lat="46.779734" lon="6.481493"/><trkpt lat="46.779665" lon="6.481343"/><trkpt lat="46.779585" lon="6.481229"/><trkpt lat="46.779551" lon="6.481078"/><trkpt lat="46.779457" lon="6.480973"/><trkpt lat="46.779392" lon="6.480866"/><trkpt lat="46.779337" lon="6.480744"/><trkpt lat="46.779340" lon="6.480604"/><trkpt lat="46.779328" lon="6.480467"/><trkpt lat="46.779265" lon="6.480329"/><trkpt lat="46.779167" lon="6.480253"/><trkpt lat="46.779089" lon="6.480184"/><trkpt lat="46.779085" lon="6.480026"/><trkpt lat="46.778992" lon="6.479943"/><trkpt lat="46.778925" lon="6.479855"/><trkpt lat="46.778906" lon="6.479690"/><trkpt lat="46.778808" lon="6.479699"/><trkpt lat="46.778722" lon="6.479607"/><trkpt lat="46.778635" lon="6.479491"/><trkpt lat="46.778550" lon="6.479381"/><trkpt lat="46.778489" lon="6.479275"/><trkpt lat="46.778440" lon="6.479142"/><trkpt lat="46.778417" lon="6.479012"/><trkpt lat="46.778345" lon="6.478898"/><trkpt lat="46.778290" lon="6.478791"/><trkpt lat="46.778232" lon="6.478646"/><trkpt lat="46.778173" lon="6.478542"/><trkpt lat="46.778110" lon="6.478436"/><trkpt lat="46.778064" lon="6.478279"/><trkpt lat="46.778041" lon="6.478149"/><trkpt lat="46.777979" lon="6.478040"/><trkpt lat="46.777923" lon="6.477932"/><trkpt lat="46.777869" lon="6.477803"/><trkpt lat="46.777794" lon="6.477705"/><trkpt lat="46.777705" lon="6.477656"/><trkpt lat="46.777656" lon="6.477530"/><trkpt lat="46.777615" lon="6.477396"/><trkpt lat="46.777533" lon="6.477309"/><trkpt lat="46.777502" lon="6.477178"/><trkpt lat="46.777456" lon="6.477033"/><trkpt lat="46.777385" lon="6.476927"/><trkpt lat="46.777380" lon="6.476775"/><trkpt lat="46.777306" lon="6.476652"/><trkpt lat="46.777211" lon="6.476583"/><trkpt lat="46.777163" lon="6.476436"/><trkpt lat="46.777125" lon="6.476279"/><trkpt lat="46.777053" lon="6.476181"/><trkpt lat="46.777040" lon="6.476032"/><trkpt lat="46.776988" lon="6.475899"/><trkpt lat="46.776897" lon="6.475831"/><trkpt lat="46.776898" lon="6.475687"/><trkpt lat="46.776828" lon="6.475567"/><trkpt lat="46.776815" lon="6.475407"/><trkpt lat="46.776725" lon="6.475308"/><trkpt lat="46.776645" lon="6.475194"/><trkpt lat="46.776623" lon="6.475065"/><trkpt lat="46.776571" lon="6.474942"/><trkpt lat="46.776550" lon="6.474791"/><trkpt lat="46.776502" lon="6.474664"/><trkpt lat="46.776479" lon="6.474528"/><trkpt lat="46.776395" lon="6.474393"/><trkpt lat="46.776335" lon="6.474284"/><trkpt lat="46.776319" lon="6.474134"/><trkpt lat="46.776281" lon="6.474013"/><trkpt lat="46.776252" lon="6.473848"/><trkpt lat="46.776152" lon="6.473787"/><trkpt lat="46.776105" lon="6.473675"/><trkpt lat="46.776014" lon="6.473573"/><trkpt lat="46.775974" lon="6.473423"/><trkpt lat="46.775926" lon="6.473285"/><trkpt lat="46.775875" lon="6.473154"/><trkpt lat="46.775825" lon="6.473008"/><trkpt lat="46.775789" lon="6.472844"/><trkpt lat="46.775743" lon="6.472703"/><trkpt lat="46.775661" lon="6.472575"/><trkpt lat="46.775574" lon="6.472430"/><trkpt lat="46.775529" lon="6.472305"/><trkpt lat="46.775466" lon="6.472205"/><trkpt lat="46.775430" lon="6.472043"/><trkpt lat="46.775376" lon="6.471916"/><trkpt lat="46.775298" lon="6.471782"/><trkpt lat="46.775281" lon="6.471647"/><trkpt lat="46.775223" lon="6.471532"/><trkpt lat="46.775170" lon="6.471392"/><trkpt lat="46.775137" lon="6.471231"/><trkpt lat="46.775078" lon="6.471089"/><trkpt lat="46.775003" lon="6.470958"/><trkpt lat="46.774965" lon="6.470827"/><trkpt lat="46.774919" lon="6.470706"/><trkpt lat="46.774879" lon="6.470584"/><trkpt lat="46.774835" lon="6.470421"/><trkpt lat="46.774751" lon="6.470318"/><trkpt lat="46.774678" lon="6.470234"/><trkpt lat="46.774565" lon="6.470137"/><trkpt lat="46.774471" lon="6.470073"/><trkpt lat="46.774373" lon="6.470057"/><trkpt lat="46.774286" lon="6.469990"/><trkpt lat="46.774196" lon="6.469906"/><trkpt lat="46.774098" lon="6.469842"/><trkpt lat="46.774014" lon="6.469782"/><trkpt lat="46.773922" lon="6.469677"/><trkpt lat="46.773885" lon="6.469545"/><trkpt lat="46.773801" lon="6.469457"/><trkpt lat="46.773742" lon="6.469298"/><trkpt lat="46.773702" lon="6.469167"/><trkpt lat="46.773649" lon="6.469035"/><trkpt lat="46.773579" lon="6.468945"/><trkpt lat="46.773527" lon="6.468832"/><trkpt lat="46.773455" lon="6.468728"/><trkpt lat="46.773395" lon="6.468597"/><trkpt lat="46.773337" lon="6.468495"/><trkpt lat="46.773299" lon="6.468371"/><trkpt lat="46.773268" lon="6.468241"/><trkpt lat="46.773236" lon="6.468087"/><trkpt lat="46.773187" lon="6.467956"/><trkpt lat="46.773158" lon="6.467805"/><trkpt lat="46.773111" lon="6.467666"/><trkpt lat="46.773080" lon="6.467536"/><trkpt lat="46.773040" lon="6.467406"/><trkpt lat="46.773002" lon="6.467228"/><trkpt lat="46.772956" lon="6.467109"/><trkpt lat="46.772914" lon="6.466975"/><trkpt lat="46.772837" lon="6.466877"/><trkpt lat="46.772763" lon="6.466781"/><trkpt lat="46.772713" lon="6.466663"/><trkpt lat="46.772633" lon="6.466573"/><trkpt lat="46.772579" lon="6.466452"/><trkpt lat="46.772503" lon="6.466379"/><trkpt lat="46.772421" lon="6.466286"/><trkpt lat="46.772344" lon="6.466150"/><trkpt lat="46.772311" lon="6.466300"/><trkpt lat="46.772415" lon="6.466238"/><trkpt lat="46.772301" lon="6.466258"/><trkpt lat="46.772202" lon="6.466211"/><trkpt lat="46.772134" lon="6.466122"/><trkpt lat="46.772047" lon="6.466008"/><trkpt lat="46.772008" lon="6.465882"/><trkpt lat="46.771969" lon="6.465727"/><trkpt lat="46.771958" lon="6.465585"/><trkpt lat="46.771907" lon="6.465469"/><trkpt lat="46.771807" lon="6.465413"/><trkpt lat="46.771698" lon="6.465378"/><trkpt lat="46.771604" lon="6.465400"/><trkpt lat="46.771512" lon="6.465405"/><trkpt lat="46.771401" lon="6.465407"/><trkpt lat="46.771305" lon="6.465393"/><trkpt lat="46.771191" lon="6.465410"/><trkpt lat="46.771082" lon="6.465448"/><trkpt lat="46.770977" lon="6.465465"/><trkpt lat="46.770877" lon="6.465496"/><trkpt lat="46.770763" lon="6.465523"/><trkpt lat="46.770663" lon="6.465554"/><trkpt lat="46.770589" lon="6.465708"/><trkpt lat="46.770490" lon="6.465804"/><trkpt lat="46.770378" lon="6.465768"/><trkpt lat="46.770277" lon="6.465744"/><trkpt lat="46.770187" lon="6.465691"/><trkpt lat="46.770086" lon="6.465659"/><trkpt lat="46.769983" lon="6.465613"/><trkpt lat="46.769888" lon="6.465626"/><trkpt lat="46.769796" lon="6.465604"/><trkpt lat="46.769687" lon="6.465555"/><trkpt lat="46.769581" lon="6.465520"/><trkpt lat="46.769475" lon="6.465478"/><trkpt lat="46.769385" lon="6.465421"/><trkpt lat="46.769288" lon="6.465357"/><trkpt lat="46.769204" lon="6.465298"/><trkpt lat="46.769083" lon="6.465313"/><trkpt lat="46.769044" lon="6.465442"/><trkpt lat="46.769116" lon="6.465556"/><trkpt lat="46.769182" lon="6.465706"/><trkpt lat="46.769228" lon="6.465856"/><trkpt lat="46.769188" lon="6.465990"/><trkpt lat="46.769111" lon="6.466116"/><trkpt lat="46.769038" lon="6.466202"/><trkpt lat="46.768988" lon="6.466316"/><trkpt lat="46.768974" lon="6.466451"/><trkpt lat="46.768988" lon="6.466595"/><trkpt lat="46.768962" lon="6.466727"/><trkpt lat="46.768887" lon="6.466835"/><trkpt lat="46.768850" lon="6.467024"/><trkpt lat="46.768827" lon="6.467158"/><trkpt lat="46.768807" lon="6.467299"/><trkpt lat="46.768818" lon="6.467434"/><trkpt lat="46.768824" lon="6.467579"/><trkpt lat="46.768838" lon="6.467751"/><trkpt lat="46.768898" lon="6.467891"/><trkpt lat="46.768902" lon="6.468054"/><trkpt lat="46.768888" lon="6.468203"/><trkpt lat="46.768929" lon="6.468370"/><trkpt lat="46.768961" lon="6.468515"/><trkpt lat="46.768975" lon="6.468659"/><trkpt lat="46.769008" lon="6.468794"/><trkpt lat="46.769046" lon="6.468917"/><trkpt lat="46.769094" lon="6.469069"/><trkpt lat="46.769131" lon="6.469217"/><trkpt lat="46.769035" lon="6.469284"/><trkpt lat="46.768994" lon="6.469417"/><trkpt lat="46.768936" lon="6.469525"/><trkpt lat="46.768872" lon="6.469641"/><trkpt lat="46.768851" lon="6.469814"/><trkpt lat="46.768864" lon="6.469958"/><trkpt lat="46.768808" lon="6.470066"/><trkpt lat="46.768757" lon="6.470177"/><trkpt lat="46.768711" lon="6.470298"/><trkpt lat="46.768643" lon="6.470427"/><trkpt lat="46.768653" lon="6.470587"/><trkpt lat="46.768684" lon="6.470768"/><trkpt lat="46.768725" lon="6.470917"/><trkpt lat="46.768747" lon="6.471058"/><trkpt lat="46.768757" lon="6.471232"/><trkpt lat="46.768793" lon="6.471382"/><trkpt lat="46.768805" lon="6.471535"/><trkpt lat="46.768898" lon="6.471609"/><trkpt lat="46.768975" lon="6.471701"/><trkpt lat="46.769054" lon="6.471811"/><trkpt lat="46.769119" lon="6.471978"/><trkpt lat="46.769179" lon="6.472109"/><trkpt lat="46.769241" lon="6.472216"/><trkpt lat="46.769301" lon="6.472339"/><trkpt lat="46.769384" lon="6.472455"/><trkpt lat="46.769461" lon="6.472572"/><trkpt lat="46.769538" lon="6.472680"/><trkpt lat="46.769579" lon="6.472804"/><trkpt lat="46.769650" lon="6.472934"/><trkpt lat="46.769718" lon="6.473030"/><trkpt lat="46.769804" lon="6.473078"/><trkpt lat="46.769880" lon="6.473171"/><trkpt lat="46.769957" lon="6.473301"/><trkpt lat="46.770038" lon="6.473376"/><trkpt lat="46.770113" lon="6.473463"/><trkpt lat="46.770116" lon="6.473603"/><trkpt lat="46.770212" lon="6.473675"/><trkpt lat="46.770309" lon="6.473749"/><trkpt lat="46.770369" lon="6.473871"/><trkpt lat="46.770460" lon="6.473913"/><trkpt lat="46.770446" lon="6.474060"/><trkpt lat="46.770516" lon="6.474183"/><trkpt lat="46.770592" lon="6.474263"/><trkpt lat="46.770647" lon="6.474369"/><trkpt lat="46.770728" lon="6.474464"/><trkpt lat="46.770790" lon="6.474578"/><trkpt lat="46.770834" lon="6.474714"/><trkpt lat="46.770869" lon="6.474850"/><trkpt lat="46.770938" lon="6.474963"/><trkpt lat="46.770967" lon="6.475110"/><trkpt lat="46.771039" lon="6.475210"/><trkpt lat="46.771112" lon="6.475298"/><trkpt lat="46.771190" lon="6.475430"/><trkpt lat="46.771246" lon="6.475564"/><trkpt lat="46.771338" lon="6.475668"/><trkpt lat="46.771398" lon="6.475789"/><trkpt lat="46.771477" lon="6.475904"/><trkpt lat="46.771417" lon="6.476038"/><trkpt lat="46.771487" lon="6.476158"/><trkpt lat="46.771550" lon="6.476254"/><trkpt lat="46.771595" lon="6.476395"/><trkpt lat="46.771630" lon="6.476545"/><trkpt lat="46.771618" lon="6.476691"/><trkpt lat="46.771662" lon="6.476830"/><trkpt lat="46.771768" lon="6.476954"/><trkpt lat="46.771873" lon="6.476943"/><trkpt lat="46.771953" lon="6.477039"/><trkpt lat="46.772032" lon="6.477120"/><trkpt lat="46.772112" lon="6.477252"/><trkpt lat="46.772060" lon="6.477376"/><trkpt lat="46.771970" lon="6.477483"/><trkpt lat="46.771885" lon="6.477570"/><trkpt lat="46.771770" lon="6.477600"/><trkpt lat="46.771675" lon="6.477564"/><trkpt lat="46.771570" lon="6.477524"/><trkpt lat="46.771481" lon="6.477478"/><trkpt lat="46.771384" lon="6.477461"/><trkpt lat="46.771276" lon="6.477416"/><trkpt lat="46.771181" lon="6.477397"/><trkpt lat="46.771058" lon="6.477309"/><trkpt lat="46.770976" lon="6.477201"/><trkpt lat="46.770895" lon="6.477113"/><trkpt lat="46.770828" lon="6.476999"/><trkpt lat="46.770731" lon="6.476938"/><trkpt lat="46.770660" lon="6.476840"/><trkpt lat="46.770572" lon="6.476756"/><trkpt lat="46.770482" lon="6.476638"/><trkpt lat="46.770381" lon="6.476602"/><trkpt lat="46.770288" lon="6.476557"/><trkpt lat="46.770212" lon="6.476447"/><trkpt lat="46.770106" lon="6.476447"/><trkpt lat="46.770014" lon="6.476341"/><trkpt lat="46.769933" lon="6.476212"/><trkpt lat="46.769864" lon="6.476105"/><trkpt lat="46.769806" lon="6.475971"/><trkpt lat="46.769726" lon="6.475871"/><trkpt lat="46.769685" lon="6.475753"/><trkpt lat="46.769613" lon="6.475627"/><trkpt lat="46.769495" lon="6.475631"/><trkpt lat="46.769390" lon="6.475560"/><trkpt lat="46.769279" lon="6.475504"/><trkpt lat="46.769163" lon="6.475423"/><trkpt lat="46.769060" lon="6.475474"/><trkpt lat="46.768977" lon="6.475383"/><trkpt lat="46.768888" lon="6.475346"/><trkpt lat="46.768799" lon="6.475219"/><trkpt lat="46.768752" lon="6.475077"/><trkpt lat="46.768686" lon="6.474968"/><trkpt lat="46.768652" lon="6.474834"/><trkpt lat="46.768574" lon="6.474741"/><trkpt lat="46.768496" lon="6.474627"/><trkpt lat="46.768416" lon="6.474544"/><trkpt lat="46.768348" lon="6.474432"/><trkpt lat="46.768290" lon="6.474330"/><trkpt lat="46.768196" lon="6.474314"/><trkpt lat="46.768112" lon="6.474431"/><trkpt lat="46.768024" lon="6.474343"/><trkpt lat="46.767913" lon="6.474270"/><trkpt lat="46.767836" lon="6.474157"/><trkpt lat="46.767751" lon="6.474087"/><trkpt lat="46.767665" lon="6.473964"/><trkpt lat="46.767646" lon="6.473804"/><trkpt lat="46.767571" lon="6.473718"/><trkpt lat="46.767472" lon="6.473653"/><trkpt lat="46.767356" lon="6.473612"/><trkpt lat="46.767272" lon="6.473508"/><trkpt lat="46.767185" lon="6.473365"/><trkpt lat="46.767123" lon="6.473244"/><trkpt lat="46.767066" lon="6.473136"/><trkpt lat="46.766971" lon="6.473128"/><trkpt lat="46.766897" lon="6.473040"/><trkpt lat="46.766819" lon="6.472928"/><trkpt lat="46.766697" lon="6.472916"/><trkpt lat="46.766607" lon="6.472848"/><trkpt lat="46.766558" lon="6.472732"/><trkpt lat="46.766514" lon="6.472614"/><trkpt lat="46.766421" lon="6.472528"/><trkpt lat="46.766309" lon="6.472527"/><trkpt lat="46.766230" lon="6.472444"/><trkpt lat="46.766147" lon="6.472317"/><trkpt lat="46.766076" lon="6.472177"/><trkpt lat="46.765986" lon="6.472127"/><trkpt lat="46.765900" lon="6.472051"/><trkpt lat="46.765821" lon="6.471985"/><trkpt lat="46.765795" lon="6.471841"/><trkpt lat="46.765745" lon="6.471679"/><trkpt lat="46.765681" lon="6.471565"/><trkpt lat="46.765622" lon="6.471442"/><trkpt lat="46.765526" lon="6.471357"/><trkpt lat="46.765435" lon="6.471303"/><trkpt lat="46.765400" lon="6.471441"/><trkpt lat="46.765456" lon="6.471560"/><trkpt lat="46.765493" lon="6.471702"/><trkpt lat="46.765500" lon="6.471861"/><trkpt lat="46.765583" lon="6.471949"/><trkpt lat="46.765573" lon="6.472112"/><trkpt lat="46.765588" lon="6.472278"/><trkpt lat="46.765614" lon="6.472432"/><trkpt lat="46.765634" lon="6.472582"/><trkpt lat="46.765655" lon="6.472737"/><trkpt lat="46.765610" lon="6.472860"/><trkpt lat="46.765628" lon="6.473001"/><trkpt lat="46.765649" lon="6.473135"/><trkpt lat="46.765715" lon="6.473292"/><trkpt lat="46.765765" lon="6.473412"/><trkpt lat="46.765837" lon="6.473502"/><trkpt lat="46.765873" lon="6.473651"/><trkpt lat="46.765909" lon="6.473781"/><trkpt lat="46.765906" lon="6.473946"/><trkpt lat="46.765912" lon="6.474100"/><trkpt lat="46.765902" lon="6.474242"/><trkpt lat="46.765879" lon="6.474387"/><trkpt lat="46.765834" lon="6.474543"/><trkpt lat="46.765792" lon="6.474667"/><trkpt lat="46.765756" lon="6.474800"/><trkpt lat="46.765720" lon="6.474932"/><trkpt lat="46.765734" lon="6.475067"/><trkpt lat="46.765726" lon="6.475209"/><trkpt lat="46.765765" lon="6.475355"/><trkpt lat="46.765801" lon="6.475494"/><trkpt lat="46.765835" lon="6.475622"/><trkpt lat="46.765897" lon="6.475751"/><trkpt lat="46.765891" lon="6.475883"/><trkpt lat="46.765893" lon="6.476024"/><trkpt lat="46.765999" lon="6.476124"/><trkpt lat="46.766059" lon="6.476251"/><trkpt lat="46.766112" lon="6.476370"/><trkpt lat="46.766135" lon="6.476543"/><trkpt lat="46.766162" lon="6.476704"/><trkpt lat="46.766237" lon="6.476818"/><trkpt lat="46.766275" lon="6.476943"/><trkpt lat="46.766267" lon="6.477111"/><trkpt lat="46.766201" lon="6.477247"/><trkpt lat="46.766125" lon="6.477337"/><trkpt lat="46.766055" lon="6.477431"/><trkpt lat="46.766005" lon="6.477571"/><trkpt lat="46.765946" lon="6.477695"/><trkpt lat="46.765898" lon="6.477830"/><trkpt lat="46.765924" lon="6.477964"/><trkpt lat="46.765975" lon="6.478092"/><trkpt lat="46.766007" lon="6.478228"/><trkpt lat="46.765960" lon="6.478355"/><trkpt lat="46.765924" lon="6.478496"/><trkpt lat="46.765856" lon="6.478606"/><trkpt lat="46.765772" lon="6.478748"/><trkpt lat="46.765667" lon="6.478808"/><trkpt lat="46.765613" lon="6.478960"/><trkpt lat="46.765580" lon="6.479095"/><trkpt lat="46.765546" lon="6.479250"/><trkpt lat="46.765478" lon="6.479363"/><trkpt lat="46.765405" lon="6.479463"/><trkpt lat="46.765333" lon="6.479566"/><trkpt lat="46.765260" lon="6.479665"/><trkpt lat="46.765237" lon="6.479795"/><trkpt lat="46.765277" lon="6.479943"/><trkpt lat="46.765257" lon="6.480073"/><trkpt lat="46.765204" lon="6.480205"/><trkpt lat="46.765233" lon="6.480330"/><trkpt lat="46.765196" lon="6.480467"/><trkpt lat="46.765172" lon="6.480630"/><trkpt lat="46.765246" lon="6.480754"/><trkpt lat="46.765343" lon="6.480856"/><trkpt lat="46.765260" lon="6.480955"/><trkpt lat="46.765255" lon="6.481096"/><trkpt lat="46.765315" lon="6.481221"/><trkpt lat="46.765414" lon="6.481238"/><trkpt lat="46.765527" lon="6.481243"/><trkpt lat="46.765606" lon="6.481353"/><trkpt lat="46.765700" lon="6.481447"/><trkpt lat="46.765789" lon="6.481470"/><trkpt lat="46.765872" lon="6.481578"/><trkpt lat="46.766001" lon="6.481590"/><trkpt lat="46.766104" lon="6.481620"/><trkpt lat="46.766182" lon="6.481726"/><trkpt lat="46.766238" lon="6.481845"/><trkpt lat="46.766345" lon="6.481859"/><trkpt lat="46.766452" lon="6.481876"/><trkpt lat="46.766566" lon="6.481865"/><trkpt lat="46.766557" lon="6.482015"/><trkpt lat="46.766462" lon="6.482069"/><trkpt lat="46.766543" lon="6.482176"/><trkpt lat="46.766786" lon="6.482317"/><trkpt lat="46.766885" lon="6.482421"/><trkpt lat="46.767010" lon="6.482450"/><trkpt lat="46.767091" lon="6.482554"/><trkpt lat="46.767177" lon="6.482632"/><trkpt lat="46.767239" lon="6.482745"/><trkpt lat="46.767308" lon="6.482855"/><trkpt lat="46.767346" lon="6.483016"/><trkpt lat="46.767426" lon="6.483081"/><trkpt lat="46.767507" lon="6.483146"/><trkpt lat="46.767597" lon="6.483213"/><trkpt lat="46.767545" lon="6.483336"/><trkpt lat="46.767465" lon="6.483396"/><trkpt lat="46.767433" lon="6.483542"/><trkpt lat="46.767482" lon="6.483684"/><trkpt lat="46.767469" lon="6.483860"/><trkpt lat="46.767386" lon="6.483970"/><trkpt lat="46.767476" lon="6.484018"/><trkpt lat="46.767593" lon="6.484039"/><trkpt lat="46.767694" lon="6.484111"/><trkpt lat="46.767764" lon="6.484201"/><trkpt lat="46.767810" lon="6.484329"/><trkpt lat="46.767854" lon="6.484453"/><trkpt lat="46.767965" lon="6.484510"/><trkpt lat="46.768032" lon="6.484629"/><trkpt lat="46.768001" lon="6.484768"/><trkpt lat="46.768000" lon="6.484908"/><trkpt lat="46.768095" lon="6.484996"/><trkpt lat="46.768104" lon="6.485172"/><trkpt lat="46.768174" lon="6.485256"/><trkpt lat="46.768237" lon="6.485415"/><trkpt lat="46.768205" lon="6.485576"/><trkpt lat="46.768282" lon="6.485662"/><trkpt lat="46.768299" lon="6.485818"/><trkpt lat="46.768269" lon="6.485945"/><trkpt lat="46.768236" lon="6.486081"/><trkpt lat="46.768292" lon="6.486184"/><trkpt lat="46.768326" lon="6.486324"/><trkpt lat="46.768253" lon="6.486454"/><trkpt lat="46.768155" lon="6.486530"/><trkpt lat="46.768063" lon="6.486594"/><trkpt lat="46.767958" lon="6.486591"/><trkpt lat="46.767856" lon="6.486541"/><trkpt lat="46.767752" lon="6.486517"/><trkpt lat="46.767656" lon="6.486536"/><trkpt lat="46.767549" lon="6.486584"/><trkpt lat="46.767445" lon="6.486635"/><trkpt lat="46.767351" lon="6.486716"/><trkpt lat="46.767403" lon="6.486845"/><trkpt lat="46.767454" lon="6.486954"/><trkpt lat="46.767475" lon="6.487104"/><trkpt lat="46.767595" lon="6.487131"/><trkpt lat="46.767687" lon="6.487218"/><trkpt lat="46.767682" lon="6.487352"/><trkpt lat="46.767691" lon="6.487485"/><trkpt lat="46.767775" lon="6.487565"/><trkpt lat="46.767830" lon="6.487673"/><trkpt lat="46.767776" lon="6.487819"/><trkpt lat="46.767809" lon="6.487956"/><trkpt lat="46.767897" lon="6.487923"/><trkpt lat="46.767999" lon="6.487913"/><trkpt lat="46.768091" lon="6.487891"/><trkpt lat="46.768182" lon="6.487896"/><trkpt lat="46.768220" lon="6.488030"/><trkpt lat="46.768253" lon="6.488194"/><trkpt lat="46.768278" lon="6.488334"/><trkpt lat="46.768274" lon="6.488488"/><trkpt lat="46.768276" lon="6.488623"/><trkpt lat="46.768323" lon="6.488754"/><trkpt lat="46.768258" lon="6.488918"/><trkpt lat="46.768370" lon="6.488920"/><trkpt lat="46.768484" lon="6.488948"/><trkpt lat="46.768578" lon="6.488972"/><trkpt lat="46.768680" lon="6.489065"/><trkpt lat="46.768768" lon="6.489211"/><trkpt lat="46.768798" lon="6.489343"/><trkpt lat="46.768818" lon="6.489489"/><trkpt lat="46.768822" lon="6.489668"/><trkpt lat="46.768794" lon="6.489803"/><trkpt lat="46.768880" lon="6.489874"/><trkpt lat="46.768899" lon="6.490032"/><trkpt lat="46.768989" lon="6.490173"/><trkpt lat="46.768943" lon="6.490320"/><trkpt lat="46.768875" lon="6.490424"/><trkpt lat="46.768797" lon="6.490535"/><trkpt lat="46.768858" lon="6.490650"/><trkpt lat="46.768906" lon="6.490773"/><trkpt lat="46.768966" lon="6.490897"/><trkpt lat="46.769003" lon="6.491043"/><trkpt lat="46.769056" lon="6.491155"/><trkpt lat="46.769104" lon="6.491289"/><trkpt lat="46.769207" lon="6.491358"/><trkpt lat="46.769258" lon="6.491507"/><trkpt lat="46.769287" lon="6.491644"/><trkpt lat="46.769372" lon="6.491751"/><trkpt lat="46.769476" lon="6.491821"/><trkpt lat="46.769561" lon="6.491910"/><trkpt lat="46.769569" lon="6.492090"/><trkpt lat="46.769624" lon="6.492202"/><trkpt lat="46.769721" lon="6.492161"/><trkpt lat="46.769856" lon="6.492208"/><trkpt lat="46.769957" lon="6.492245"/><trkpt lat="46.770042" lon="6.492315"/><trkpt lat="46.770078" lon="6.492443"/><trkpt lat="46.770092" lon="6.492594"/><trkpt lat="46.770109" lon="6.492761"/><trkpt lat="46.770197" lon="6.492829"/><trkpt lat="46.770271" lon="6.492906"/><trkpt lat="46.770346" lon="6.492979"/><trkpt lat="46.770443" lon="6.493037"/><trkpt lat="46.770516" lon="6.493139"/><trkpt lat="46.770580" lon="6.493284"/><trkpt lat="46.770633" lon="6.493434"/><trkpt lat="46.770606" lon="6.493591"/><trkpt lat="46.770642" lon="6.493743"/><trkpt lat="46.770702" lon="6.493902"/><trkpt lat="46.770773" lon="6.494016"/><trkpt lat="46.770850" lon="6.494104"/><trkpt lat="46.770949" lon="6.494105"/><trkpt lat="46.771058" lon="6.494051"/><trkpt lat="46.771146" lon="6.494090"/><trkpt lat="46.771247" lon="6.494074"/><trkpt lat="46.771344" lon="6.494139"/><trkpt lat="46.771447" lon="6.494233"/><trkpt lat="46.771485" lon="6.494402"/><trkpt lat="46.771531" lon="6.494538"/><trkpt lat="46.771644" lon="6.494555"/><trkpt lat="46.771749" lon="6.494548"/><trkpt lat="46.771853" lon="6.494578"/><trkpt lat="46.771942" lon="6.494711"/><trkpt lat="46.772001" lon="6.494829"/><trkpt lat="46.772094" lon="6.494927"/><trkpt lat="46.772144" lon="6.495077"/><trkpt lat="46.772228" lon="6.495152"/><trkpt lat="46.772189" lon="6.495297"/><trkpt lat="46.772252" lon="6.495410"/><trkpt lat="46.772350" lon="6.495521"/><trkpt lat="46.772466" lon="6.495590"/><trkpt lat="46.772555" lon="6.495678"/><trkpt lat="46.772630" lon="6.495768"/><trkpt lat="46.772751" lon="6.495807"/><trkpt lat="46.772848" lon="6.495819"/><trkpt lat="46.772925" lon="6.495910"/><trkpt lat="46.773001" lon="6.495999"/><trkpt lat="46.773103" lon="6.495995"/><trkpt lat="46.773211" lon="6.495983"/><trkpt lat="46.773301" lon="6.495980"/><trkpt lat="46.773406" lon="6.495990"/><trkpt lat="46.773525" lon="6.495969"/><trkpt lat="46.773640" lon="6.496037"/><trkpt lat="46.773706" lon="6.496189"/><trkpt lat="46.773795" lon="6.496245"/><trkpt lat="46.773795" lon="6.496381"/><trkpt lat="46.773819" lon="6.496562"/><trkpt lat="46.773867" lon="6.496713"/><trkpt lat="46.773955" lon="6.496785"/><trkpt lat="46.773926" lon="6.496917"/><trkpt lat="46.773945" lon="6.497092"/><trkpt lat="46.773958" lon="6.497245"/><trkpt lat="46.773985" lon="6.497384"/><trkpt lat="46.774056" lon="6.497466"/><trkpt lat="46.774135" lon="6.497582"/><trkpt lat="46.774200" lon="6.497688"/><trkpt lat="46.774277" lon="6.497828"/><trkpt lat="46.774327" lon="6.497962"/><trkpt lat="46.774411" lon="6.498064"/><trkpt lat="46.774446" lon="6.498222"/><trkpt lat="46.774561" lon="6.498237"/><trkpt lat="46.774478" lon="6.498312"/><trkpt lat="46.774415" lon="6.498406"/><trkpt lat="46.774353" lon="6.498512"/><trkpt lat="46.774310" lon="6.498676"/><trkpt lat="46.774225" lon="6.498797"/><trkpt lat="46.774195" lon="6.498765"/></trkseg></trk></gpx>
