<?xml version="1.0" encoding="utf-8"?><gpx version="1.1" creator="MySchweizMobil - https://map.schweizmobil.ch/" xmlns:xsi="http://www.w3.org/2001/XMLSchema-instance" xmlns="http://www.topografix.com/GPX/1/1" xsi:schemaLocation="http://www.topografix.com/GPX/1/1 http://www.topografix.com/GPX/1/1/gpx.xsd"><metadata><name>Tour 25.09.2026 11:20</name><bounds minlat="46.80745013197884" minlon="6.525450117886066" maxlat="46.81752019142732" maxlon="6.546580082271248" /></metadata><trk><name>Tour 25.09.2026 11:20</name><trkseg><trkpt lat="46.81752019142732" lon="6.525530118029565"><ele>885.6499938964844</ele></trkpt><trkpt lat="46.817490191198885" lon="6.525460117962211"><ele>885.3899841308594</ele></trkpt><trkpt lat="46.81748019112274" lon="6.525450117886066"><ele>885.3599853515625</ele></trkpt><trkpt lat="46.81746019097045" lon="6.52550011780113"><ele>884.6599731445312</ele></trkpt><trkpt lat="46.817430190742016" lon="6.525560117792338"><ele>883.6999816894531</ele></trkpt><trkpt lat="46.81741019105539" lon="6.525590118020773"><ele>883.3499755859375</ele></trkpt><trkpt lat="46.817410190589726" lon="6.5256201177835464"><ele>883.0999755859375</ele></trkpt><trkpt lat="46.817410190589726" lon="6.525660117622465"><ele>882.5399780273438</ele></trkpt><trkpt lat="46.81742019020021" lon="6.525880117435008"><ele>880.0499877929688</ele></trkpt><trkpt lat="46.81742018973455" lon="6.526010117027909"><ele>878.3099975585938</ele></trkpt><trkpt lat="46.81742018926889" lon="6.526150117162615"><ele>876.5399780273438</ele></trkpt><trkpt lat="46.81741018919274" lon="6.5261901170015335"><ele>876.0199890136719</ele></trkpt><trkpt lat="46.8174001891166" lon="6.526200117077678"><ele>875.8399963378906</ele></trkpt><trkpt lat="46.81737018888816" lon="6.526240116916597"><ele>874.6599731445312</ele></trkpt><trkpt lat="46.8173201889731" lon="6.5262601166032255"><ele>873.7999877929688</ele></trkpt><trkpt lat="46.81724018836394" lon="6.526300116442144"><ele>872.1399841308594</ele></trkpt><trkpt lat="46.81718018837273" lon="6.526340116281062"><ele>871.2999877929688</ele></trkpt><trkpt lat="46.81716018822044" lon="6.526390116196126"><ele>870.4499816894531</ele></trkpt><trkpt lat="46.81714018806815" lon="6.526460116263479"><ele>869.47998046875</ele></trkpt><trkpt lat="46.81709018768743" lon="6.526580115780234"><ele>867.8099975585938</ele></trkpt><trkpt lat="46.81706018745899" lon="6.526650115847588"><ele>866.9399719238281</ele></trkpt><trkpt lat="46.81700018700212" lon="6.526800115592778"><ele>865.5599975585938</ele></trkpt><trkpt lat="46.81697018677369" lon="6.526860115583986"><ele>864.5</ele></trkpt><trkpt lat="46.8169501866214" lon="6.52689011534676"><ele>863.8499755859375</ele></trkpt><trkpt lat="46.81693018646911" lon="6.526930115185678"><ele>863.1499938964844</ele></trkpt><trkpt lat="46.816800185944885" lon="6.527110114693642"><ele>859.6999816894531</ele></trkpt><trkpt lat="46.816780185792595" lon="6.5271401149220765"><ele>859.1799926757812</ele></trkpt><trkpt lat="46.8167001856491" lon="6.527280114591122"><ele>857.6199951171875</ele></trkpt><trkpt lat="46.81663018511608" lon="6.527390114497393"><ele>855.8599853515625</ele></trkpt><trkpt lat="46.8165901848115" lon="6.52747011417523"><ele>855.0299987792969</ele></trkpt><trkpt lat="46.8165901848115" lon="6.527480114251375"><ele>855.0199890136719</ele></trkpt><trkpt lat="46.81653018435463" lon="6.52764011407271"><ele>852.4099731445312</ele></trkpt><trkpt lat="46.8165001841262" lon="6.5277801137417555"><ele>851.0899963378906</ele></trkpt><trkpt lat="46.81647018389776" lon="6.527920113876462"><ele>850.0299987792969</ele></trkpt><trkpt lat="46.81644018366933" lon="6.528060113545507"><ele>849.1999816894531</ele></trkpt><trkpt lat="46.816430183593184" lon="6.5281201135367155"><ele>848.6799926757812</ele></trkpt><trkpt lat="46.816410183440894" lon="6.528170113451779"><ele>848.1699829101562</ele></trkpt><trkpt lat="46.816390183288604" lon="6.5284701134078205"><ele>846.469970703125</ele></trkpt><trkpt lat="46.816350182984024" lon="6.5287001128308475"><ele>844.8599853515625</ele></trkpt><trkpt lat="46.81632018275559" lon="6.5288001131266356"><ele>844.1099853515625</ele></trkpt><trkpt lat="46.81626018276438" lon="6.528920112643391"><ele>843.0999755859375</ele></trkpt><trkpt lat="46.8162201824598" lon="6.528970112558454"><ele>842.3799743652344</ele></trkpt><trkpt lat="46.81621018238366" lon="6.528970112558454"><ele>842.3599853515625</ele></trkpt><trkpt lat="46.81621018238366" lon="6.529010112863034"><ele>841.8799743652344</ele></trkpt><trkpt lat="46.81619018223137" lon="6.529060112778097"><ele>841.1899719238281</ele></trkpt><trkpt lat="46.81615018192679" lon="6.529120112303644"><ele>840.219970703125</ele></trkpt><trkpt lat="46.81615018192679" lon="6.529120112303644"><ele>840.1299743652344</ele></trkpt><trkpt lat="46.81615018192679" lon="6.529130112379789"><ele>840.0599975585938</ele></trkpt><trkpt lat="46.81614018185064" lon="6.529150112532079"><ele>839.6499938964844</ele></trkpt><trkpt lat="46.81612018169835" lon="6.529220112133771"><ele>838.6499938964844</ele></trkpt><trkpt lat="46.81607018131763" lon="6.529320111963898"><ele>837.0599975585938</ele></trkpt><trkpt lat="46.81598018063232" lon="6.529460111632943"><ele>834.7899780273438</ele></trkpt><trkpt lat="46.81591018009931" lon="6.529610111378133"><ele>832.4199829101562</ele></trkpt><trkpt lat="46.81589018041268" lon="6.529640111606568"><ele>831.9399719238281</ele></trkpt><trkpt lat="46.8158501801081" lon="6.529700111132115"><ele>830.9399719238281</ele></trkpt><trkpt lat="46.815820179879665" lon="6.5297501110471785"><ele>830.1599731445312</ele></trkpt><trkpt lat="46.815820179879665" lon="6.529760111123323"><ele>830.0899963378906</ele></trkpt><trkpt lat="46.815800179727376" lon="6.529810111038387"><ele>829.4399719238281</ele></trkpt><trkpt lat="46.815800179727376" lon="6.529810111038387"><ele>829.4199829101562</ele></trkpt><trkpt lat="46.815800179727376" lon="6.52986011095345"><ele>828.7999877929688</ele></trkpt><trkpt lat="46.815800179261714" lon="6.5299201109446585"><ele>828.0799865722656</ele></trkpt><trkpt lat="46.815800179261714" lon="6.529980110935867"><ele>827.1899719238281</ele></trkpt><trkpt lat="46.815800179261714" lon="6.53001011069864"><ele>826.72998046875</ele></trkpt><trkpt lat="46.815800179261714" lon="6.530020110774785"><ele>826.5999755859375</ele></trkpt><trkpt lat="46.81579017918557" lon="6.530060110613704"><ele>826.0199890136719</ele></trkpt><trkpt lat="46.815780179109424" lon="6.530080110765994"><ele>825.489990234375</ele></trkpt><trkpt lat="46.815760178957134" lon="6.530110110528767"><ele>824.9299926757812</ele></trkpt><trkpt lat="46.815740178804845" lon="6.530130110681057"><ele>824.5199890136719</ele></trkpt><trkpt lat="46.8157301787287" lon="6.530150110367686"><ele>824.0199890136719</ele></trkpt><trkpt lat="46.815720178652555" lon="6.530170110519975"><ele>823.6799926757812</ele></trkpt><trkpt lat="46.815700178034604" lon="6.530240110121667"><ele>822.1799926757812</ele></trkpt><trkpt lat="46.815680177882314" lon="6.530320109799504"><ele>821.0199890136719</ele></trkpt><trkpt lat="46.81567017780617" lon="6.5303901098668575"><ele>819.8299865722656</ele></trkpt><trkpt lat="46.81568017741665" lon="6.530440109781921"><ele>818.8099975585938</ele></trkpt><trkpt lat="46.81570017710328" lon="6.530520109459758"><ele>817.47998046875</ele></trkpt><trkpt lat="46.81570017710328" lon="6.530530109535903"><ele>817.22998046875</ele></trkpt><trkpt lat="46.815710176713765" lon="6.530620109289885"><ele>815.9599914550781</ele></trkpt><trkpt lat="46.815710176713765" lon="6.530720109120011"><ele>814.2599792480469</ele></trkpt><trkpt lat="46.81570017617196" lon="6.530810108873993"><ele>812.5599975585938</ele></trkpt><trkpt lat="46.81571017578244" lon="6.530950108543038"><ele>810.0999755859375</ele></trkpt><trkpt lat="46.81571017531678" lon="6.53104010829702"><ele>808.5599975585938</ele></trkpt><trkpt lat="46.81571017531678" lon="6.5310801086016"><ele>808.0599975585938</ele></trkpt><trkpt lat="46.81571017531678" lon="6.531090108212084"><ele>807.8599853515625</ele></trkpt><trkpt lat="46.81569017516449" lon="6.531120108440518"><ele>807.1899719238281</ele></trkpt><trkpt lat="46.815660174936056" lon="6.531200108118355"><ele>805.2899780273438</ele></trkpt><trkpt lat="46.815640174318105" lon="6.531260108109564"><ele>803.8699951171875</ele></trkpt><trkpt lat="46.81565017392859" lon="6.531360107474029"><ele>802.239990234375</ele></trkpt><trkpt lat="46.815620173700154" lon="6.531440107617527"><ele>800.7799987792969</ele></trkpt><trkpt lat="46.815620173700154" lon="6.531470107380301"><ele>800.4099731445312</ele></trkpt><trkpt lat="46.815620173700154" lon="6.531490107532591"><ele>800.1499938964844</ele></trkpt><trkpt lat="46.815620173700154" lon="6.531500107608736"><ele>799.9099731445312</ele></trkpt><trkpt lat="46.81561017362401" lon="6.531530107371509"><ele>799.3999938964844</ele></trkpt><trkpt lat="46.815580173395574" lon="6.531550107058138"><ele>798.75</ele></trkpt><trkpt lat="46.81555017316714" lon="6.5315701072104275"><ele>798.2899780273438</ele></trkpt><trkpt lat="46.815520173404366" lon="6.5315801072865725"><ele>797.7999877929688</ele></trkpt><trkpt lat="46.815480173099786" lon="6.531580106820911"><ele>797.2099914550781</ele></trkpt><trkpt lat="46.815460172947496" lon="6.531590106897056"><ele>796.9499816894531</ele></trkpt><trkpt lat="46.81545017287135" lon="6.531590106897056"><ele>796.8299865722656</ele></trkpt><trkpt lat="46.81540017295629" lon="6.531610107049346"><ele>796.4099731445312</ele></trkpt><trkpt lat="46.81539017288014" lon="6.531620107125491"><ele>796.4099731445312</ele></trkpt><trkpt lat="46.815380172804" lon="6.5316301067359746"><ele>796.3999938964844</ele></trkpt><trkpt lat="46.815380172804" lon="6.531650106888264"><ele>796.2599792480469</ele></trkpt><trkpt lat="46.815380172804" lon="6.531650106888264"><ele>796.25</ele></trkpt><trkpt lat="46.815380172804" lon="6.531650106888264"><ele>796.219970703125</ele></trkpt><trkpt lat="46.815380172804" lon="6.531670107040554"><ele>796.0399780273438</ele></trkpt><trkpt lat="46.815380172804" lon="6.531700106803328"><ele>795.989990234375</ele></trkpt><trkpt lat="46.81537017272785" lon="6.531730107031763"><ele>795.8199768066406</ele></trkpt><trkpt lat="46.81535017257556" lon="6.531740106642246"><ele>795.8399963378906</ele></trkpt><trkpt lat="46.81534017296508" lon="6.5317401071079075"><ele>796.2999877929688</ele></trkpt><trkpt lat="46.815330172888935" lon="6.531730107031763"><ele>796.6699829101562</ele></trkpt><trkpt lat="46.815310172736645" lon="6.5317401071079075"><ele>796.0899963378906</ele></trkpt><trkpt lat="46.815290172584355" lon="6.531750106718391"><ele>795.6299743652344</ele></trkpt><trkpt lat="46.81526017282158" lon="6.531770106870681"><ele>795.3599853515625</ele></trkpt><trkpt lat="46.81523017259315" lon="6.53179010655731"><ele>795.1699829101562</ele></trkpt><trkpt lat="46.81521017244086" lon="6.531820106785744"><ele>794.8099975585938</ele></trkpt><trkpt lat="46.81520017236471" lon="6.531820106785744"><ele>794.6899719238281</ele></trkpt><trkpt lat="46.81515017244965" lon="6.531890106387436"><ele>793.6099853515625</ele></trkpt><trkpt lat="46.8151401723735" lon="6.531920106615871"><ele>793.25</ele></trkpt><trkpt lat="46.81513017229736" lon="6.53196010645479"><ele>792.7599792480469</ele></trkpt><trkpt lat="46.81513017229736" lon="6.5319801066070795"><ele>792.6099853515625</ele></trkpt><trkpt lat="46.8151301718317" lon="6.532020106445998"><ele>792.1399841308594</ele></trkpt><trkpt lat="46.81516017159447" lon="6.53211010619998"><ele>791.0699768066406</ele></trkpt><trkpt lat="46.815170171670616" lon="6.532150106038898"><ele>790.8099975585938</ele></trkpt><trkpt lat="46.815190171822906" lon="6.5322101060301065"><ele>790.4199829101562</ele></trkpt><trkpt lat="46.81520017189905" lon="6.532240106258541"><ele>790.4399719238281</ele></trkpt><trkpt lat="46.81520017143339" lon="6.532270106021315"><ele>790.3499755859375</ele></trkpt><trkpt lat="46.81518017174676" lon="6.532330106012523"><ele>790.1299743652344</ele></trkpt><trkpt lat="46.815170171670616" lon="6.5323801059275866"><ele>789.9399719238281</ele></trkpt><trkpt lat="46.81516017159447" lon="6.532400106079876"><ele>789.9099731445312</ele></trkpt><trkpt lat="46.815150171518326" lon="6.532410106156021"><ele>789.8899841308594</ele></trkpt><trkpt lat="46.815130171366036" lon="6.532420106232166"><ele>789.6699829101562</ele></trkpt><trkpt lat="46.81510017160326" lon="6.532420106232166"><ele>789.4399719238281</ele></trkpt><trkpt lat="46.81508017145097" lon="6.532420106232166"><ele>789.3199768066406</ele></trkpt><trkpt lat="46.81507017137483" lon="6.532410106156021"><ele>789.25</ele></trkpt><trkpt lat="46.81503017153591" lon="6.5323901060037315"><ele>789.1599731445312</ele></trkpt><trkpt lat="46.815000171307474" lon="6.532370105851442"><ele>788.989990234375</ele></trkpt><trkpt lat="46.81493017124012" lon="6.532330106012523"><ele>788.6499938964844</ele></trkpt><trkpt lat="46.81486017117277" lon="6.532300105784088"><ele>788.1399841308594</ele></trkpt><trkpt lat="46.81482017086819" lon="6.532300105784088"><ele>787.6299743652344</ele></trkpt><trkpt lat="46.81478017102927" lon="6.532320105936378"><ele>787.3599853515625</ele></trkpt><trkpt lat="46.81476017087698" lon="6.532320105936378"><ele>787.2699890136719</ele></trkpt><trkpt lat="46.81474017119035" lon="6.532320105936378"><ele>787.1499938964844</ele></trkpt><trkpt lat="46.81470017088577" lon="6.532320105936378"><ele>786.9099731445312</ele></trkpt><trkpt lat="46.81467017065734" lon="6.532320105936378"><ele>786.6199951171875</ele></trkpt><trkpt lat="46.81460017058998" lon="6.532320105470717"><ele>785.6899719238281</ele></trkpt><trkpt lat="46.81457017082721" lon="6.532340105623007"><ele>785.5</ele></trkpt><trkpt lat="46.814560170751065" lon="6.532360105775297"><ele>785.3699951171875</ele></trkpt><trkpt lat="46.81455017067492" lon="6.532380105461925"><ele>785.1899719238281</ele></trkpt><trkpt lat="46.81453017052263" lon="6.532440105453134"><ele>784.7099914550781</ele></trkpt><trkpt lat="46.81453017052263" lon="6.532470105215907"><ele>784.1899719238281</ele></trkpt><trkpt lat="46.814520170446485" lon="6.532510105520487"><ele>783.6599731445312</ele></trkpt><trkpt lat="46.814500169828534" lon="6.532640105113387"><ele>781.989990234375</ele></trkpt><trkpt lat="46.814500169828534" lon="6.532660105265677"><ele>781.6499938964844</ele></trkpt><trkpt lat="46.81449016975239" lon="6.5326901050284505"><ele>781.1899719238281</ele></trkpt><trkpt lat="46.81445016944781" lon="6.532790104858577"><ele>779.6099853515625</ele></trkpt><trkpt lat="46.81443016929552" lon="6.532850104849786"><ele>778.9399719238281</ele></trkpt><trkpt lat="46.81439016899094" lon="6.533020104281604"><ele>776.4099731445312</ele></trkpt><trkpt lat="46.81437016837299" lon="6.5331001044251025"><ele>775.1899719238281</ele></trkpt><trkpt lat="46.814360168296844" lon="6.533150104340166"><ele>774.5199890136719</ele></trkpt><trkpt lat="46.81433016806841" lon="6.533290104009211"><ele>772.6399841308594</ele></trkpt><trkpt lat="46.814280167687684" lon="6.533490103669465"><ele>770.2799987792969</ele></trkpt><trkpt lat="46.81425016699359" lon="6.53363010333851"><ele>768.4499816894531</ele></trkpt><trkpt lat="46.81420016661286" lon="6.533920103218406"><ele>764.8699951171875</ele></trkpt><trkpt lat="46.81415016576648" lon="6.534130102489144"><ele>762.1099853515625</ele></trkpt><trkpt lat="46.81411016499624" lon="6.5343101024627686"><ele>759.1499938964844</ele></trkpt><trkpt lat="46.81404016446322" lon="6.534470101818442"><ele>755.7799987792969</ele></trkpt><trkpt lat="46.81403016438708" lon="6.534480101894587"><ele>755.6799926757812</ele></trkpt><trkpt lat="46.81394016370177" lon="6.534660101402551"><ele>751.5899963378906</ele></trkpt><trkpt lat="46.81390016339719" lon="6.534740101080388"><ele>749.989990234375</ele></trkpt><trkpt lat="46.81386016309261" lon="6.53483010083437"><ele>747.989990234375</ele></trkpt><trkpt lat="46.81382016232237" lon="6.534940100740641"><ele>745.9199829101562</ele></trkpt><trkpt lat="46.8137601618655" lon="6.535050100181252"><ele>743.7999877929688</ele></trkpt><trkpt lat="46.81374016171321" lon="6.53511010017246"><ele>743.3299865722656</ele></trkpt><trkpt lat="46.81373016210273" lon="6.53511010017246"><ele>743.2699890136719</ele></trkpt><trkpt lat="46.81370016140863" lon="6.53526009991765"><ele>741.1499938964844</ele></trkpt><trkpt lat="46.81368016125634" lon="6.5353300999850035"><ele>740.0299987792969</ele></trkpt><trkpt lat="46.81365016102791" lon="6.535440099891275"><ele>738.4199829101562</ele></trkpt><trkpt lat="46.813600160647184" lon="6.535660099238157"><ele>735.969970703125</ele></trkpt><trkpt lat="46.81357016041875" lon="6.5357500994578"><ele>735.9599914550781</ele></trkpt><trkpt lat="46.81355016026646" lon="6.535840099211782"><ele>735.1999816894531</ele></trkpt><trkpt lat="46.813520160038024" lon="6.535940099041909"><ele>734.3499755859375</ele></trkpt><trkpt lat="46.81351015996188" lon="6.535980099346489"><ele>733.969970703125</ele></trkpt><trkpt lat="46.813500159885734" lon="6.536040098872036"><ele>733.5599975585938</ele></trkpt><trkpt lat="46.813500159885734" lon="6.5360800991766155"><ele>733.3699951171875</ele></trkpt><trkpt lat="46.813500159885734" lon="6.536120099015534"><ele>733.1599731445312</ele></trkpt><trkpt lat="46.813500159885734" lon="6.536150098778307"><ele>732.8599853515625</ele></trkpt><trkpt lat="46.81349015980959" lon="6.536230098921806"><ele>732.25</ele></trkpt><trkpt lat="46.813460159581155" lon="6.536360098980367"><ele>731.4599914550781</ele></trkpt><trkpt lat="46.81345015950501" lon="6.536420098505914"><ele>730.6599731445312</ele></trkpt><trkpt lat="46.81343015888706" lon="6.536520098801702"><ele>729.6199951171875</ele></trkpt><trkpt lat="46.813420158810914" lon="6.536590098403394"><ele>728.7899780273438</ele></trkpt><trkpt lat="46.81342015834525" lon="6.536780098453164"><ele>726.9399719238281</ele></trkpt><trkpt lat="46.81341015826911" lon="6.5368300983682275"><ele>726.5</ele></trkpt><trkpt lat="46.813400158658624" lon="6.536850098054856"><ele>726.3899841308594</ele></trkpt><trkpt lat="46.81339015858248" lon="6.536880098283291"><ele>726.2099914550781</ele></trkpt><trkpt lat="46.81339015858248" lon="6.536880098283291"><ele>726.1799926757812</ele></trkpt><trkpt lat="46.813320158049464" lon="6.536930098198354"><ele>725.1899719238281</ele></trkpt><trkpt lat="46.81314015761018" lon="6.537070097401738"><ele>721.8499755859375</ele></trkpt><trkpt lat="46.81311015738174" lon="6.537080097477883"><ele>721.5199890136719</ele></trkpt><trkpt lat="46.813070157542825" lon="6.537100097630173"><ele>721.0899963378906</ele></trkpt><trkpt lat="46.813030157238245" lon="6.537110097240657"><ele>720.3399963378906</ele></trkpt><trkpt lat="46.81300015700981" lon="6.5371200973168015"><ele>719.8099975585938</ele></trkpt><trkpt lat="46.81292015686631" lon="6.53714009700343"><ele>718.2899780273438</ele></trkpt><trkpt lat="46.81287015648559" lon="6.53716009715572"><ele>717.7899780273438</ele></trkpt><trkpt lat="46.81286015640944" lon="6.537180096842349"><ele>717.489990234375</ele></trkpt><trkpt lat="46.81279015634209" lon="6.537230096757412"><ele>716.4199829101562</ele></trkpt><trkpt lat="46.8127701561898" lon="6.537270097061992"><ele>716.0999755859375</ele></trkpt><trkpt lat="46.8127701561898" lon="6.537270097061992"><ele>716.0699768066406</ele></trkpt><trkpt lat="46.8127701561898" lon="6.537300096824765"><ele>716.0399780273438</ele></trkpt><trkpt lat="46.812760156113654" lon="6.537350096739829"><ele>715.969970703125</ele></trkpt><trkpt lat="46.812740156427026" lon="6.537420096807182"><ele>715.6499938964844</ele></trkpt><trkpt lat="46.81271015619859" lon="6.537470096722245"><ele>715.0899963378906</ele></trkpt><trkpt lat="46.81265015574172" lon="6.537570096552372"><ele>713.75</ele></trkpt><trkpt lat="46.81263015558943" lon="6.53763009654358"><ele>712.8099975585938</ele></trkpt><trkpt lat="46.81263015558943" lon="6.537650096230209"><ele>712.5399780273438</ele></trkpt><trkpt lat="46.81263015558943" lon="6.537650096230209"><ele>712.5299987792969</ele></trkpt><trkpt lat="46.81261015543714" lon="6.537670096382499"><ele>712.5099792480469</ele></trkpt><trkpt lat="46.81259015575051" lon="6.5377000966109335"><ele>712.47998046875</ele></trkpt><trkpt lat="46.812410154845566" lon="6.5379500961862504"><ele>709.25</ele></trkpt><trkpt lat="46.81233015470207" lon="6.538020095787942"><ele>707.469970703125</ele></trkpt><trkpt lat="46.81230015447363" lon="6.538060095626861"><ele>706.6199951171875</ele></trkpt><trkpt lat="46.81223015394062" lon="6.5381700955331326"><ele>705.1899719238281</ele></trkpt><trkpt lat="46.812180154025555" lon="6.538280095439404"><ele>704.0499877929688</ele></trkpt><trkpt lat="46.81215015379712" lon="6.538360095117241"><ele>703.2599792480469</ele></trkpt><trkpt lat="46.812140153720975" lon="6.5384200951084495"><ele>702.7699890136719</ele></trkpt><trkpt lat="46.812120153568685" lon="6.538450095336884"><ele>702.3799743652344</ele></trkpt><trkpt lat="46.812080153264105" lon="6.53857009485364"><ele>701.0</ele></trkpt><trkpt lat="46.81203015288338" lon="6.538670094683766"><ele>699.3399963378906</ele></trkpt><trkpt lat="46.811960152350366" lon="6.5388200944289565"><ele>696.4599914550781</ele></trkpt><trkpt lat="46.81193015212193" lon="6.5388900940306485"><ele>695.0599975585938</ele></trkpt><trkpt lat="46.8119001518935" lon="6.538940093945712"><ele>694.0399780273438</ele></trkpt><trkpt lat="46.81185015151277" lon="6.53902009408921"><ele>692.6599731445312</ele></trkpt><trkpt lat="46.81183015136048" lon="6.539080093614757"><ele>691.8399963378906</ele></trkpt><trkpt lat="46.81179015059024" lon="6.539170093368739"><ele>688.9599914550781</ele></trkpt><trkpt lat="46.81179015012458" lon="6.539230093359947"><ele>686.8799743652344</ele></trkpt><trkpt lat="46.81179015012458" lon="6.539270093198866"><ele>685.7099914550781</ele></trkpt><trkpt lat="46.81180014973506" lon="6.539310093037784"><ele>685.22998046875</ele></trkpt><trkpt lat="46.81173014966771" lon="6.539500092621893"><ele>683.0999755859375</ele></trkpt><trkpt lat="46.81161014875397" lon="6.539910092484206"><ele>679.3899841308594</ele></trkpt><trkpt lat="46.81159014860168" lon="6.539980092085898"><ele>678.6499938964844</ele></trkpt><trkpt lat="46.8115501482971" lon="6.540070092305541"><ele>677.7599792480469</ele></trkpt><trkpt lat="46.81153014814481" lon="6.5401100921444595"><ele>677.25</ele></trkpt><trkpt lat="46.81145014800131" lon="6.540280091576278"><ele>675.1199951171875</ele></trkpt><trkpt lat="46.81144014792517" lon="6.540300091728568"><ele>674.8799743652344</ele></trkpt><trkpt lat="46.81141014769673" lon="6.540380091406405"><ele>674.0599975585938</ele></trkpt><trkpt lat="46.81132014701143" lon="6.540600091218948"><ele>671.8499755859375</ele></trkpt><trkpt lat="46.81128014717251" lon="6.54071009112522"><ele>670.6899719238281</ele></trkpt><trkpt lat="46.81112014641985" lon="6.541080090682954"><ele>667.9599914550781</ele></trkpt><trkpt lat="46.81108014611527" lon="6.541190090589225"><ele>667.2599792480469</ele></trkpt><trkpt lat="46.81108014611527" lon="6.54120009066537"><ele>667.1999816894531</ele></trkpt><trkpt lat="46.81101014604792" lon="6.54137009056285"><ele>666.3599853515625</ele></trkpt><trkpt lat="46.81094014598057" lon="6.541510090697557"><ele>665.8099975585938</ele></trkpt><trkpt lat="46.8108901460655" lon="6.541570090688765"><ele>665.3499755859375</ele></trkpt><trkpt lat="46.81080014584586" lon="6.541650090366602"><ele>664.8899841308594</ele></trkpt><trkpt lat="46.8107501459308" lon="6.541690090671182"><ele>664.6999816894531</ele></trkpt><trkpt lat="46.81069014547393" lon="6.541760090272874"><ele>664.2599792480469</ele></trkpt><trkpt lat="46.81065014563501" lon="6.541810090187937"><ele>663.9399719238281</ele></trkpt><trkpt lat="46.81063014548272" lon="6.541850090492517"><ele>663.739990234375</ele></trkpt><trkpt lat="46.810600145254284" lon="6.541930090170354"><ele>663.5099792480469</ele></trkpt><trkpt lat="46.8105901456438" lon="6.541970090474933"><ele>663.3799743652344</ele></trkpt><trkpt lat="46.81057014549151" lon="6.542030090466142"><ele>663.22998046875</ele></trkpt><trkpt lat="46.81055014533922" lon="6.5421300902962685"><ele>662.8999938964844</ele></trkpt><trkpt lat="46.810540145263076" lon="6.542190090287477"><ele>662.5099792480469</ele></trkpt><trkpt lat="46.810520145110786" lon="6.54226009035483"><ele>662.0799865722656</ele></trkpt><trkpt lat="46.81049014488235" lon="6.542340090032667"><ele>661.4199829101562</ele></trkpt><trkpt lat="46.81043014489114" lon="6.542420090176165"><ele>660.9399719238281</ele></trkpt><trkpt lat="46.810420144815" lon="6.542430089786649"><ele>660.8699951171875</ele></trkpt><trkpt lat="46.81041014473885" lon="6.542450089938939"><ele>660.739990234375</ele></trkpt><trkpt lat="46.810390145052224" lon="6.5424600900150836"><ele>660.6599731445312</ele></trkpt><trkpt lat="46.81038014497608" lon="6.5424700900912285"><ele>660.5599975585938</ele></trkpt><trkpt lat="46.8103401446715" lon="6.542480089701712"><ele>660.3999938964844</ele></trkpt><trkpt lat="46.81025014445186" lon="6.542490089777857"><ele>659.6499938964844</ele></trkpt><trkpt lat="46.81023014476523" lon="6.542490089777857"><ele>659.489990234375</ele></trkpt><trkpt lat="46.81022014468908" lon="6.542500089854002"><ele>659.4499816894531</ele></trkpt><trkpt lat="46.81020014453679" lon="6.542510089930147"><ele>659.25</ele></trkpt><trkpt lat="46.81017014477402" lon="6.542550089769065"><ele>659.1199951171875</ele></trkpt><trkpt lat="46.81013014446944" lon="6.542620089836419"><ele>659.0399780273438</ele></trkpt><trkpt lat="46.81010014470667" lon="6.542640089523047"><ele>658.969970703125</ele></trkpt><trkpt lat="46.81008014455438" lon="6.542660089675337"><ele>658.9299926757812</ele></trkpt><trkpt lat="46.81006014440209" lon="6.542670089751482"><ele>658.8899841308594</ele></trkpt><trkpt lat="46.81004014471546" lon="6.542670089751482"><ele>658.8499755859375</ele></trkpt><trkpt lat="46.81002014456317" lon="6.542680089827627"><ele>658.7099914550781</ele></trkpt><trkpt lat="46.80992014426738" lon="6.542680089827627"><ele>658.5199890136719</ele></trkpt><trkpt lat="46.80987014435232" lon="6.542690089903772"><ele>658.6999816894531</ele></trkpt><trkpt lat="46.80986014427617" lon="6.5427000895142555"><ele>658.6699829101562</ele></trkpt><trkpt lat="46.8098301445134" lon="6.542720089666545"><ele>658.6099853515625</ele></trkpt><trkpt lat="46.809800144284964" lon="6.54275008989498"><ele>658.469970703125</ele></trkpt><trkpt lat="46.809800144284964" lon="6.54275008989498"><ele>658.4399719238281</ele></trkpt><trkpt lat="46.809780144598335" lon="6.542790089733899"><ele>658.2799987792969</ele></trkpt><trkpt lat="46.809760144446045" lon="6.542890089564025"><ele>657.9199829101562</ele></trkpt><trkpt lat="46.8097501443699" lon="6.542950089555234"><ele>657.6799926757812</ele></trkpt><trkpt lat="46.80971014406532" lon="6.543020089622587"><ele>657.4599914550781</ele></trkpt><trkpt lat="46.8096701442264" lon="6.543080089613795"><ele>657.2599792480469</ele></trkpt><trkpt lat="46.8096701442264" lon="6.54309008968994"><ele>657.22998046875</ele></trkpt><trkpt lat="46.80964014399797" lon="6.543120089452714"><ele>657.1599731445312</ele></trkpt><trkpt lat="46.809610144235194" lon="6.5431500896811485"><ele>657.0599975585938</ele></trkpt><trkpt lat="46.809590144082904" lon="6.543170089367777"><ele>657.0</ele></trkpt><trkpt lat="46.80956014385447" lon="6.543200089596212"><ele>656.9099731445312</ele></trkpt><trkpt lat="46.809550144243985" lon="6.543200089596212"><ele>656.8799743652344</ele></trkpt><trkpt lat="46.809530144091696" lon="6.543210089672357"><ele>656.8399963378906</ele></trkpt><trkpt lat="46.80949014425278" lon="6.543210089672357"><ele>656.6499938964844</ele></trkpt><trkpt lat="46.8094501439482" lon="6.543190089520067"><ele>656.469970703125</ele></trkpt><trkpt lat="46.80941014410928" lon="6.543190089520067"><ele>656.2999877929688</ele></trkpt><trkpt lat="46.80939014395699" lon="6.543200089596212"><ele>656.1899719238281</ele></trkpt><trkpt lat="46.809360143728554" lon="6.543210089206696"><ele>656.0699768066406</ele></trkpt><trkpt lat="46.80935014411807" lon="6.5432200892828405"><ele>656.0099792480469</ele></trkpt><trkpt lat="46.80933014396578" lon="6.543250089511275"><ele>655.8799743652344</ele></trkpt><trkpt lat="46.80931014381349" lon="6.543290089350194"><ele>655.7999877929688</ele></trkpt><trkpt lat="46.809300143737346" lon="6.543310089502484"><ele>655.7599792480469</ele></trkpt><trkpt lat="46.8092901436612" lon="6.543330089189112"><ele>655.7099914550781</ele></trkpt><trkpt lat="46.8092901436612" lon="6.543380089104176"><ele>655.5699768066406</ele></trkpt><trkpt lat="46.8092901436612" lon="6.543440089095384"><ele>655.4599914550781</ele></trkpt><trkpt lat="46.8092901436612" lon="6.543470089323819"><ele>655.4099731445312</ele></trkpt><trkpt lat="46.809320143889636" lon="6.543640089221299"><ele>655.1899719238281</ele></trkpt><trkpt lat="46.809320143889636" lon="6.543680089060217"><ele>655.1299743652344</ele></trkpt><trkpt lat="46.80931014381349" lon="6.543700089212507"><ele>655.0899963378906</ele></trkpt><trkpt lat="46.80931014381349" lon="6.543710089288652"><ele>655.0599975585938</ele></trkpt><trkpt lat="46.809280143585056" lon="6.54375008912757"><ele>654.9399719238281</ele></trkpt><trkpt lat="46.80924014374614" lon="6.54379008943215"><ele>654.5999755859375</ele></trkpt><trkpt lat="46.80920014344156" lon="6.543820089194924"><ele>654.3699951171875</ele></trkpt><trkpt lat="46.809170143678784" lon="6.543850088957697"><ele>654.2699890136719</ele></trkpt><trkpt lat="46.80914014345035" lon="6.543900089338422"><ele>654.1399841308594</ele></trkpt><trkpt lat="46.809130143374205" lon="6.543950089253485"><ele>654.0499877929688</ele></trkpt><trkpt lat="46.809110143221915" lon="6.544060089159757"><ele>653.8099975585938</ele></trkpt><trkpt lat="46.809110143221915" lon="6.544060089159757"><ele>653.7999877929688</ele></trkpt><trkpt lat="46.80912014329806" lon="6.544080089312047"><ele>653.6999816894531</ele></trkpt><trkpt lat="46.80912014329806" lon="6.54411008907482"><ele>653.1599731445312</ele></trkpt><trkpt lat="46.809110143221915" lon="6.544140088837594"><ele>652.6399841308594</ele></trkpt><trkpt lat="46.80910014314577" lon="6.544200088828802"><ele>651.6999816894531</ele></trkpt><trkpt lat="46.809070142917335" lon="6.544290088582784"><ele>650.8899841308594</ele></trkpt><trkpt lat="46.809030142612755" lon="6.544360088650137"><ele>649.6499938964844</ele></trkpt><trkpt lat="46.80900014238432" lon="6.544380088336766"><ele>649.0199890136719</ele></trkpt><trkpt lat="46.808970142155886" lon="6.544380088336766"><ele>648.0799865722656</ele></trkpt><trkpt lat="46.808950142003596" lon="6.544370088260621"><ele>647.72998046875</ele></trkpt><trkpt lat="46.808930141851306" lon="6.544350088108331"><ele>647.1799926757812</ele></trkpt><trkpt lat="46.80891014216468" lon="6.544330087956041"><ele>646.5099792480469</ele></trkpt><trkpt lat="46.8088701418601" lon="6.544330087956041"><ele>645.75</ele></trkpt><trkpt lat="46.80875014094636" lon="6.544400087557733"><ele>641.6199951171875</ele></trkpt><trkpt lat="46.80871014064178" lon="6.544410087633878"><ele>640.5</ele></trkpt><trkpt lat="46.808640140108764" lon="6.544400087092072"><ele>638.6799926757812</ele></trkpt><trkpt lat="46.808540139812976" lon="6.54444008693099"><ele>636.4199829101562</ele></trkpt><trkpt lat="46.80848013935611" lon="6.544480086769909"><ele>635.0399780273438</ele></trkpt><trkpt lat="46.80843013944104" lon="6.544550086371601"><ele>633.6399841308594</ele></trkpt><trkpt lat="46.80840013874695" lon="6.5446400861255825"><ele>631.8599853515625</ele></trkpt><trkpt lat="46.80838013859466" lon="6.544770086184144"><ele>629.8699951171875</ele></trkpt><trkpt lat="46.80836013844237" lon="6.544840085785836"><ele>628.7999877929688</ele></trkpt><trkpt lat="46.80831013806164" lon="6.544890085700899"><ele>627.4099731445312</ele></trkpt><trkpt lat="46.80829013790935" lon="6.544960085768253"><ele>626.1499938964844</ele></trkpt><trkpt lat="46.80828013736755" lon="6.5450200852938"><ele>625.3699951171875</ele></trkpt><trkpt lat="46.80828013736755" lon="6.545080085285008"><ele>624.7999877929688</ele></trkpt><trkpt lat="46.80828013736755" lon="6.545120085589588"><ele>624.5099792480469</ele></trkpt><trkpt lat="46.80829013744369" lon="6.545160085428506"><ele>624.0799865722656</ele></trkpt><trkpt lat="46.80829013697803" lon="6.545200085267425"><ele>623.47998046875</ele></trkpt><trkpt lat="46.80829013697803" lon="6.545240085106343"><ele>622.8599853515625</ele></trkpt><trkpt lat="46.80827013682574" lon="6.5452800849452615"><ele>621.8199768066406</ele></trkpt><trkpt lat="46.80825013667345" lon="6.545330084860325"><ele>620.6599731445312</ele></trkpt><trkpt lat="46.80821013590321" lon="6.545490084215999"><ele>616.8899841308594</ele></trkpt><trkpt lat="46.808200135827065" lon="6.545530084520578"><ele>616.0499877929688</ele></trkpt><trkpt lat="46.80817013559863" lon="6.545560084283352"><ele>615.1399841308594</ele></trkpt><trkpt lat="46.808140135370195" lon="6.545590084046125"><ele>614.0399780273438</ele></trkpt><trkpt lat="46.80811013514176" lon="6.545620083808899"><ele>612.8799743652344</ele></trkpt><trkpt lat="46.808080134913325" lon="6.545660083647817"><ele>611.6299743652344</ele></trkpt><trkpt lat="46.808040134608746" lon="6.545730083715171"><ele>610.219970703125</ele></trkpt><trkpt lat="46.808000134304166" lon="6.5458200834691525"><ele>608.7799987792969</ele></trkpt><trkpt lat="46.807960133999586" lon="6.545890083070844"><ele>607.25</ele></trkpt><trkpt lat="46.807920133229345" lon="6.546010083053261"><ele>604.6699829101562</ele></trkpt><trkpt lat="46.807900133077055" lon="6.546060082968324"><ele>603.9299926757812</ele></trkpt><trkpt lat="46.80789013300091" lon="6.546130082570016"><ele>603.2699890136719</ele></trkpt><trkpt lat="46.80789013300091" lon="6.546160082798451"><ele>603.1199951171875</ele></trkpt><trkpt lat="46.807900133077055" lon="6.546210082713515"><ele>602.9099731445312</ele></trkpt><trkpt lat="46.80778013262898" lon="6.5462900823913515"><ele>601.6499938964844</ele></trkpt><trkpt lat="46.80745013197884" lon="6.546580082271248"><ele>599.2799987792969</ele></trkpt></trkseg></trk></gpx>