<?xml version="1.0" encoding="utf-8"?><gpx version="1.1" creator="MySchweizMobil - https://map.schweizmobil.ch/" xmlns:xsi="http://www.w3.org/2001/XMLSchema-instance" xmlns="http://www.topografix.com/GPX/1/1" xsi:schemaLocation="http://www.topografix.com/GPX/1/1 http://www.topografix.com/GPX/1/1/gpx.xsd"><metadata><name>Vallon de Réchy, km 7.5 to 15.5</name><bounds minlat="46.17690186295658" minlon="7.4961783196777105" maxlat="46.250260944478214" maxlon="7.530896069481969" /></metadata><trk><name>Vallon de Réchy, km 7.5 to 15.5</name><trkseg><trkpt lat="46.18129697954282" lon="7.4986351621337235"><ele>2517.5999755859375</ele></trkpt><trkpt lat="46.18121514841914" lon="7.498580681625754"><ele>2518.3999938964844</ele></trkpt><trkpt lat="46.18113421788439" lon="7.498524907510728"><ele>2519.5</ele></trkpt><trkpt lat="46.18105238722637" lon="7.498469131998718"><ele>2520.5999755859375</ele></trkpt><trkpt lat="46.1809714557603" lon="7.498414653353393"><ele>2521.5</ele></trkpt><trkpt lat="46.18085905117914" lon="7.498338125180453"><ele>2522.7999877929688</ele></trkpt><trkpt lat="46.18076998787001" lon="7.498352274298668"><ele>2524.199981689453</ele></trkpt><trkpt lat="46.180644939187914" lon="7.498371565248817"><ele>2525.5</ele></trkpt><trkpt lat="46.180564008653164" lon="7.4983157915994525"><ele>2526.7999877929688</ele></trkpt><trkpt lat="46.18049027118832" lon="7.498265206348151"><ele>2527.7999877929688</ele></trkpt><trkpt lat="46.18042644998059" lon="7.498174486216158"><ele>2528.3999938964844</ele></trkpt><trkpt lat="46.18036172911525" lon="7.498083765152842"><ele>2529.199981689453</ele></trkpt><trkpt lat="46.180297907441854" lon="7.4979930450208485"><ele>2530.5</ele></trkpt><trkpt lat="46.180233186576515" lon="7.497902324888855"><ele>2532.2999877929688</ele></trkpt><trkpt lat="46.18016936536878" lon="7.4978116056881845"><ele>2534.199981689453</ele></trkpt><trkpt lat="46.18007228337228" lon="7.497675525490195"><ele>2535.8999938964844</ele></trkpt><trkpt lat="46.17999135283753" lon="7.497618458699435"><ele>2537.199981689453</ele></trkpt><trkpt lat="46.17991132242605" lon="7.497560097835958"><ele>2538.0</ele></trkpt><trkpt lat="46.1798303918913" lon="7.49750303151086"><ele>2538.5999755859375</ele></trkpt><trkpt lat="46.179750360548496" lon="7.497445966117084"><ele>2539.199981689453</ele></trkpt><trkpt lat="46.17966943047941" lon="7.497387604787946"><ele>2539.8999938964844</ele></trkpt><trkpt lat="46.179588499478996" lon="7.497330538928509"><ele>2540.5</ele></trkpt><trkpt lat="46.17950846860185" lon="7.497272178996354"><ele>2541.199981689453</ele></trkpt><trkpt lat="46.17942753760144" lon="7.497215113602579"><ele>2541.3999938964844</ele></trkpt><trkpt lat="46.17934660660103" lon="7.497158047743142"><ele>2541.2999877929688</ele></trkpt><trkpt lat="46.179249490145594" lon="7.49708801554516"><ele>2541.8999938964844</ele></trkpt><trkpt lat="46.17919196980074" lon="7.496988240629435"><ele>2543.2999877929688</ele></trkpt><trkpt lat="46.17913354886696" lon="7.496889759786427"><ele>2545.2999877929688</ele></trkpt><trkpt lat="46.17908321833238" lon="7.496802942827344"><ele>2548.199981689453</ele></trkpt><trkpt lat="46.17906259279698" lon="7.496677307412028"><ele>2551.8999938964844</ele></trkpt><trkpt lat="46.17904286738485" lon="7.4965503783896565"><ele>2555.0999755859375</ele></trkpt><trkpt lat="46.179023139644414" lon="7.4964273339137435"><ele>2557.199981689453</ele></trkpt><trkpt lat="46.179012353532016" lon="7.496410487685353"><ele>2557.7999877929688</ele></trkpt><trkpt lat="46.17893052101135" lon="7.496356012765318"><ele>2557.7999877929688</ele></trkpt><trkpt lat="46.17884868802503" lon="7.496302833314985"><ele>2558.3999938964844</ele></trkpt><trkpt lat="46.178766855970025" lon="7.496248358860612"><ele>2560.0</ele></trkpt><trkpt lat="46.17866074386984" lon="7.4961783196777105"><ele>2562.2999877929688</ele></trkpt><trkpt lat="46.17857078788802" lon="7.496179521549493"><ele>2564.5</ele></trkpt><trkpt lat="46.17846014210954" lon="7.496180702000856"><ele>2566.3999938964844</ele></trkpt><trkpt lat="46.1783809508197" lon="7.496241483837366"><ele>2568.0</ele></trkpt><trkpt lat="46.17830175952986" lon="7.4963022652082145"><ele>2569.5999755859375</ele></trkpt><trkpt lat="46.17822166858241" lon="7.49636304564774"><ele>2570.699981689453</ele></trkpt><trkpt lat="46.17814877582714" lon="7.4964199480600655"><ele>2571.5</ele></trkpt><trkpt lat="46.17809205316007" lon="7.4965208964422345"><ele>2572.5</ele></trkpt><trkpt lat="46.17803533002734" lon="7.4966218448244035"><ele>2573.199981689453</ele></trkpt><trkpt lat="46.17797950655222" lon="7.496722793672234"><ele>2573.699981689453</ele></trkpt><trkpt lat="46.17793178744614" lon="7.4968069163151085"><ele>2574.0</ele></trkpt><trkpt lat="46.17785349301994" lon="7.496871582232416"><ele>2574.199981689453</ele></trkpt><trkpt lat="46.17777609825134" lon="7.496936248615384"><ele>2574.5999755859375</ele></trkpt><trkpt lat="46.1776978042908" lon="7.497000914532691"><ele>2575.0999755859375</ele></trkpt><trkpt lat="46.177620409522206" lon="7.497065580449998"><ele>2575.699981689453</ele></trkpt><trkpt lat="46.177542115096" lon="7.497130245901644"><ele>2576.3999938964844</ele></trkpt><trkpt lat="46.1774638206698" lon="7.497194910887629"><ele>2577.0</ele></trkpt><trkpt lat="46.17740532429889" lon="7.4972440572455525"><ele>2577.199981689453</ele></trkpt><trkpt lat="46.17735500400886" lon="7.497136523015797"><ele>2576.8999938964844</ele></trkpt><trkpt lat="46.17731816275045" lon="7.497056196909398"><ele>2576.199981689453</ele></trkpt><trkpt lat="46.17724263528362" lon="7.496986189857125"><ele>2575.2999877929688</ele></trkpt><trkpt lat="46.17716710828245" lon="7.496916183270514"><ele>2574.5999755859375</ele></trkpt><trkpt lat="46.177090681158006" lon="7.49684617575258"><ele>2574.5999755859375</ele></trkpt><trkpt lat="46.17701515369117" lon="7.496776169165969"><ele>2574.5999755859375</ele></trkpt><trkpt lat="46.17690186295658" lon="7.496671160217375"><ele>2574.699981689453</ele></trkpt><trkpt lat="46.176928787492216" lon="7.496794207952917"><ele>2575.0</ele></trkpt><trkpt lat="46.17695661075413" lon="7.496918551623821"><ele>2575.2999877929688</ele></trkpt><trkpt lat="46.1769835348241" lon="7.497041599359363"><ele>2575.3999938964844</ele></trkpt><trkpt lat="46.17701135855168" lon="7.497164648026228"><ele>2576.0</ele></trkpt><trkpt lat="46.17703828215599" lon="7.497287696227431"><ele>2576.699981689453</ele></trkpt><trkpt lat="46.17706520529464" lon="7.497412039432675"><ele>2577.0999755859375</ele></trkpt><trkpt lat="46.177093028556556" lon="7.497535088565201"><ele>2577.199981689453</ele></trkpt><trkpt lat="46.177119952160865" lon="7.497658137232065"><ele>2576.7999877929688</ele></trkpt><trkpt lat="46.17714777495712" lon="7.497781186364591"><ele>2576.0</ele></trkpt><trkpt lat="46.177174697164446" lon="7.497905530035496"><ele>2575.0</ele></trkpt><trkpt lat="46.17720251949504" lon="7.498028579633683"><ele>2573.8999938964844</ele></trkpt><trkpt lat="46.17722944216803" lon="7.498151628300548"><ele>2573.3999938964844</ele></trkpt><trkpt lat="46.177256365306675" lon="7.4982746774330735"><ele>2573.5</ele></trkpt><trkpt lat="46.17728418670595" lon="7.498399022500962"><ele>2573.5999755859375</ele></trkpt><trkpt lat="46.177311109378934" lon="7.498522071633488"><ele>2573.5</ele></trkpt><trkpt lat="46.17733893124387" lon="7.498645122162998"><ele>2573.5999755859375</ele></trkpt><trkpt lat="46.17736585345119" lon="7.498768171295524"><ele>2573.5999755859375</ele></trkpt><trkpt lat="46.177392774727196" lon="7.498892515897751"><ele>2573.7999877929688</ele></trkpt><trkpt lat="46.17742059659213" lon="7.499015566892922"><ele>2574.5</ele></trkpt><trkpt lat="46.17744751833379" lon="7.49913861695677"><ele>2575.0999755859375</ele></trkpt><trkpt lat="46.1774753392674" lon="7.4992629629559815"><ele>2575.0999755859375</ele></trkpt><trkpt lat="46.1774932872504" lon="7.499344564508647"><ele>2575.0</ele></trkpt><trkpt lat="46.17758233519271" lon="7.499360201880336"><ele>2575.0999755859375</ele></trkpt><trkpt lat="46.17767228279263" lon="7.4993758401833475"><ele>2575.8999938964844</ele></trkpt><trkpt lat="46.17776133073494" lon="7.4993914775550365"><ele>2577.2999877929688</ele></trkpt><trkpt lat="46.17785037914291" lon="7.499407115392387"><ele>2578.7999877929688</ele></trkpt><trkpt lat="46.17793942708522" lon="7.499422752764076"><ele>2579.199981689453</ele></trkpt><trkpt lat="46.17802937421948" lon="7.499438391067088"><ele>2577.8999938964844</ele></trkpt><trkpt lat="46.17811842169613" lon="7.4994540279731154"><ele>2574.5999755859375</ele></trkpt><trkpt lat="46.17820746824145" lon="7.499469664413482"><ele>2568.8999938964844</ele></trkpt><trkpt lat="46.17829651525244" lon="7.49948530131951"><ele>2562.7999877929688</ele></trkpt><trkpt lat="46.178386461455375" lon="7.49950093915686"><ele>2557.7999877929688</ele></trkpt><trkpt lat="46.17847550846636" lon="7.499516576062888"><ele>2552.0</ele></trkpt><trkpt lat="46.17856455501169" lon="7.499532212968916"><ele>2544.5</ele></trkpt><trkpt lat="46.17865450074896" lon="7.499547850340605"><ele>2536.2999877929688</ele></trkpt><trkpt lat="46.17874354729429" lon="7.499563487246633"><ele>2528.2999877929688</ele></trkpt><trkpt lat="46.178832593839616" lon="7.49957912415266"><ele>2521.5</ele></trkpt><trkpt lat="46.17892164038494" lon="7.499594761058688"><ele>2515.699981689453</ele></trkpt><trkpt lat="46.17901158705354" lon="7.4996103993617"><ele>2510.0999755859375</ele></trkpt><trkpt lat="46.179100633598864" lon="7.499626036267728"><ele>2504.0</ele></trkpt><trkpt lat="46.17918968014419" lon="7.499641673639417"><ele>2498.2999877929688</ele></trkpt><trkpt lat="46.179279626812786" lon="7.49965731240809"><ele>2494.0999755859375</ele></trkpt><trkpt lat="46.179368674289435" lon="7.49967295024544"><ele>2491.2999877929688</ele></trkpt><trkpt lat="46.179457721766084" lon="7.49968858808279"><ele>2489.0999755859375</ele></trkpt><trkpt lat="46.179546769242734" lon="7.499704225920141"><ele>2486.5999755859375</ele></trkpt><trkpt lat="46.17963671637699" lon="7.499719865154475"><ele>2484.0999755859375</ele></trkpt><trkpt lat="46.17972576385364" lon="7.499735502991825"><ele>2482.199981689453</ele></trkpt><trkpt lat="46.17981481133029" lon="7.499751141294837"><ele>2480.699981689453</ele></trkpt><trkpt lat="46.17990385880694" lon="7.499766779597849"><ele>2479.3999938964844</ele></trkpt><trkpt lat="46.179993806406856" lon="7.499782419297844"><ele>2478.7999877929688</ele></trkpt><trkpt lat="46.180082854349166" lon="7.499798058066517"><ele>2479.5</ele></trkpt><trkpt lat="46.18017190229148" lon="7.49981369683519"><ele>2480.5</ele></trkpt><trkpt lat="46.180261849891394" lon="7.499829336535186"><ele>2480.5999755859375</ele></trkpt><trkpt lat="46.180350897368044" lon="7.4998449753038585"><ele>2480.3999938964844</ele></trkpt><trkpt lat="46.180439945310354" lon="7.4998606140725315"><ele>2480.0</ele></trkpt><trkpt lat="46.180528993252665" lon="7.499876252841204"><ele>2479.8999938964844</ele></trkpt><trkpt lat="46.18061894085258" lon="7.499891893006861"><ele>2480.5</ele></trkpt><trkpt lat="46.18070798879489" lon="7.499907532241195"><ele>2481.5</ele></trkpt><trkpt lat="46.180797036737204" lon="7.49992317147553"><ele>2483.0</ele></trkpt><trkpt lat="46.18088698480278" lon="7.4999388116411865"><ele>2484.5</ele></trkpt><trkpt lat="46.18097603274509" lon="7.499954451341182"><ele>2486.199981689453</ele></trkpt><trkpt lat="46.181065081153065" lon="7.499970090575516"><ele>2487.7999877929688</ele></trkpt><trkpt lat="46.181154129095376" lon="7.499985730275512"><ele>2488.8999938964844</ele></trkpt><trkpt lat="46.18124407669529" lon="7.5000013704411685"><ele>2489.0999755859375</ele></trkpt><trkpt lat="46.18133312417194" lon="7.5000170092098415"><ele>2486.7999877929688</ele></trkpt><trkpt lat="46.18142217118293" lon="7.500032648444176"><ele>2483.5999755859375</ele></trkpt><trkpt lat="46.18151121865958" lon="7.50004828767851"><ele>2482.5</ele></trkpt><trkpt lat="46.1816011662595" lon="7.500063928309828"><ele>2482.5</ele></trkpt><trkpt lat="46.18169021420181" lon="7.500079568009824"><ele>2483.0999755859375</ele></trkpt><trkpt lat="46.18177926214412" lon="7.500095207709819"><ele>2484.5</ele></trkpt><trkpt lat="46.1818692102097" lon="7.500110848341137"><ele>2486.199981689453</ele></trkpt><trkpt lat="46.18195825815201" lon="7.500126488506794"><ele>2488.5999755859375</ele></trkpt><trkpt lat="46.18204730702564" lon="7.500142128672451"><ele>2491.8999938964844</ele></trkpt><trkpt lat="46.18213635543361" lon="7.500157769303769"><ele>2495.0999755859375</ele></trkpt><trkpt lat="46.18222630303353" lon="7.500173410400748"><ele>2497.2999877929688</ele></trkpt><trkpt lat="46.18231535097584" lon="7.500189050566405"><ele>2498.0999755859375</ele></trkpt><trkpt lat="46.18240439891815" lon="7.500204690266401"><ele>2497.7999877929688</ele></trkpt><trkpt lat="46.18249434605241" lon="7.50022033136338"><ele>2497.199981689453</ele></trkpt><trkpt lat="46.18258339399472" lon="7.500235971529037"><ele>2497.199981689453</ele></trkpt><trkpt lat="46.18267244193703" lon="7.500251611694694"><ele>2497.5</ele></trkpt><trkpt lat="46.18276148987934" lon="7.50026725186035"><ele>2497.5999755859375</ele></trkpt><trkpt lat="46.182851437013596" lon="7.50028289295733"><ele>2496.3999938964844</ele></trkpt><trkpt lat="46.182940484490246" lon="7.500298532657325"><ele>2494.699981689453</ele></trkpt><trkpt lat="46.183029531966895" lon="7.500314172822982"><ele>2494.0999755859375</ele></trkpt><trkpt lat="46.183118579909205" lon="7.5003298134543"><ele>2493.8999938964844</ele></trkpt><trkpt lat="46.18320852704346" lon="7.5003454545512795"><ele>2493.3999938964844</ele></trkpt><trkpt lat="46.18329757498577" lon="7.500361095182598"><ele>2492.7999877929688</ele></trkpt><trkpt lat="46.18338662246242" lon="7.500376735348254"><ele>2491.7999877929688</ele></trkpt><trkpt lat="46.18347656959668" lon="7.500392376910895"><ele>2490.7999877929688</ele></trkpt><trkpt lat="46.18356561707333" lon="7.500408017542213"><ele>2489.5999755859375</ele></trkpt><trkpt lat="46.18365466501564" lon="7.500423658173531"><ele>2489.0</ele></trkpt><trkpt lat="46.18374371249229" lon="7.500439298804849"><ele>2489.0</ele></trkpt><trkpt lat="46.183833660092205" lon="7.50045494036749"><ele>2488.7999877929688</ele></trkpt><trkpt lat="46.183922707568854" lon="7.500470580998808"><ele>2487.3999938964844</ele></trkpt><trkpt lat="46.18401175457984" lon="7.500486221630126"><ele>2483.5</ele></trkpt><trkpt lat="46.184101700782776" lon="7.500501862727106"><ele>2478.5</ele></trkpt><trkpt lat="46.184190747793764" lon="7.500517502892762"><ele>2473.8999938964844</ele></trkpt><trkpt lat="46.18427979480475" lon="7.5005331435240805"><ele>2470.0</ele></trkpt><trkpt lat="46.1843688422814" lon="7.500548784155399"><ele>2467.0</ele></trkpt><trkpt lat="46.184458788949996" lon="7.500564425718039"><ele>2464.5999755859375</ele></trkpt><trkpt lat="46.184547836426646" lon="7.500580066815019"><ele>2463.2999877929688</ele></trkpt><trkpt lat="46.184636884368956" lon="7.500595708377659"><ele>2463.5</ele></trkpt><trkpt lat="46.18472593231127" lon="7.5006113499403"><ele>2465.0</ele></trkpt><trkpt lat="46.184815880376846" lon="7.500626992434263"><ele>2467.0999755859375</ele></trkpt><trkpt lat="46.184904927853495" lon="7.500642633996904"><ele>2467.0999755859375</ele></trkpt><trkpt lat="46.184993975330144" lon="7.500658275093883"><ele>2464.199981689453</ele></trkpt><trkpt lat="46.18508392199874" lon="7.500673917122185"><ele>2462.199981689453</ele></trkpt><trkpt lat="46.18517296994105" lon="7.500689558684826"><ele>2462.5999755859375</ele></trkpt><trkpt lat="46.18526201788336" lon="7.500705200713128"><ele>2464.0</ele></trkpt><trkpt lat="46.18535106629133" lon="7.5007208422757685"><ele>2465.8999938964844</ele></trkpt><trkpt lat="46.18544101389125" lon="7.500736485235393"><ele>2467.699981689453</ele></trkpt><trkpt lat="46.18553006183356" lon="7.500752127263695"><ele>2468.0999755859375</ele></trkpt><trkpt lat="46.18561910931021" lon="7.500767768826336"><ele>2467.699981689453</ele></trkpt><trkpt lat="46.18570905691013" lon="7.50078341178596"><ele>2467.3999938964844</ele></trkpt><trkpt lat="46.18579810438678" lon="7.500799053814262"><ele>2467.199981689453</ele></trkpt><trkpt lat="46.185887151863426" lon="7.500814695376903"><ele>2466.199981689453</ele></trkpt><trkpt lat="46.185976199340075" lon="7.500830337405205"><ele>2463.5</ele></trkpt><trkpt lat="46.18606614600867" lon="7.500845979899168"><ele>2460.5999755859375</ele></trkpt><trkpt lat="46.18615519348532" lon="7.50086162192747"><ele>2459.199981689453</ele></trkpt><trkpt lat="46.18624424142763" lon="7.500877263955772"><ele>2459.0</ele></trkpt><trkpt lat="46.18633328890428" lon="7.500892905984074"><ele>2458.7999877929688</ele></trkpt><trkpt lat="46.186423236038536" lon="7.50090854940936"><ele>2458.0</ele></trkpt><trkpt lat="46.186512283515185" lon="7.500924191437662"><ele>2457.0</ele></trkpt><trkpt lat="46.186601331457496" lon="7.500939833931625"><ele>2456.199981689453</ele></trkpt><trkpt lat="46.18669127859175" lon="7.500955476891249"><ele>2455.5999755859375</ele></trkpt><trkpt lat="46.1867803260684" lon="7.500971119385213"><ele>2455.5999755859375</ele></trkpt><trkpt lat="46.18686937401071" lon="7.500986762344837"><ele>2455.7999877929688</ele></trkpt><trkpt lat="46.18695842195302" lon="7.5010024048388"><ele>2455.8999938964844</ele></trkpt><trkpt lat="46.18704836908728" lon="7.501018048264086"><ele>2456.199981689453</ele></trkpt><trkpt lat="46.18713741702959" lon="7.501033691223711"><ele>2456.3999938964844</ele></trkpt><trkpt lat="46.18722646450624" lon="7.501049333717674"><ele>2456.0999755859375</ele></trkpt><trkpt lat="46.187316411640495" lon="7.501064977608621"><ele>2455.3999938964844</ele></trkpt><trkpt lat="46.187405459582806" lon="7.501080620102584"><ele>2455.0999755859375</ele></trkpt><trkpt lat="46.187494507059455" lon="7.501096263062209"><ele>2455.199981689453</ele></trkpt><trkpt lat="46.187583555001765" lon="7.501111906021833"><ele>2455.2999877929688</ele></trkpt><trkpt lat="46.18767350213602" lon="7.501127550378442"><ele>2455.3999938964844</ele></trkpt><trkpt lat="46.18776255007833" lon="7.501143193338066"><ele>2455.5</ele></trkpt><trkpt lat="46.18785159755498" lon="7.501158836297691"><ele>2455.699981689453</ele></trkpt><trkpt lat="46.18794064549729" lon="7.501174479722977"><ele>2455.7999877929688</ele></trkpt><trkpt lat="46.18803059263155" lon="7.501190123613924"><ele>2456.0999755859375</ele></trkpt><trkpt lat="46.18811964057386" lon="7.50120576703921"><ele>2456.199981689453</ele></trkpt><trkpt lat="46.18820868851617" lon="7.501221410464495"><ele>2456.3999938964844</ele></trkpt><trkpt lat="46.188298635650426" lon="7.501237054821104"><ele>2456.7999877929688</ele></trkpt><trkpt lat="46.18838768359274" lon="7.50125269824639"><ele>2457.2999877929688</ele></trkpt><trkpt lat="46.18847673153505" lon="7.501268341671675"><ele>2457.5999755859375</ele></trkpt><trkpt lat="46.1885657790117" lon="7.501283985096961"><ele>2457.5999755859375</ele></trkpt><trkpt lat="46.18865572614595" lon="7.501299629919231"><ele>2457.8999938964844</ele></trkpt><trkpt lat="46.18874477408826" lon="7.501315273810178"><ele>2458.5</ele></trkpt><trkpt lat="46.188833822030574" lon="7.501330917235464"><ele>2459.0999755859375</ele></trkpt><trkpt lat="46.18892376916483" lon="7.5013465620577335"><ele>2459.5</ele></trkpt><trkpt lat="46.18901281710714" lon="7.501362205948681"><ele>2459.699981689453</ele></trkpt><trkpt lat="46.18910186458379" lon="7.501377849839628"><ele>2459.699981689453</ele></trkpt><trkpt lat="46.1891909125261" lon="7.501393493730575"><ele>2459.3999938964844</ele></trkpt><trkpt lat="46.18928085966036" lon="7.5014091385528445"><ele>2459.0999755859375</ele></trkpt><trkpt lat="46.18936990713701" lon="7.501424782443792"><ele>2458.699981689453</ele></trkpt><trkpt lat="46.189458954613656" lon="7.501440426334739"><ele>2458.0999755859375</ele></trkpt><trkpt lat="46.189548002555966" lon="7.501456070225686"><ele>2457.5999755859375</ele></trkpt><trkpt lat="46.18963794969022" lon="7.501471715513617"><ele>2457.0999755859375</ele></trkpt><trkpt lat="46.18972699716687" lon="7.501487359404564"><ele>2456.5</ele></trkpt><trkpt lat="46.18981604464352" lon="7.501503003761172"><ele>2455.699981689453</ele></trkpt><trkpt lat="46.18990599177778" lon="7.501518648583442"><ele>2454.5</ele></trkpt><trkpt lat="46.18999503925443" lon="7.50153429294005"><ele>2453.0999755859375</ele></trkpt><trkpt lat="46.190084086731076" lon="7.5015499368309975"><ele>2451.3999938964844</ele></trkpt><trkpt lat="46.190173133742064" lon="7.501565581187606"><ele>2449.5</ele></trkpt><trkpt lat="46.19026308087632" lon="7.501581226475537"><ele>2447.3999938964844</ele></trkpt><trkpt lat="46.19035212788731" lon="7.501596870366484"><ele>2445.5999755859375</ele></trkpt><trkpt lat="46.19044117536396" lon="7.501612514723092"><ele>2444.0999755859375</ele></trkpt><trkpt lat="46.190531122498214" lon="7.501628160476685"><ele>2442.5</ele></trkpt><trkpt lat="46.1906201695092" lon="7.501643804833293"><ele>2440.8999938964844</ele></trkpt><trkpt lat="46.19070921698585" lon="7.501659449189901"><ele>2439.5</ele></trkpt><trkpt lat="46.1907982644625" lon="7.501675094012171"><ele>2437.7999877929688</ele></trkpt><trkpt lat="46.190888211131096" lon="7.501690739300102"><ele>2435.699981689453</ele></trkpt><trkpt lat="46.190977258607745" lon="7.501706384122372"><ele>2433.7999877929688</ele></trkpt><trkpt lat="46.191066306084394" lon="7.501722028944641"><ele>2432.199981689453</ele></trkpt><trkpt lat="46.19115535309538" lon="7.50173767330125"><ele>2430.5999755859375</ele></trkpt><trkpt lat="46.19124530022964" lon="7.501753319054842"><ele>2428.5</ele></trkpt><trkpt lat="46.19133434724063" lon="7.501768963877112"><ele>2425.7999877929688</ele></trkpt><trkpt lat="46.191423394717276" lon="7.501784608699381"><ele>2424.0999755859375</ele></trkpt><trkpt lat="46.19151334185153" lon="7.501800254918635"><ele>2423.699981689453</ele></trkpt><trkpt lat="46.19160238932818" lon="7.501815900206566"><ele>2423.699981689453</ele></trkpt><trkpt lat="46.19169143680483" lon="7.501831545494497"><ele>2423.5</ele></trkpt><trkpt lat="46.19178048428148" lon="7.501847190782428"><ele>2423.0999755859375</ele></trkpt><trkpt lat="46.19187043141574" lon="7.501862837001681"><ele>2422.5</ele></trkpt><trkpt lat="46.19195947935805" lon="7.501878482289612"><ele>2421.8999938964844</ele></trkpt><trkpt lat="46.1920485268347" lon="7.5018941280432045"><ele>2421.3999938964844</ele></trkpt><trkpt lat="46.19213847396895" lon="7.501909774262458"><ele>2421.0</ele></trkpt><trkpt lat="46.1922275214456" lon="7.50192542001605"><ele>2420.5</ele></trkpt><trkpt lat="46.19231656892225" lon="7.501941065769643"><ele>2421.0999755859375</ele></trkpt><trkpt lat="46.19240561733022" lon="7.501956711988896"><ele>2423.199981689453</ele></trkpt><trkpt lat="46.19249556446448" lon="7.501972358673811"><ele>2424.7999877929688</ele></trkpt><trkpt lat="46.19258461240679" lon="7.501988004427403"><ele>2424.7999877929688</ele></trkpt><trkpt lat="46.19267365988344" lon="7.5020036501809955"><ele>2424.0</ele></trkpt><trkpt lat="46.19276270736009" lon="7.502019295934588"><ele>2422.8999938964844</ele></trkpt><trkpt lat="46.192852654028684" lon="7.502034943085164"><ele>2421.2999877929688</ele></trkpt><trkpt lat="46.19294170150533" lon="7.502050588838756"><ele>2419.8999938964844</ele></trkpt><trkpt lat="46.19303074898198" lon="7.502066234592348"><ele>2419.7999877929688</ele></trkpt><trkpt lat="46.1931206965819" lon="7.502081882208586"><ele>2420.7999877929688</ele></trkpt><trkpt lat="46.19320974405855" lon="7.502097528427839"><ele>2421.3999938964844</ele></trkpt><trkpt lat="46.19329879200086" lon="7.502113174647093"><ele>2422.0</ele></trkpt><trkpt lat="46.19338783994317" lon="7.502128821332008"><ele>2424.2999877929688</ele></trkpt><trkpt lat="46.19347778800875" lon="7.502144469413906"><ele>2428.699981689453</ele></trkpt><trkpt lat="46.19356683641672" lon="7.5021601165644825"><ele>2433.7999877929688</ele></trkpt><trkpt lat="46.19365588482469" lon="7.502175763249397"><ele>2437.699981689453</ele></trkpt><trkpt lat="46.19374583289027" lon="7.502191411331296"><ele>2440.5</ele></trkpt><trkpt lat="46.19383488083258" lon="7.502207058016211"><ele>2442.5</ele></trkpt><trkpt lat="46.19392392877489" lon="7.502222705166787"><ele>2444.7999877929688</ele></trkpt><trkpt lat="46.194012977182865" lon="7.502238352317363"><ele>2447.8999938964844</ele></trkpt><trkpt lat="46.19410292478278" lon="7.502254000399262"><ele>2451.0999755859375</ele></trkpt><trkpt lat="46.19419197272509" lon="7.502269647549838"><ele>2453.3999938964844</ele></trkpt><trkpt lat="46.194281020667404" lon="7.502285294234753"><ele>2453.8999938964844</ele></trkpt><trkpt lat="46.19437006767839" lon="7.502300940454006"><ele>2450.7999877929688</ele></trkpt><trkpt lat="46.194460013415664" lon="7.502316587604582"><ele>2444.7999877929688</ele></trkpt><trkpt lat="46.19454905996099" lon="7.502332233823836"><ele>2438.699981689453</ele></trkpt><trkpt lat="46.19463810650632" lon="7.502347880043089"><ele>2434.0999755859375</ele></trkpt><trkpt lat="46.19472805317491" lon="7.502363527659327"><ele>2430.2999877929688</ele></trkpt><trkpt lat="46.19481709972024" lon="7.50237917387858"><ele>2426.3999938964844</ele></trkpt><trkpt lat="46.19490614673123" lon="7.502394820563495"><ele>2422.5999755859375</ele></trkpt><trkpt lat="46.194995193742216" lon="7.50241046724841"><ele>2418.5999755859375</ele></trkpt><trkpt lat="46.19508513994515" lon="7.502426114864647"><ele>2414.3999938964844</ele></trkpt><trkpt lat="46.19517418695614" lon="7.502441761549562"><ele>2411.0999755859375</ele></trkpt><trkpt lat="46.195263233967125" lon="7.502457408700138"><ele>2407.7999877929688</ele></trkpt><trkpt lat="46.19535318017006" lon="7.502473056316376"><ele>2403.5999755859375</ele></trkpt><trkpt lat="46.195442226715386" lon="7.502488703001291"><ele>2399.199981689453</ele></trkpt><trkpt lat="46.195531273726374" lon="7.502504350151867"><ele>2394.5999755859375</ele></trkpt><trkpt lat="46.1956203202717" lon="7.5025199968367815"><ele>2389.5</ele></trkpt><trkpt lat="46.195710266474634" lon="7.502535644453019"><ele>2384.2999877929688</ele></trkpt><trkpt lat="46.19579931301996" lon="7.502551291603595"><ele>2379.3999938964844</ele></trkpt><trkpt lat="46.19588835956529" lon="7.502566938754171"><ele>2375.7999877929688</ele></trkpt><trkpt lat="46.19597740704194" lon="7.5025825863704085"><ele>2374.199981689453</ele></trkpt><trkpt lat="46.19606735417619" lon="7.5025982349179685"><ele>2374.0</ele></trkpt><trkpt lat="46.19615640165284" lon="7.502613882999867"><ele>2374.2999877929688</ele></trkpt><trkpt lat="46.19624544959515" lon="7.502629531081766"><ele>2375.0</ele></trkpt><trkpt lat="46.19633539719507" lon="7.502645180560648"><ele>2377.0999755859375</ele></trkpt><trkpt lat="46.19642444513738" lon="7.502660828642547"><ele>2380.2999877929688</ele></trkpt><trkpt lat="46.19651349307969" lon="7.502676477190107"><ele>2383.0999755859375</ele></trkpt><trkpt lat="46.196602541022" lon="7.502692125737667"><ele>2385.2999877929688</ele></trkpt><trkpt lat="46.19669248862192" lon="7.50270777521655"><ele>2387.0999755859375</ele></trkpt><trkpt lat="46.19678153656423" lon="7.50272342376411"><ele>2388.199981689453</ele></trkpt><trkpt lat="46.19687058404088" lon="7.502739071846008"><ele>2389.0</ele></trkpt><trkpt lat="46.1969605316408" lon="7.502754721324891"><ele>2389.7999877929688</ele></trkpt><trkpt lat="46.19704957911745" lon="7.502770369872451"><ele>2390.3999938964844</ele></trkpt><trkpt lat="46.197138626594096" lon="7.502786018420011"><ele>2390.5</ele></trkpt><trkpt lat="46.197227674070746" lon="7.502801666967571"><ele>2390.3999938964844</ele></trkpt><trkpt lat="46.197317621205" lon="7.502817316446453"><ele>2390.8999938964844</ele></trkpt><trkpt lat="46.19740666914731" lon="7.502832965459675"><ele>2392.0999755859375</ele></trkpt><trkpt lat="46.19749571708962" lon="7.502848614007235"><ele>2393.5999755859375</ele></trkpt><trkpt lat="46.197584765031934" lon="7.502864263020456"><ele>2395.2999877929688</ele></trkpt><trkpt lat="46.19767471216619" lon="7.502879912965"><ele>2397.2999877929688</ele></trkpt><trkpt lat="46.1977637601085" lon="7.502895561978221"><ele>2398.8999938964844</ele></trkpt><trkpt lat="46.19785280805081" lon="7.502911210991442"><ele>2399.5999755859375</ele></trkpt><trkpt lat="46.197942754719406" lon="7.502926860935986"><ele>2399.5</ele></trkpt><trkpt lat="46.198031802196056" lon="7.502942509949207"><ele>2399.0999755859375</ele></trkpt><trkpt lat="46.198120849672705" lon="7.502958158962429"><ele>2398.8999938964844</ele></trkpt><trkpt lat="46.198209897149354" lon="7.50297380797565"><ele>2398.5</ele></trkpt><trkpt lat="46.19829984428361" lon="7.502989457920194"><ele>2397.199981689453</ele></trkpt><trkpt lat="46.1983888912946" lon="7.503005106467754"><ele>2395.0</ele></trkpt><trkpt lat="46.19847793830559" lon="7.503020755480975"><ele>2391.5</ele></trkpt><trkpt lat="46.19856788450852" lon="7.5030364049598575"><ele>2387.699981689453</ele></trkpt><trkpt lat="46.19865693151951" lon="7.503052053973079"><ele>2385.699981689453</ele></trkpt><trkpt lat="46.198745978530496" lon="7.5030677029863"><ele>2383.2999877929688</ele></trkpt><trkpt lat="46.198835025541484" lon="7.503083351999521"><ele>2380.5999755859375</ele></trkpt><trkpt lat="46.19892497221008" lon="7.503099002409726"><ele>2379.0999755859375</ele></trkpt><trkpt lat="46.19901401968673" lon="7.503114651888609"><ele>2378.5999755859375</ele></trkpt><trkpt lat="46.19910306716338" lon="7.5031303013674915"><ele>2378.7999877929688</ele></trkpt><trkpt lat="46.19919211464003" lon="7.503145950846374"><ele>2377.699981689453</ele></trkpt><trkpt lat="46.19928206130862" lon="7.503161601256579"><ele>2375.199981689453</ele></trkpt><trkpt lat="46.19937110831961" lon="7.5031772502698"><ele>2372.3999938964844</ele></trkpt><trkpt lat="46.19946015486494" lon="7.503192899283022"><ele>2367.699981689453</ele></trkpt><trkpt lat="46.19955010060221" lon="7.5032085492275655"><ele>2360.8999938964844</ele></trkpt><trkpt lat="46.199639146681875" lon="7.503224198240787"><ele>2353.699981689453</ele></trkpt><trkpt lat="46.1997281932272" lon="7.503239847254008"><ele>2348.5</ele></trkpt><trkpt lat="46.19981723977253" lon="7.503255496732891"><ele>2344.5</ele></trkpt><trkpt lat="46.19990718597546" lon="7.503271147143096"><ele>2339.7999877929688</ele></trkpt><trkpt lat="46.19999623252079" lon="7.503286796621978"><ele>2335.3999938964844</ele></trkpt><trkpt lat="46.20008527953178" lon="7.503302446100861"><ele>2332.5</ele></trkpt><trkpt lat="46.20017522620037" lon="7.503318096976727"><ele>2331.199981689453</ele></trkpt><trkpt lat="46.20026427367702" lon="7.503333747386932"><ele>2330.699981689453</ele></trkpt><trkpt lat="46.20035332115367" lon="7.503349397331476"><ele>2330.5</ele></trkpt><trkpt lat="46.20044236863032" lon="7.503365047741681"><ele>2329.699981689453</ele></trkpt><trkpt lat="46.20056469645351" lon="7.50338591914624"><ele>2328.7999877929688</ele></trkpt><trkpt lat="46.200578262563795" lon="7.503257680218667"><ele>2330.3999938964844</ele></trkpt><trkpt lat="46.20059182913974" lon="7.503129441756755"><ele>2334.0</ele></trkpt><trkpt lat="46.2006017761305" lon="7.5030374731868505"><ele>2335.699981689453</ele></trkpt><trkpt lat="46.200690819881856" lon="7.5030596000142395"><ele>2333.8999938964844</ele></trkpt><trkpt lat="46.20077896397561" lon="7.503080430440605"><ele>2330.5999755859375</ele></trkpt><trkpt lat="46.20086800772697" lon="7.503102557733655"><ele>2327.699981689453</ele></trkpt><trkpt lat="46.20095615135506" lon="7.503124684095383"><ele>2324.699981689453</ele></trkpt><trkpt lat="46.201045194640756" lon="7.503146810922772"><ele>2321.2999877929688</ele></trkpt><trkpt lat="46.201134238392115" lon="7.503167642746121"><ele>2318.699981689453</ele></trkpt><trkpt lat="46.20121698593721" lon="7.50318846758455"><ele>2317.0</ele></trkpt><trkpt lat="46.2012394038029" lon="7.5033141588792205"><ele>2315.0999755859375</ele></trkpt><trkpt lat="46.2012627213262" lon="7.503438555635512"><ele>2313.2999877929688</ele></trkpt><trkpt lat="46.201285139191896" lon="7.503564247395843"><ele>2311.8999938964844</ele></trkpt><trkpt lat="46.201308456249535" lon="7.503689940087497"><ele>2311.0</ele></trkpt><trkpt lat="46.20133087364957" lon="7.503815631847829"><ele>2310.199981689453</ele></trkpt><trkpt lat="46.20135419070721" lon="7.503940029069781"><ele>2308.8999938964844</ele></trkpt><trkpt lat="46.20137660764158" lon="7.504065720830113"><ele>2306.8999938964844</ele></trkpt><trkpt lat="46.201399923767895" lon="7.504191413987428"><ele>2304.7999877929688</ele></trkpt><trkpt lat="46.20142234116793" lon="7.504315810278058"><ele>2302.5999755859375</ele></trkpt><trkpt lat="46.20144655229524" lon="7.504449277650565"><ele>2300.5999755859375</ele></trkpt><trkpt lat="46.201509467326105" lon="7.504542630165815"><ele>2299.0999755859375</ele></trkpt><trkpt lat="46.20157148363069" lon="7.504634686745703"><ele>2297.7999877929688</ele></trkpt><trkpt lat="46.201634398661554" lon="7.504728039260954"><ele>2295.7999877929688</ele></trkpt><trkpt lat="46.20169731369242" lon="7.504821392707527"><ele>2293.5</ele></trkpt><trkpt lat="46.20176022918895" lon="7.504913450218737"><ele>2291.5999755859375</ele></trkpt><trkpt lat="46.20182583946735" lon="7.505011989269406"><ele>2290.199981689453</ele></trkpt><trkpt lat="46.20186355244368" lon="7.505129928234965"><ele>2289.199981689453</ele></trkpt><trkpt lat="46.20190396020189" lon="7.505254347808659"><ele>2288.2999877929688</ele></trkpt><trkpt lat="46.20193897327408" lon="7.505373579449952"><ele>2287.3999938964844</ele></trkpt><trkpt lat="46.201973986346275" lon="7.505492810625583"><ele>2286.8999938964844</ele></trkpt><trkpt lat="46.20200899941847" lon="7.505612042732537"><ele>2286.0999755859375</ele></trkpt><trkpt lat="46.202044011093676" lon="7.505732569843531"><ele>2284.699981689453</ele></trkpt><trkpt lat="46.20207812450826" lon="7.505851800553501"><ele>2283.199981689453</ele></trkpt><trkpt lat="46.2021176260896" lon="7.505985288880765"><ele>2281.699981689453</ele></trkpt><trkpt lat="46.202160738408566" lon="7.5060980534181"><ele>2280.0999755859375</ele></trkpt><trkpt lat="46.20220474898815" lon="7.506212114356458"><ele>2278.3999938964844</ele></trkpt><trkpt lat="46.20224786084145" lon="7.506324879359454"><ele>2277.0</ele></trkpt><trkpt lat="46.20229187142104" lon="7.5064389407634735"><ele>2275.5</ele></trkpt><trkpt lat="46.20233498327434" lon="7.5065517062321305"><ele>2273.7999877929688</ele></trkpt><trkpt lat="46.202378993388265" lon="7.506665768101811"><ele>2272.0</ele></trkpt><trkpt lat="46.20243647554889" lon="7.50681612174958"><ele>2270.199981689453</ele></trkpt><trkpt lat="46.202426503412426" lon="7.506944368593395"><ele>2268.0</ele></trkpt><trkpt lat="46.2024110998027" lon="7.507129611913115"><ele>2265.2999877929688</ele></trkpt><trkpt lat="46.202461410313845" lon="7.507237204816192"><ele>2263.199981689453</ele></trkpt><trkpt lat="46.20252968929708" lon="7.507382390554994"><ele>2261.199981689453</ele></trkpt><trkpt lat="46.20247475383803" lon="7.5074846697971225"><ele>2257.0999755859375</ele></trkpt><trkpt lat="46.202405410353094" lon="7.507611546199769"><ele>2251.8999938964844</ele></trkpt><trkpt lat="46.202324415091425" lon="7.507668448146433"><ele>2247.7999877929688</ele></trkpt><trkpt lat="46.20224342029542" lon="7.507724054623395"><ele>2243.7999877929688</ele></trkpt><trkpt lat="46.20216242503375" lon="7.507780956570059"><ele>2240.0</ele></trkpt><trkpt lat="46.20206793071702" lon="7.507846910040826"><ele>2236.699981689453</ele></trkpt><trkpt lat="46.20212994236499" lon="7.507941561751068"><ele>2232.8999938964844</ele></trkpt><trkpt lat="46.202191055286676" lon="7.508034917060286"><ele>2229.3999938964844</ele></trkpt><trkpt lat="46.202253066934645" lon="7.508129569236189"><ele>2226.7999877929688</ele></trkpt><trkpt lat="46.202315078582615" lon="7.508224221877754"><ele>2224.699981689453</ele></trkpt><trkpt lat="46.202353722881526" lon="7.508283865172416"><ele>2223.0</ele></trkpt><trkpt lat="46.20238423347473" lon="7.508405684959143"><ele>2220.8999938964844</ele></trkpt><trkpt lat="46.20241564325988" lon="7.508527505677193"><ele>2218.7999877929688</ele></trkpt><trkpt lat="46.20243897521868" lon="7.50861951848492"><ele>2216.699981689453</ele></trkpt><trkpt lat="46.202440694440156" lon="7.508749075233936"><ele>2214.0999755859375</ele></trkpt><trkpt lat="46.20244241319597" lon="7.508878631517291"><ele>2210.7999877929688</ele></trkpt><trkpt lat="46.20244323275983" lon="7.509008186869323"><ele>2207.2999877929688</ele></trkpt><trkpt lat="46.202444951515645" lon="7.509137743152678"><ele>2204.2999877929688</ele></trkpt><trkpt lat="46.202446670271456" lon="7.509267299901694"><ele>2202.3999938964844</ele></trkpt><trkpt lat="46.20244838902727" lon="7.50939685665071"><ele>2200.5999755859375</ele></trkpt><trkpt lat="46.20244920765981" lon="7.509526412002742"><ele>2198.199981689453</ele></trkpt><trkpt lat="46.20245092594996" lon="7.509655968751758"><ele>2195.3999938964844</ele></trkpt><trkpt lat="46.20245264424011" lon="7.509785525035113"><ele>2192.5</ele></trkpt><trkpt lat="46.2024543620646" lon="7.509915081784129"><ele>2189.5</ele></trkpt><trkpt lat="46.20245518023148" lon="7.510044637136161"><ele>2186.2999877929688</ele></trkpt><trkpt lat="46.20245776278898" lon="7.510229903273284"><ele>2183.5999755859375</ele></trkpt><trkpt lat="46.202518991194665" lon="7.510135407093912"><ele>2181.199981689453</ele></trkpt><trkpt lat="46.20258111925796" lon="7.510040912311524"><ele>2178.0999755859375</ele></trkpt><trkpt lat="46.202647749800235" lon="7.509938649367541"><ele>2175.0999755859375</ele></trkpt><trkpt lat="46.20266042323783" lon="7.509810405783355"><ele>2173.8999938964844</ele></trkpt><trkpt lat="46.202673096675426" lon="7.509682162664831"><ele>2174.0</ele></trkpt><trkpt lat="46.20268577011302" lon="7.509553919080645"><ele>2174.7999877929688</ele></trkpt><trkpt lat="46.202699343208224" lon="7.509425676893443"><ele>2175.2999877929688</ele></trkpt><trkpt lat="46.20271201618016" lon="7.509297433309257"><ele>2175.3999938964844</ele></trkpt><trkpt lat="46.202725594397634" lon="7.5091601219028234"><ele>2174.2999877929688</ele></trkpt><trkpt lat="46.202786821871996" lon="7.5090656243264675"><ele>2170.7999877929688</ele></trkpt><trkpt lat="46.202848048880696" lon="7.508971125818789"><ele>2165.199981689453</ele></trkpt><trkpt lat="46.20291017508134" lon="7.508876628242433"><ele>2159.2999877929688</ele></trkpt><trkpt lat="46.202984008938074" lon="7.508761417120695"><ele>2155.7999877929688</ele></trkpt><trkpt lat="46.20303085306659" lon="7.508651353884488"><ele>2154.3999938964844</ele></trkpt><trkpt lat="46.203077698126435" lon="7.508539994712919"><ele>2153.199981689453</ele></trkpt><trkpt lat="46.203124542254955" lon="7.508429931011051"><ele>2152.199981689453</ele></trkpt><trkpt lat="46.2031713873148" lon="7.50831857137382"><ele>2152.0</ele></trkpt><trkpt lat="46.20321733178571" lon="7.50820850674063"><ele>2152.3999938964844</ele></trkpt><trkpt lat="46.20327498624101" lon="7.508072544820607"><ele>2152.5</ele></trkpt><trkpt lat="46.20336226280779" lon="7.5080402651801705"><ele>2151.3999938964844</ele></trkpt><trkpt lat="46.20344953844324" lon="7.508009281009436"><ele>2150.2999877929688</ele></trkpt><trkpt lat="46.20353681501001" lon="7.5079770013689995"><ele>2149.5</ele></trkpt><trkpt lat="46.203624091576785" lon="7.507944721728563"><ele>2148.0999755859375</ele></trkpt><trkpt lat="46.203711367212236" lon="7.507913737092167"><ele>2145.5</ele></trkpt><trkpt lat="46.20379774365574" lon="7.5078814551234245"><ele>2141.699981689453</ele></trkpt><trkpt lat="46.20388501929119" lon="7.507849174551666"><ele>2137.5999755859375</ele></trkpt><trkpt lat="46.20397229446098" lon="7.507818189449608"><ele>2133.199981689453</ele></trkpt><trkpt lat="46.204059570562094" lon="7.50778590887785"><ele>2129.199981689453</ele></trkpt><trkpt lat="46.20414684666321" lon="7.5077536278404295"><ele>2126.3999938964844</ele></trkpt><trkpt lat="46.204234121833" lon="7.507722642738372"><ele>2123.0999755859375</ele></trkpt><trkpt lat="46.20435378886759" lon="7.507678741589189"><ele>2118.8999938964844</ele></trkpt><trkpt lat="46.204308743122965" lon="7.507790105883032"><ele>2115.699981689453</ele></trkpt><trkpt lat="46.20426279725507" lon="7.507902764249593"><ele>2112.5</ele></trkpt><trkpt lat="46.20421775104478" lon="7.508014127612114"><ele>2109.0999755859375</ele></trkpt><trkpt lat="46.20417270436883" lon="7.5081267869099975"><ele>2106.699981689453</ele></trkpt><trkpt lat="46.20413847034797" lon="7.508209661114961"><ele>2104.2999877929688</ele></trkpt><trkpt lat="46.20412040129304" lon="7.508336605038494"><ele>2101.0999755859375</ele></trkpt><trkpt lat="46.204103231430054" lon="7.508463550824672"><ele>2098.0999755859375</ele></trkpt><trkpt lat="46.2040851614438" lon="7.5085917906835675"><ele>2095.7999877929688</ele></trkpt><trkpt lat="46.204171541146934" lon="7.508555623237044"><ele>2093.7999877929688</ele></trkpt><trkpt lat="46.204257919453084" lon="7.508520751260221"><ele>2091.3999938964844</ele></trkpt><trkpt lat="46.20435059722513" lon="7.508482000790536"><ele>2088.8999938964844</ele></trkpt><trkpt lat="46.204356842208654" lon="7.508566221687943"><ele>2086.0</ele></trkpt><trkpt lat="46.20444590551779" lon="7.508553377818316"><ele>2081.7999877929688</ele></trkpt><trkpt lat="46.20453586895019" lon="7.508539239410311"><ele>2075.8999938964844</ele></trkpt><trkpt lat="46.20467441249639" lon="7.508518684655428"><ele>2069.8999938964844</ele></trkpt><trkpt lat="46.204642857890576" lon="7.508631360717118"><ele>2064.2999877929688</ele></trkpt><trkpt lat="46.20476693706587" lon="7.508727392181754"><ele>2058.0999755859375</ele></trkpt><trkpt lat="46.20484344055876" lon="7.508658821694553"><ele>2053.7999877929688</ele></trkpt><trkpt lat="46.20491994405165" lon="7.508591546677053"><ele>2051.0</ele></trkpt><trkpt lat="46.20500901155174" lon="7.508572224993259"><ele>2047.6999816894531</ele></trkpt><trkpt lat="46.205098079517484" lon="7.508551607839763"><ele>2043.8999938964844</ele></trkpt><trkpt lat="46.20518624735996" lon="7.508532284758985"><ele>2040.1999816894531</ele></trkpt><trkpt lat="46.205275314860046" lon="7.5085129626095295"><ele>2036.5999755859375</ele></trkpt><trkpt lat="46.20536438329145" lon="7.508492344990373"><ele>2032.7999877929688</ele></trkpt><trkpt lat="46.20543095842004" lon="7.508478176780045"><ele>2028.5999755859375</ele></trkpt><trkpt lat="46.2055209139362" lon="7.508476994466037"><ele>2024.1999816894531</ele></trkpt><trkpt lat="46.20561086991802" lon="7.508475812152028"><ele>2020.5</ele></trkpt><trkpt lat="46.2057008263655" lon="7.508474630303681"><ele>2017.5999755859375</ele></trkpt><trkpt lat="46.20579078234732" lon="7.508473447989672"><ele>2014.7999877929688</ele></trkpt><trkpt lat="46.20588073739782" lon="7.508473561145365"><ele>2011.3999938964844</ele></trkpt><trkpt lat="46.20597069337964" lon="7.508472378831357"><ele>2007.5</ele></trkpt><trkpt lat="46.20603816024959" lon="7.50847116811201"><ele>2003.3999938964844</ele></trkpt><trkpt lat="46.20604527648538" lon="7.508600739762187"><ele>1999.0999755859375</ele></trkpt><trkpt lat="46.2060523936525" lon="7.508729015942663"><ele>1994.3999938964844</ele></trkpt><trkpt lat="46.20605950988829" lon="7.50885858759284"><ele>1990.0999755859375</ele></trkpt><trkpt lat="46.206066626124084" lon="7.508988159243017"><ele>1986.3999938964844</ele></trkpt><trkpt lat="46.2060737432912" lon="7.509116435889155"><ele>1983.5</ele></trkpt><trkpt lat="46.20608085859567" lon="7.5092473034746945"><ele>1981.0999755859375</ele></trkpt><trkpt lat="46.20616538869217" lon="7.509292758535594"><ele>1978.6999816894531</ele></trkpt><trkpt lat="46.20623013470322" lon="7.509327823296189"><ele>1976.1999816894531</ele></trkpt><trkpt lat="46.20629659341648" lon="7.509502819273621"><ele>1973.6999816894531</ele></trkpt><trkpt lat="46.206384734250605" lon="7.509527549613267"><ele>1971.5</ele></trkpt><trkpt lat="46.20647287555039" lon="7.5095522799529135"><ele>1969.8999938964844</ele></trkpt><trkpt lat="46.20656191604212" lon="7.509577011223882"><ele>1968.0999755859375</ele></trkpt><trkpt lat="46.20667164353654" lon="7.5096069518476725"><ele>1966.2999877929688</ele></trkpt><trkpt lat="46.20675892056897" lon="7.509574672672898"><ele>1965.0</ele></trkpt><trkpt lat="46.20684619760141" lon="7.509542393498123"><ele>1964.1999816894531</ele></trkpt><trkpt lat="46.20693347463384" lon="7.509510114323348"><ele>1963.3999938964844</ele></trkpt><trkpt lat="46.20704324543476" lon="7.509470089804381"><ele>1962.5999755859375</ele></trkpt><trkpt lat="46.20705216098577" lon="7.509599667042494"><ele>1963.0999755859375</ele></trkpt><trkpt lat="46.20706107560545" lon="7.509730540215969"><ele>1965.0</ele></trkpt><trkpt lat="46.207130291033536" lon="7.509812256321311"><ele>1967.0</ele></trkpt><trkpt lat="46.207205798476934" lon="7.509901754558086"><ele>1967.0</ele></trkpt><trkpt lat="46.20729486644268" lon="7.509882434271276"><ele>1965.3999938964844</ele></trkpt><trkpt lat="46.207383933942765" lon="7.509864409919828"><ele>1964.1999816894531</ele></trkpt><trkpt lat="46.20747300237417" lon="7.509845089633018"><ele>1963.2999877929688</ele></trkpt><trkpt lat="46.20756207033992" lon="7.509825769811869"><ele>1962.6999816894531</ele></trkpt><trkpt lat="46.20765113784" lon="7.50980774499476"><ele>1962.5</ele></trkpt><trkpt lat="46.20772221265361" lon="7.509792288765311"><ele>1962.0</ele></trkpt><trkpt lat="46.20780584169552" lon="7.509840336628258"><ele>1960.6999816894531</ele></trkpt><trkpt lat="46.20788947073743" lon="7.509888384491205"><ele>1960.0</ele></trkpt><trkpt lat="46.20797309977934" lon="7.509936432354152"><ele>1959.7999877929688</ele></trkpt><trkpt lat="46.20805582823232" lon="7.509985775221139"><ele>1959.2999877929688</ele></trkpt><trkpt lat="46.208144852891564" lon="7.510036421939731"><ele>1958.3999938964844</ele></trkpt><trkpt lat="46.20823123306036" lon="7.510000254493207"><ele>1957.5999755859375</ele></trkpt><trkpt lat="46.208317612763494" lon="7.509964087046683"><ele>1956.8999938964844</ele></trkpt><trkpt lat="46.20840399293229" lon="7.509927919134498"><ele>1955.7999877929688</ele></trkpt><trkpt lat="46.20850116992369" lon="7.509887877851725"><ele>1953.5</ele></trkpt><trkpt lat="46.20852553471923" lon="7.509763522539288"><ele>1950.1999816894531</ele></trkpt><trkpt lat="46.208549899980426" lon="7.509637871291488"><ele>1946.8999938964844</ele></trkpt><trkpt lat="46.20856704516336" lon="7.50955108134076"><ele>1944.2999877929688</ele></trkpt><trkpt lat="46.20863805990666" lon="7.509631505701691"><ele>1942.2999877929688</ele></trkpt><trkpt lat="46.208709076046944" lon="7.509710634127259"><ele>1941.0999755859375</ele></trkpt><trkpt lat="46.20878009079024" lon="7.5097910589538515"><ele>1940.6999816894531</ele></trkpt><trkpt lat="46.20884930854663" lon="7.509868890047073"><ele>1939.2999877929688</ele></trkpt><trkpt lat="46.20893030334264" lon="7.509811983443797"><ele>1935.7999877929688</ele></trkpt><trkpt lat="46.2090103989467" lon="7.509755074977875"><ele>1931.3999938964844</ele></trkpt><trkpt lat="46.209136391524225" lon="7.509665833320469"><ele>1926.8999938964844</ele></trkpt><trkpt lat="46.20919209998101" lon="7.509768265299499"><ele>1922.3999938964844</ele></trkpt><trkpt lat="46.209277460351586" lon="7.509923859965056"><ele>1918.6999816894531</ele></trkpt><trkpt lat="46.20936469780281" lon="7.509955069050193"><ele>1915.8999938964844</ele></trkpt><trkpt lat="46.2094519357197" lon="7.5099849831312895"><ele>1913.7999877929688</ele></trkpt><trkpt lat="46.209539173170924" lon="7.510016193147749"><ele>1911.5999755859375</ele></trkpt><trkpt lat="46.209627309814095" lon="7.510047403629869"><ele>1908.6999816894531</ele></trkpt><trkpt lat="46.20971454726532" lon="7.5100786136463284"><ele>1906.0999755859375</ele></trkpt><trkpt lat="46.20980178518221" lon="7.510108528193086"><ele>1903.8999938964844</ele></trkpt><trkpt lat="46.20988902263343" lon="7.510139737743884"><ele>1900.2999877929688</ele></trkpt><trkpt lat="46.209976259153336" lon="7.5101709477603436"><ele>1895.8999938964844</ele></trkpt><trkpt lat="46.21006349660456" lon="7.510202157776803"><ele>1892.5999755859375</ele></trkpt><trkpt lat="46.21019750088453" lon="7.510248977690935"><ele>1890.2999877929688</ele></trkpt><trkpt lat="46.21028022840619" lon="7.51029961835593"><ele>1888.0999755859375</ele></trkpt><trkpt lat="46.210362954530865" lon="7.510351554956287"><ele>1885.0999755859375</ele></trkpt><trkpt lat="46.21044568158686" lon="7.510402195621282"><ele>1881.2999877929688</ele></trkpt><trkpt lat="46.210528407711536" lon="7.5104541326873"><ele>1877.8999938964844</ele></trkpt><trkpt lat="46.210611135233194" lon="7.5105047738179564"><ele>1874.8999938964844</ele></trkpt><trkpt lat="46.21069296170026" lon="7.5105567099526525"><ele>1872.5999755859375</ele></trkpt><trkpt lat="46.21077568922192" lon="7.51060735154897"><ele>1871.1999816894531</ele></trkpt><trkpt lat="46.21085841674358" lon="7.510657993610948"><ele>1870.0</ele></trkpt><trkpt lat="46.21095642959699" lon="7.510719021316618"><ele>1868.0</ele></trkpt><trkpt lat="46.21102038258687" lon="7.510584346484393"><ele>1865.0</ele></trkpt><trkpt lat="46.21110491314903" lon="7.510628512129188"><ele>1863.0999755859375</ele></trkpt><trkpt lat="46.21118764486164" lon="7.510671379975975"><ele>1860.8999938964844</ele></trkpt><trkpt lat="46.21123179374263" lon="7.510558706242591"><ele>1856.7999877929688</ele></trkpt><trkpt lat="46.211270534899086" lon="7.510461573954672"><ele>1852.5999755859375</ele></trkpt><trkpt lat="46.211359600070864" lon="7.510446140542626"><ele>1848.5</ele></trkpt><trkpt lat="46.211448666173965" lon="7.510429410729557"><ele>1844.0999755859375</ele></trkpt><trkpt lat="46.21153863100335" lon="7.510413978248835"><ele>1840.2999877929688</ele></trkpt><trkpt lat="46.21162769617513" lon="7.510398544371128"><ele>1836.0999755859375</ele></trkpt><trkpt lat="46.211716761346906" lon="7.5103831104934216"><ele>1831.6999816894531</ele></trkpt><trkpt lat="46.21180582745001" lon="7.5103663806803524"><ele>1827.6999816894531</ele></trkpt><trkpt lat="46.21189579227939" lon="7.5103509477339685"><ele>1823.0999755859375</ele></trkpt><trkpt lat="46.21201184717938" lon="7.5103303655050695"><ele>1817.8999938964844</ele></trkpt><trkpt lat="46.21210179897025" lon="7.510335664730519"><ele>1813.1999816894531</ele></trkpt><trkpt lat="46.21219175029546" lon="7.5103422603569925"><ele>1809.0</ele></trkpt><trkpt lat="46.21228170208633" lon="7.510347559582442"><ele>1804.8999938964844</ele></trkpt><trkpt lat="46.2123716538772" lon="7.510352859273553"><ele>1800.3999938964844</ele></trkpt><trkpt lat="46.212461604736745" lon="7.510359454434365"><ele>1795.6999816894531</ele></trkpt><trkpt lat="46.21252906834707" lon="7.510363428853452"><ele>1791.2999877929688</ele></trkpt><trkpt lat="46.21260819025338" lon="7.510424433276057"><ele>1787.0999755859375</ele></trkpt><trkpt lat="46.21268731262535" lon="7.510485437698662"><ele>1782.8999938964844</ele></trkpt><trkpt lat="46.212766434066" lon="7.510547738522291"><ele>1779.1999816894531</ele></trkpt><trkpt lat="46.212846455629915" lon="7.51060874434188"><ele>1776.0999755859375</ele></trkpt><trkpt lat="46.21292557800189" lon="7.510669749695808"><ele>1773.2999877929688</ele></trkpt><trkpt lat="46.21300470037386" lon="7.510730755515397"><ele>1771.0999755859375</ele></trkpt><trkpt lat="46.21308382274583" lon="7.5107917613349855"><ele>1769.5</ele></trkpt><trkpt lat="46.21316294465214" lon="7.510854063089937"><ele>1767.8999938964844</ele></trkpt><trkpt lat="46.21324206655845" lon="7.510915068909526"><ele>1765.2999877929688</ele></trkpt><trkpt lat="46.21336704399437" lon="7.511011122260243"><ele>1761.8999938964844</ele></trkpt><trkpt lat="46.21342554874718" lon="7.51095677446574"><ele>1757.5999755859375</ele></trkpt><trkpt lat="46.21342203160748" lon="7.510827187914401"><ele>1752.2999877929688</ele></trkpt><trkpt lat="46.213418514002115" lon="7.510697601828724"><ele>1747.1999816894531</ele></trkpt><trkpt lat="46.21341498242691" lon="7.510590044315904"><ele>1742.5999755859375</ele></trkpt><trkpt lat="46.21350315539166" lon="7.510562947019935"><ele>1737.7999877929688</ele></trkpt><trkpt lat="46.21359042869881" lon="7.51053584786132"><ele>1732.6999816894531</ele></trkpt><trkpt lat="46.21367860259488" lon="7.510507454164326"><ele>1728.3999938964844</ele></trkpt><trkpt lat="46.21375507907942" lon="7.51048422884196"><ele>1725.2999877929688</ele></trkpt><trkpt lat="46.213698470033705" lon="7.5103830811567605"><ele>1722.7999877929688</ele></trkpt><trkpt lat="46.21364186052233" lon="7.5102819334715605"><ele>1720.1999816894531</ele></trkpt><trkpt lat="46.21358614973724" lon="7.510182083118707"><ele>1717.5999755859375</ele></trkpt><trkpt lat="46.21352954022586" lon="7.5100809363648295"><ele>1715.6999816894531</ele></trkpt><trkpt lat="46.21348730754107" lon="7.5100057241506875"><ele>1714.0</ele></trkpt><trkpt lat="46.213484689127654" lon="7.509876139461994"><ele>1711.5</ele></trkpt><trkpt lat="46.21348208701238" lon="7.509720638394356"><ele>1708.7999877929688</ele></trkpt><trkpt lat="46.213586358353496" lon="7.509843874722719"><ele>1705.7999877929688</ele></trkpt><trkpt lat="46.21367542631924" lon="7.509824552107602"><ele>1702.5999755859375</ele></trkpt><trkpt lat="46.21376449475065" lon="7.509803933557123"><ele>1699.3999938964844</ele></trkpt><trkpt lat="46.21385266305879" lon="7.509784609545022"><ele>1696.5</ele></trkpt><trkpt lat="46.213941731955856" lon="7.509763990994543"><ele>1693.6999816894531</ele></trkpt><trkpt lat="46.21407668385655" lon="7.50973436050117"><ele>1690.8999938964844</ele></trkpt><trkpt lat="46.2141666309908" lon="7.509747434407473"><ele>1688.1999816894531</ele></trkpt><trkpt lat="46.214255679398775" lon="7.50975921144709"><ele>1686.0</ele></trkpt><trkpt lat="46.214392399881035" lon="7.509778825100511"><ele>1684.1999816894531</ele></trkpt><trkpt lat="46.21447152318433" lon="7.5098398309201"><ele>1683.5999755859375</ele></trkpt><trkpt lat="46.21455064648762" lon="7.50990083720535"><ele>1682.8999938964844</ele></trkpt><trkpt lat="46.21463066898286" lon="7.5099618448875844"><ele>1681.2999877929688</ele></trkpt><trkpt lat="46.214709791820496" lon="7.510022851638496"><ele>1679.5999755859375</ele></trkpt><trkpt lat="46.21477452805266" lon="7.510073472745717"><ele>1678.2999877929688</ele></trkpt><trkpt lat="46.214863571338356" lon="7.510094321332872"><ele>1676.7999877929688</ele></trkpt><trkpt lat="46.214951714966446" lon="7.510115168988705"><ele>1675.0</ele></trkpt><trkpt lat="46.21504075685516" lon="7.510137313511223"><ele>1673.1999816894531</ele></trkpt><trkpt lat="46.21512980014086" lon="7.510158162098378"><ele>1671.3999938964844</ele></trkpt><trkpt lat="46.21523503260687" lon="7.51018291991204"><ele>1669.7999877929688</ele></trkpt><trkpt lat="46.21531775966287" lon="7.51023486116901"><ele>1668.6999816894531</ele></trkpt><trkpt lat="46.215399586595595" lon="7.510286801494658"><ele>1667.5999755859375</ele></trkpt><trkpt lat="46.21548231365159" lon="7.5103387432172894"><ele>1666.6999816894531</ele></trkpt><trkpt lat="46.215554249472916" lon="7.510384191758931"><ele>1666.2999877929688</ele></trkpt><trkpt lat="46.21563704125583" lon="7.510332464706153"><ele>1665.6999816894531</ele></trkpt><trkpt lat="46.21571893338114" lon="7.510280736722052"><ele>1665.0</ele></trkpt><trkpt lat="46.21580172562972" lon="7.510229009669274"><ele>1664.7999877929688</ele></trkpt><trkpt lat="46.21585751976818" lon="7.510194093454629"><ele>1664.6999816894531</ele></trkpt><trkpt lat="46.215947477612644" lon="7.510191618464887"><ele>1664.5</ele></trkpt><trkpt lat="46.21608511218801" lon="7.510187909472734"><ele>1663.7999877929688</ele></trkpt><trkpt lat="46.21616790210828" lon="7.510138773359358"><ele>1662.5</ele></trkpt><trkpt lat="46.21625159168616" lon="7.5100896381773055"><ele>1660.5999755859375</ele></trkpt><trkpt lat="46.216364078223705" lon="7.510022398084402"><ele>1659.1999816894531</ele></trkpt><trkpt lat="46.216452196240425" lon="7.510084714740515"><ele>1659.0</ele></trkpt><trkpt lat="46.216469280421734" lon="7.510096399579197"><ele>1659.1999816894531</ele></trkpt><trkpt lat="46.21648455923423" lon="7.510118449572474"><ele>1659.5999755859375</ele></trkpt><trkpt lat="46.216569064650685" lon="7.510204087477177"><ele>1660.3999938964844</ele></trkpt><trkpt lat="46.216614021454006" lon="7.510237839072943"><ele>1661.0</ele></trkpt><trkpt lat="46.21665178285912" lon="7.5102702849544585"><ele>1660.7999877929688</ele></trkpt><trkpt lat="46.21673992369324" lon="7.5102950213477015"><ele>1660.0999755859375</ele></trkpt><trkpt lat="46.21682896558195" lon="7.510318463202566"><ele>1660.0999755859375</ele></trkpt><trkpt lat="46.216885628178716" lon="7.510334087535739"><ele>1660.5999755859375</ele></trkpt><trkpt lat="46.216963849030435" lon="7.510398983955383"><ele>1660.3999938964844</ele></trkpt><trkpt lat="46.21704207081348" lon="7.510462584439665"><ele>1659.5</ele></trkpt><trkpt lat="46.21711939200759" lon="7.510527479927987"><ele>1658.6999816894531</ele></trkpt><trkpt lat="46.21719761379063" lon="7.51059108087793"><ele>1658.5</ele></trkpt><trkpt lat="46.21727583464235" lon="7.510655977763236"><ele>1658.7999877929688</ele></trkpt><trkpt lat="46.21735405549407" lon="7.5107208751142025"><ele>1659.1999816894531</ele></trkpt><trkpt lat="46.21743227727711" lon="7.510784476995468"><ele>1659.1999816894531</ele></trkpt><trkpt lat="46.21751049766317" lon="7.510849374346435"><ele>1657.5999755859375</ele></trkpt><trkpt lat="46.21761119551957" lon="7.510932444129139"><ele>1655.5</ele></trkpt><trkpt lat="46.21767410635948" lon="7.511024536099285"><ele>1655.0999755859375</ele></trkpt><trkpt lat="46.217737016268075" lon="7.5111179244704545"><ele>1655.8999938964844</ele></trkpt><trkpt lat="46.21779992710799" lon="7.5112100169062614"><ele>1656.2999877929688</ele></trkpt><trkpt lat="46.21786283701658" lon="7.511303405743092"><ele>1656.3999938964844</ele></trkpt><trkpt lat="46.2179257478565" lon="7.511395498644561"><ele>1656.5999755859375</ele></trkpt><trkpt lat="46.21798865869641" lon="7.511487591546029"><ele>1656.5999755859375</ele></trkpt><trkpt lat="46.21806235285476" lon="7.5115965460427105"><ele>1656.0999755859375</ele></trkpt><trkpt lat="46.218110006768256" lon="7.511631599161774"><ele>1655.0</ele></trkpt><trkpt lat="46.218196341302246" lon="7.51166799897328"><ele>1653.7999877929688</ele></trkpt><trkpt lat="46.21828267676756" lon="7.511703103315085"><ele>1653.8999938964844</ele></trkpt><trkpt lat="46.21836901130155" lon="7.511739503592253"><ele>1654.6999816894531</ele></trkpt><trkpt lat="46.218455345369875" lon="7.511775904335082"><ele>1653.8999938964844</ele></trkpt><trkpt lat="46.21856776019558" lon="7.511822706554085"><ele>1652.0</ele></trkpt><trkpt lat="46.21864417847246" lon="7.511891492176801"><ele>1650.5999755859375</ele></trkpt><trkpt lat="46.218720596749336" lon="7.511960278265178"><ele>1649.0999755859375</ele></trkpt><trkpt lat="46.218788024038076" lon="7.5120212766341865"><ele>1647.6999816894531</ele></trkpt><trkpt lat="46.21885813726112" lon="7.512103013694286"><ele>1646.5999755859375</ele></trkpt><trkpt lat="46.21892735082656" lon="7.512184750288725"><ele>1645.5999755859375</ele></trkpt><trkpt lat="46.218997463583946" lon="7.512266487814486"><ele>1644.8999938964844</ele></trkpt><trkpt lat="46.21906757634133" lon="7.512348225805908"><ele>1644.3999938964844</ele></trkpt><trkpt lat="46.21913768956438" lon="7.512429964262992"><ele>1644.0</ele></trkpt><trkpt lat="46.219206902664155" lon="7.512511701323092"><ele>1644.2999877929688</ele></trkpt><trkpt lat="46.219285105820745" lon="7.512602522969246"><ele>1644.7999877929688</ele></trkpt><trkpt lat="46.219372341409326" lon="7.512636334635317"><ele>1645.0999755859375</ele></trkpt><trkpt lat="46.2194586773403" lon="7.512670145370066"><ele>1646.2999877929688</ele></trkpt><trkpt lat="46.21954591432586" lon="7.512702662032098"><ele>1648.3999938964844</ele></trkpt><trkpt lat="46.219632250256836" lon="7.512736472766846"><ele>1649.6999816894531</ele></trkpt><trkpt lat="46.219719485379755" lon="7.512770284898579"><ele>1649.2999877929688</ele></trkpt><trkpt lat="46.219806720502675" lon="7.512804097030312"><ele>1648.2999877929688</ele></trkpt><trkpt lat="46.21989305643365" lon="7.512837908230722"><ele>1648.0</ele></trkpt><trkpt lat="46.21998029248789" lon="7.512870424892753"><ele>1647.5</ele></trkpt><trkpt lat="46.22006752761081" lon="7.512904237490147"><ele>1647.0</ele></trkpt><trkpt lat="46.22015386354178" lon="7.512938049156219"><ele>1647.6999816894531</ele></trkpt><trkpt lat="46.22024109913036" lon="7.512971862219274"><ele>1648.6999816894531</ele></trkpt><trkpt lat="46.220327435061336" lon="7.5130056738853455"><ele>1648.2999877929688</ele></trkpt><trkpt lat="46.220414670649916" lon="7.513038190547377"><ele>1646.0999755859375</ele></trkpt><trkpt lat="46.220501905307174" lon="7.513072003144771"><ele>1643.0999755859375</ele></trkpt><trkpt lat="46.220588240772486" lon="7.513105815276504"><ele>1641.6999816894531</ele></trkpt><trkpt lat="46.220675476361066" lon="7.51313962880522"><ele>1643.7999877929688</ele></trkpt><trkpt lat="46.22076181322336" lon="7.513173441868275"><ele>1647.8999938964844</ele></trkpt><trkpt lat="46.220849049743265" lon="7.513205959927291"><ele>1651.0999755859375</ele></trkpt><trkpt lat="46.220921895932406" lon="7.513234570156783"><ele>1652.0999755859375</ele></trkpt><trkpt lat="46.22100913198665" lon="7.513267088215798"><ele>1652.1999816894531</ele></trkpt><trkpt lat="46.22109636804089" lon="7.513299606274813"><ele>1652.3999938964844</ele></trkpt><trkpt lat="46.221198892220855" lon="7.5133386249653995"><ele>1652.1999816894531</ele></trkpt><trkpt lat="46.22128522535786" lon="7.5133763258345425"><ele>1651.5999755859375</ele></trkpt><trkpt lat="46.22137155896053" lon="7.513412730768323"><ele>1651.0</ele></trkpt><trkpt lat="46.221456992439926" lon="7.513450430706143"><ele>1650.6999816894531</ele></trkpt><trkpt lat="46.22154872212559" lon="7.51348943496123"><ele>1650.5</ele></trkpt><trkpt lat="46.2216288219206" lon="7.513429927639663"><ele>1650.1999816894531</ele></trkpt><trkpt lat="46.22169812070206" lon="7.513379477430135"><ele>1649.7999877929688</ele></trkpt><trkpt lat="46.221753960475326" lon="7.5132771683856845"><ele>1649.2999877929688</ele></trkpt><trkpt lat="46.221808900125325" lon="7.513174858409911"><ele>1649.0999755859375</ele></trkpt><trkpt lat="46.22186473850161" lon="7.513073844835162"><ele>1649.1999816894531</ele></trkpt><trkpt lat="46.22191967815161" lon="7.512971534393728"><ele>1648.6999816894531</ele></trkpt><trkpt lat="46.22197551699355" lon="7.512869224417955"><ele>1647.6999816894531</ele></trkpt><trkpt lat="46.2220313558355" lon="7.512766914442182"><ele>1647.0</ele></trkpt><trkpt lat="46.22210520785302" lon="7.512630932498723"><ele>1647.0</ele></trkpt><trkpt lat="46.222183510661125" lon="7.512567532714456"><ele>1647.7999877929688</ele></trkpt><trkpt lat="46.22226271312684" lon="7.512504133861512"><ele>1648.0999755859375</ele></trkpt><trkpt lat="46.22234101546928" lon="7.512440734077245"><ele>1647.3999938964844</ele></trkpt><trkpt lat="46.222419317346066" lon="7.512378629762679"><ele>1647.0999755859375</ele></trkpt><trkpt lat="46.22249762015417" lon="7.51231522904709"><ele>1647.3999938964844</ele></trkpt><trkpt lat="46.22257772227749" lon="7.512250534724444"><ele>1647.5</ele></trkpt><trkpt lat="46.222664998844266" lon="7.5122208427637815"><ele>1648.0999755859375</ele></trkpt><trkpt lat="46.22275317506865" lon="7.512191152200103"><ele>1648.8999938964844</ele></trkpt><trkpt lat="46.22284045163542" lon="7.512161459773779"><ele>1649.0</ele></trkpt><trkpt lat="46.22292772680521" lon="7.512133063282818"><ele>1648.5</ele></trkpt><trkpt lat="46.22301590256393" lon="7.512103371787816"><ele>1647.3999938964844</ele></trkpt><trkpt lat="46.22310317866504" lon="7.512073679361492"><ele>1646.1999816894531</ele></trkpt><trkpt lat="46.22322554513812" lon="7.51203236868605"><ele>1645.1999816894531</ele></trkpt><trkpt lat="46.223314590752125" lon="7.512049335986376"><ele>1644.6999816894531</ele></trkpt><trkpt lat="46.223403635434806" lon="7.512067599222064"><ele>1644.5</ele></trkpt><trkpt lat="46.22353675356135" lon="7.512093697208911"><ele>1644.0999755859375</ele></trkpt><trkpt lat="46.22361677698791" lon="7.512152126524597"><ele>1644.0999755859375</ele></trkpt><trkpt lat="46.22369770053774" lon="7.512209260836244"><ele>1644.5</ele></trkpt><trkpt lat="46.223777723964304" lon="7.51226769015193"><ele>1644.3999938964844</ele></trkpt><trkpt lat="46.22385864658281" lon="7.512326120398939"><ele>1644.0</ele></trkpt><trkpt lat="46.22393866954371" lon="7.512384550180286"><ele>1643.6999816894531</ele></trkpt><trkpt lat="46.224002508912235" lon="7.512429997790605"><ele>1643.5999755859375</ele></trkpt><trkpt lat="46.2240861360915" lon="7.512479360215366"><ele>1643.5</ele></trkpt><trkpt lat="46.22416886454448" lon="7.5125274253077805"><ele>1643.5</ele></trkpt><trkpt lat="46.224252491723746" lon="7.512576787732542"><ele>1643.3999938964844</ele></trkpt><trkpt lat="46.224336119834334" lon="7.512624854687601"><ele>1643.5</ele></trkpt><trkpt lat="46.22441884735599" lon="7.512674216646701"><ele>1643.5</ele></trkpt><trkpt lat="46.22452585492283" lon="7.512736571487039"><ele>1643.5</ele></trkpt><trkpt lat="46.224596867803484" lon="7.5128170237876475"><ele>1643.7999877929688</ele></trkpt><trkpt lat="46.224666982423514" lon="7.512896178755909"><ele>1643.8999938964844</ele></trkpt><trkpt lat="46.22476676013321" lon="7.51300907228142"><ele>1643.1999816894531</ele></trkpt><trkpt lat="46.22482516709715" lon="7.513107653241605"><ele>1642.8999938964844</ele></trkpt><trkpt lat="46.224883574061096" lon="7.513206234201789"><ele>1642.5999755859375</ele></trkpt><trkpt lat="46.22494288114831" lon="7.513303520157933"><ele>1640.5</ele></trkpt><trkpt lat="46.22500128811225" lon="7.513402101583779"><ele>1638.8999938964844</ele></trkpt><trkpt lat="46.22508665220812" lon="7.513546083122492"><ele>1639.0999755859375</ele></trkpt><trkpt lat="46.22517571784556" lon="7.513531947042793"><ele>1638.7999877929688</ele></trkpt><trkpt lat="46.22526568174362" lon="7.513519108295441"><ele>1637.5999755859375</ele></trkpt><trkpt lat="46.22535474738106" lon="7.513504972215742"><ele>1636.3999938964844</ele></trkpt><trkpt lat="46.22544471267611" lon="7.513490837067366"><ele>1635.5</ele></trkpt><trkpt lat="46.22553377831355" lon="7.513476700987667"><ele>1635.7999877929688</ele></trkpt><trkpt lat="46.22562374267727" lon="7.5134638622403145"><ele>1636.1999816894531</ele></trkpt><trkpt lat="46.22571280831471" lon="7.513449726160616"><ele>1635.5999755859375</ele></trkpt><trkpt lat="46.22580187395215" lon="7.513435589615256"><ele>1634.3999938964844</ele></trkpt><trkpt lat="46.22589183785021" lon="7.513422750867903"><ele>1633.0999755859375</ele></trkpt><trkpt lat="46.22598090348765" lon="7.513408614322543"><ele>1632.1999816894531</ele></trkpt><trkpt lat="46.22607086831704" lon="7.513394479174167"><ele>1631.5999755859375</ele></trkpt><trkpt lat="46.22615993395448" lon="7.513380342628807"><ele>1631.5</ele></trkpt><trkpt lat="46.22624989878386" lon="7.5133675038814545"><ele>1632.6999816894531</ele></trkpt><trkpt lat="46.22633896488696" lon="7.513353367336094"><ele>1634.8999938964844</ele></trkpt><trkpt lat="46.226428030990064" lon="7.513339231256396"><ele>1636.3999938964844</ele></trkpt><trkpt lat="46.22650630027056" lon="7.513327672146261"><ele>1636.2999877929688</ele></trkpt><trkpt lat="46.22659534215927" lon="7.513349826913327"><ele>1635.7999877929688</ele></trkpt><trkpt lat="46.22668348439038" lon="7.513371980749071"><ele>1636.0</ele></trkpt><trkpt lat="46.226772527210414" lon="7.513392839580774"><ele>1636.5</ele></trkpt><trkpt lat="46.22686066990718" lon="7.513414993416518"><ele>1636.8999938964844</ele></trkpt><trkpt lat="46.226949711795896" lon="7.5134371486492455"><ele>1637.2999877929688</ele></trkpt><trkpt lat="46.22702796058729" lon="7.513456696644425"><ele>1636.7999877929688</ele></trkpt><trkpt lat="46.22710626386106" lon="7.513393292203546"><ele>1636.0999755859375</ele></trkpt><trkpt lat="46.227185466792434" lon="7.51332988915965"><ele>1637.2999877929688</ele></trkpt><trkpt lat="46.22726286994293" lon="7.51326777972281"><ele>1639.0999755859375</ele></trkpt><trkpt lat="46.22733221016824" lon="7.513153813313693"><ele>1639.0</ele></trkpt><trkpt lat="46.2273907456547" lon="7.513055385556072"><ele>1638.0</ele></trkpt><trkpt lat="46.2274492806755" lon="7.512956957798451"><ele>1637.0999755859375</ele></trkpt><trkpt lat="46.2275078156963" lon="7.512858529575169"><ele>1636.3999938964844</ele></trkpt><trkpt lat="46.22756545152515" lon="7.512760100420564"><ele>1636.3999938964844</ele></trkpt><trkpt lat="46.22762398747727" lon="7.512660375330597"><ele>1635.5999755859375</ele></trkpt><trkpt lat="46.22767531732097" lon="7.512574898544699"><ele>1634.0999755859375</ele></trkpt><trkpt lat="46.22775990422815" lon="7.512530942913145"><ele>1634.0</ele></trkpt><trkpt lat="46.227844490204006" lon="7.512488283216953"><ele>1633.3999938964844</ele></trkpt><trkpt lat="46.22792997676879" lon="7.512444328516722"><ele>1632.0</ele></trkpt><trkpt lat="46.22801456274465" lon="7.512401668354869"><ele>1631.5</ele></trkpt><trkpt lat="46.22809915011749" lon="7.5123577122576535"><ele>1632.2999877929688</ele></trkpt><trkpt lat="46.228183736559004" lon="7.512315052561462"><ele>1633.8999938964844</ele></trkpt><trkpt lat="46.2282899194397" lon="7.512260755524039"><ele>1634.7999877929688</ele></trkpt><trkpt lat="46.22837987495586" lon="7.512262172065675"><ele>1635.2999877929688</ele></trkpt><trkpt lat="46.22846982907504" lon="7.512264884542674"><ele>1635.5999755859375</ele></trkpt><trkpt lat="46.22855978412554" lon="7.51226630108431"><ele>1635.2999877929688</ele></trkpt><trkpt lat="46.22864973824471" lon="7.512269013561308"><ele>1634.6999816894531</ele></trkpt><trkpt lat="46.22873969329521" lon="7.512270429637283"><ele>1633.6999816894531</ele></trkpt><trkpt lat="46.228829647414386" lon="7.512273142114282"><ele>1633.0</ele></trkpt><trkpt lat="46.228919602464885" lon="7.512274558655918"><ele>1633.0999755859375</ele></trkpt><trkpt lat="46.22900955658406" lon="7.512277271132916"><ele>1632.5</ele></trkpt><trkpt lat="46.22909951163456" lon="7.512278687208891"><ele>1631.0999755859375</ele></trkpt><trkpt lat="46.229189465753734" lon="7.5122813996858895"><ele>1630.5999755859375</ele></trkpt><trkpt lat="46.22927942080423" lon="7.5122828162275255"><ele>1631.5</ele></trkpt><trkpt lat="46.22936937538907" lon="7.512285529170185"><ele>1632.8999938964844</ele></trkpt><trkpt lat="46.22951240371913" lon="7.5122883124277"><ele>1633.7999877929688</ele></trkpt><trkpt lat="46.22960054688156" lon="7.512310465797782"><ele>1634.5</ele></trkpt><trkpt lat="46.22968958830461" lon="7.512333916500211"><ele>1635.0</ele></trkpt><trkpt lat="46.229777730535716" lon="7.512356069870293"><ele>1634.6999816894531</ele></trkpt><trkpt lat="46.22986677289009" lon="7.512378224171698"><ele>1633.5999755859375</ele></trkpt><trkpt lat="46.229954914189875" lon="7.512401673477143"><ele>1631.5999755859375</ele></trkpt><trkpt lat="46.23004395607859" lon="7.512423827778548"><ele>1629.5999755859375</ele></trkpt><trkpt lat="46.230177069082856" lon="7.512457707431167"><ele>1629.2999877929688</ele></trkpt><trkpt lat="46.230253574904054" lon="7.512390406802297"><ele>1630.0</ele></trkpt><trkpt lat="46.23037058347836" lon="7.512288162950426"><ele>1630.0</ele></trkpt></trkseg></trk></gpx>